     3.00           OBSERVATION DATA    M: Mixed            RINEX VERSION / TYPE
CONVBIN demo5 b34j                      20240609 013620 UTC PGM / RUN BY / DATE 
log: SAUC00CHL_R_20241602000_15M_30S_MO.ubx                 COMMENT             
format: u-blox UBX                                          COMMENT             
format: u-blox UBX                                          COMMENT             
log: SAUC00CHL_R_20241602000_15M_30S_MO.ubx                 COMMENT             
SAUC00CHL                                                   MARKER NAME         
                                                            MARKER NUMBER       
GEODETIC                                                    MARKER TYPE         
El Sauce            Obstech                                 OBSERVER / AGENCY   
UNKNOWN             UBLOX-ZED-F9P                           REC # / TYPE / VERS 
UNKNWOWN            TWIVSP6037L                             ANT # / TYPE        
  1813185.0000 -5195981.0000 -3216438.0000                  APPROX POSITION XYZ 
        0.0000        0.0000        0.0000                  ANTENNA: DELTA H/E/N
G    8 C1C L1C D1C S1C C2X L2X D2X S2X                      SYS / # / OBS TYPES 
R    8 C1C L1C D1C S1C C2C L2C D2C S2C                      SYS / # / OBS TYPES 
E    8 C1X L1X D1X S1X C7X L7X D7X S7X                      SYS / # / OBS TYPES 
S    4 C1C L1C D1C S1C                                      SYS / # / OBS TYPES 
  2024    06    08    20    00   00.4870000     GPS         TIME OF FIRST OBS   
  2024    06    08    20    08   00.4880000     GPS         TIME OF LAST OBS    
                                                            END OF HEADER       
> 2024 06 08 20 00 00.4870000  0 33                     
G23  21636012.898   113697741.1971      -2597.799          40.000    21636025.831    88595612.1081      -2024.229          37.000  
G11  20789950.258   109252077.0851       1760.919          41.000    20789956.174    85131589.7511       1372.054          40.000  
G12  17799311.719    93536246.8711        -43.365          47.000    17799309.335    72885935.2591        -33.619          41.000  
E34  23751462.695   124814783.3681        -13.810          40.000    23751468.333    95637319.3021        -10.510          44.000  
R13  17599387.454    93979753.2271      -2077.310          41.000    17599387.570    73095645.6511      -1615.926          40.000  
R14  17188054.782    91622274.8121        195.902          50.000    17188056.681    71261965.9141        152.470          48.000  
R03  17600299.411    94215692.6651      -4199.171          50.000    17600299.239    73278922.3271      -3266.005          46.000  
R04  17098108.775    91559588.6981       -899.089          49.000    17098108.015    71213023.1241       -699.323          49.000  
G19  18463957.677    97029065.3691      -3325.180          47.000                                                                  
S31  34940024.651   183610986.5551       -782.039          46.000  
S33  35932786.633   188827934.8051       -783.919          41.000  
G17  20026417.598   105239804.8951      -4117.529          44.000    20026416.045    82005161.1261      -3208.508          39.000  
G06  20153374.581   105906871.3311        868.897          43.000    20153377.440    82524958.1321        676.838          41.000  
R02  20861512.925   111321030.5851      -5013.092          42.000    20861527.528    86582800.5201      -3898.554          37.000  
R23  17535018.566    93800688.0031       -709.426          49.000                                                                  
R24  17859800.891    95504594.8301       2688.697          48.000    17859801.571    74281444.4081       2091.122          45.000  
R05  19797678.442   105829935.7661       2162.836          46.000    19797678.245    82312154.4581       1682.135          44.000  
R15  20289918.237   108423196.6231       1369.290          47.000                                                                  
G25  19486851.184   102404284.1391       1007.576          44.000    19486856.934    79795658.9441        785.066          41.000  
E21  22481247.085   118139914.5831        614.442          43.000    22481255.913    90522938.0921        470.932          46.000  
G10  21967633.566   115440659.3581      -1811.624          42.000    21967635.931    89953899.3281      -1412.023          37.000  
G29  21983753.367   115525403.3611       2999.446          42.000                                                                  
G13  18931082.128    99483453.2141      -4279.067          44.000                                                                  
E19  23092643.480   121352676.4631       1473.742          37.000    23092647.079    92984535.4631       1129.349          41.000  
E07  20938672.638   110033471.6451      -3138.959          46.000    20938680.207    84311361.3051      -2405.302          47.000  
E15  23373995.698   122831289.3341       1510.594          43.000    23374005.240    94117736.1211       1157.323          46.000  
E13  24913563.748   130921663.4031       1536.857          33.000    24913584.589   100316679.8391       1177.000          39.000  
G24  17133401.489    90036876.0191        582.637          49.000    17133400.861    70158879.2771        453.881          47.000  
G15  17826286.702    93677751.9301      -3090.357          46.000    17826287.848    72995696.9321      -2407.994          41.000  
E30  22055966.806   115905052.4371      -2534.804          47.000    22055969.812    88810472.8901      -1942.325          48.000  
E27  20113188.496   105695770.4911      -1048.305          47.000    20113192.344    80987818.9431       -803.265          50.000  
E08                                                                  25008675.835                       -2953.668           9.000  
E18                                                                  24347154.176                       -4352.440          23.000  
> 2024 06 08 20 00 30.4870000  0 32                     
G23  21650866.794   113775795.465       -2605.526          39.000    21650879.170    88656432.997       -2030.343          35.000  
G11  20779906.795   109199303.889        1757.941          39.000    20779913.052    85090468.616        1369.445          40.000  
G12  17799589.953    93537707.470         -53.597          47.000    17799587.437    72887073.453         -41.917          42.000  
E34  23751584.789   124815423.398         -28.717          40.000    23751590.457    95637809.767         -21.865          43.000  
R13  17611073.035    94042151.544       -2082.428          40.000    17611073.104    73144177.637       -1619.641          40.000  
R14  17186968.201    91616483.102         190.378          50.000    17186970.519    71257461.327         148.031          48.000  
R03  17623876.895    94341910.863       -4215.078          49.000    17623878.375    73377091.649       -3278.518          46.000  
R04  17103229.832    91587010.938        -928.559          50.000    17103229.630    71234351.455        -722.284          49.000  
G19  18482987.988    97129070.222       -3341.451          47.000                                                                  
S31  34944499.887   183634503.884        -785.343          45.000  
S33  35937271.025   188851500.328        -787.104          41.000  
G17  20049956.647   105363504.421       -4128.863          44.000    20049955.083    82101550.427       -3217.303          40.000  
G06  20148454.592   105881020.357         855.116          42.000    20148458.064    82504814.517         666.063          41.000  
R02  20889686.743   111471370.652       -5009.717          34.000    20889701.471    86699731.961       -3896.650          29.000  
R23  17539079.513    93822409.577        -738.333          49.000                                                                  
R24  17844757.820    95424160.065        2674.087          48.000    17844760.791    74218884.131        2079.872          47.000  
R05  19785598.419   105765363.000        2142.393          44.000    19785599.202    82261931.220        1666.190          45.000  
R15  20282239.698   108382170.210        1366.235          46.000                                                                  
G25  19481122.137   102374176.675         999.785          44.000    19481127.394    79772198.815         778.879          41.000  
E21  22477760.541   118121591.483         607.451          43.000    22477768.914    90508898.520         465.483          47.000  
G10  21978022.920   115495251.589       -1827.044          39.000    21978025.691    89996438.563       -1423.656          37.000  
G29  21966637.841   115435459.364        2997.170          43.000                                                                  
G13  18955539.505    99611979.308       -4289.186          44.000                                                                  
E19  23084260.767   121308628.020        1463.175          37.000    23084264.972    92950784.127        1121.126          41.000  
E07  20956626.490   110127819.974       -3150.413          45.000    20956634.126    84383654.020       -2413.901          47.000  
E15  23365390.829   122786069.845        1504.740          42.000    23365399.887    94083087.572        1152.875          46.000  
E13  24904780.371   130875505.980        1541.391          34.000    24904801.036   100281312.411        1180.806          39.000  
G24  17130110.584    90019579.408         570.841          50.000    17130109.089    70145401.408         444.730          47.000  
G15  17843973.319    93770693.708       -3105.466          46.000    17843974.165    73068118.880       -2420.042          41.000  
E30  22070445.459   115981136.886       -2537.039          47.000    22070448.490    88868771.334       -1944.025          48.000  
E27  20119193.144   105727322.407       -1054.709          47.000    20119196.179    81011995.110        -808.280          50.000  
E18                                                                  24379564.734                       -4351.804          22.000  
> 2024 06 08 20 01 00.4870000  0 32                     
G23  21665762.908   113854076.730       -2613.129          37.000    21665775.898    88717430.787       -2036.164          32.000  
G11  20769880.068   109146621.424        1754.552          40.000    20769886.681    85049418.139        1367.235          39.000  
G12  17799926.097    93539473.116         -63.943          47.000    17799924.084    72888449.354         -50.051          43.000  
E34  23751788.287   124816499.498         -43.508          39.000    23751794.973    95638634.375         -33.113          43.000  
R13  17622785.670    94104690.3111      -2087.330          41.000    17622784.940    73192821.194       -1623.181          40.000  
R14  17185912.380    91610852.440         184.920          50.000    17185914.384    71253081.971         143.733          48.000  
R03  17647543.061    94468597.104       -4230.695          49.000    17647545.692    73475624.998       -3290.617          46.000  
R04  17108515.176    91615310.568        -958.030          51.000    17108514.130    71256362.181        -745.149          48.000  
G19  18502109.802    97229554.523       -3357.530          47.000                                                                  
S31  34948990.302   183658100.385        -788.011          45.000  
S33  35941770.758   188875145.427        -789.528          41.000  
G17  20073558.959   105487534.320       -4139.856          43.000    20073557.048    82198197.158       -3225.934          40.000  
G06  20143612.998   105855577.208         841.080          42.000    20143616.122    82484988.685         655.524          41.000  
R02  20917840.764                1      -5009.020          19.000    20917848.157                1      -3887.912          11.000  
R23  17543302.516    93844997.568        -767.504          50.000                                                                  
R24  17829797.009    95344154.966        2659.525          48.000    17829799.862    74156658.051        2068.549          48.000  
R05  19773631.017   105701396.045        2122.138          44.000    19773633.027    82212179.184        1650.488          46.000  
R15  20274577.138   108341229.644        1363.219          46.000                                                                  
G25  19475435.427   102344292.420         992.139          44.000    19475441.247    79748912.601         773.415          42.000  
E21  22474311.257   118103473.426         600.400          42.000    22474321.164    90495016.060         460.045          47.000  
G10  21988496.509   115550295.335       -1842.729          37.000    21988501.186    90039329.602       -1435.631          36.000  
G29  21949534.779   115345582.006        2994.784          41.000                                                                  
G13  18980053.907    99740802.951       -4299.412          43.000                                                                  
E19  23075940.464   121264904.737        1451.458          37.000    23075944.651    92917281.906        1112.479          41.000  
E07  20974644.569   110222502.707       -3161.918          45.000    20974651.842    84456202.975       -2422.647          47.000  
E15  23356817.635   122741015.811        1499.037          42.000    23356826.024    94048565.791        1148.513          46.000  
E13  24895971.362   130829205.769        1545.579          35.000    24895990.301   100245835.502        1184.497          38.000  
G24  17126885.382    90002631.121         559.127          50.000    17126883.280    70132194.951         435.663          47.000  
G15  17861745.486    93864084.577       -3120.648          46.000    17861744.938    73140890.774       -2431.669          40.000  
E30  22084935.457   116057281.149       -2539.339          47.000    22084938.334    88927115.617       -1945.673          48.000  
E27  20125233.469   105759061.201       -1061.167          48.000    20125235.642    81036314.471        -813.119          50.000  
E18                                                                  24411951.129                       -4350.112          22.000  
> 2024 06 08 20 01 30.4880000  0 31                     
G23  21680707.044   113932603.639       -2621.707          39.000    21680720.097    88778619.977       -2042.764          34.000  
G11  20759875.838   109094049.783        1750.283          41.000    20759881.927    85008454.025        1363.573          39.000  
G12  17800323.562    93541561.323         -75.073          47.000    17800321.767    72890076.604         -58.724          44.000  
E34  23752080.424   124818031.638         -58.816          39.000    23752086.329    95639808.418         -45.192          44.000  
R13  17634528.394    94167397.049       -2093.223          40.000    17634528.011    73241593.097       -1628.208          40.000  
R14  17184889.258    91605401.780         178.503          50.000    17184891.467    71248842.627         138.831          48.000  
R03  17671300.953    94595769.437       -4247.177          50.000    17671302.986    73574536.412       -3303.264          46.000  
R04  17113967.830    91644507.059        -988.330          51.000    17113965.826    71279070.478        -768.768          47.000  
G19  18521326.095    97330537.312       -3374.490          47.000                                                                  
S31  34953499.437   183681795.870        -791.744          45.000  
S33  35946289.023   188898889.704        -793.422          41.000  
G17  20097227.648   105611914.691       -4151.831          43.000    20097225.726    82295116.956       -3235.120          41.000  
G06  20138853.121   105830562.590         826.532          42.000    20138855.839    82465496.802         643.878          40.000  
R23  17547690.753    93868473.269        -797.471          49.000                                                                  
R24  17814919.565    95264600.618        2644.001          47.000    17814922.643    74094782.574        2056.389          48.000  
R05  19761783.468   105638055.524        2100.589          46.000    19761783.846    82162914.395        1633.781          44.000  
R15  20266934.242   108300392.196        1359.296          45.000                                                                  
G25  19469793.971   102314648.675         983.915          43.000    19469800.026    79725813.826         766.549          43.000  
E21  22470905.702   118085578.180         592.621          42.000    22470915.675    90481304.330         453.964          47.000  
G10  21999059.785   115605809.188       -1858.435          38.000    21999065.260    90082586.970       -1448.033          38.000  
G29  21932448.261   115255790.228        2991.325          41.000                                                                  
G13  19004628.800    99869944.438       -4310.001          43.000                                                                  
E19  23067685.468   121221525.438        1439.843          37.000    23067689.689    92884043.288        1103.552          41.000  
E07  20992729.755   110317540.241       -3173.841          45.000    20992737.290    84529023.787       -2431.865          47.000  
E15  23348279.610   122696146.784        1492.247          41.000    23348287.679    94014185.784        1143.390          45.000  
E13  24887136.953   130782781.230        1549.526          35.000    24887155.783   100210263.401        1186.755          38.000  
G24  17123730.049    89986051.467         546.216          50.000    17123727.486    70119275.750         425.623          46.000  
G15  17879606.343    93957944.243       -3136.510          46.000    17879605.602    73214027.994       -2443.965          39.000  
E30  22099440.079   116133506.132       -2542.219          46.000    22099443.299    88985521.741       -1947.849          48.000  
E27  20131312.647   105791005.931       -1068.307          48.000    20131314.633    81060791.650        -818.678          50.000  
E18                                                                  24444326.453                       -4348.991          23.000  
> 2024 06 08 20 02 00.4880000  0 31                     
G23  21695699.106   114011383.728       -2630.550          40.000    21695712.524    88840006.443       -2049.937          36.000  
G11  20749897.420   109041611.190        1745.659          43.000    20749902.489    84967593.491        1360.371          38.000  
G12  17800784.834    93543987.033         -86.777          47.000    17800783.951    72891966.832         -67.465          44.000  
E34  23752461.708   124820036.756         -74.846          40.000    23752468.366    95641344.859         -57.320          44.000  
R13  17646304.153    94230277.2441      -2099.247          40.000    17646304.515    73290502.972       -1632.662          41.000  
R14  17183903.577    91600146.792         171.686          50.000    17183905.395    71244755.453         133.386          48.000  
R03  17695150.560    94723431.251       -4263.818          50.000    17695152.508    73673828.545       -3316.234          47.000  
R04  17119589.938    91674613.779       -1018.903          49.000    17119587.113    71302486.707        -792.401          47.000  
G19  18540638.439    97432024.921       -3391.625          46.000                                                                  
S31  34958030.063   183705605.088        -795.721          46.000  
S33  35950828.825   188922746.086        -797.346          41.000  
G17  20120963.894   105736650.100       -4164.032          42.000    20120961.766    82392313.450       -3244.934          41.000  
G06  20134178.719   105805996.750         811.096          43.000    20134180.987    82446354.610         631.891          40.000  
R23  17552247.815    93892851.649        -827.884          49.000                                                                  
R24  17800132.351    95185523.287        2627.677          47.000    17800134.467    74033278.119        2043.788          48.000  
R05  19750056.625   105575365.358        2078.423          47.000    19750056.098    82114155.357        1616.691          44.000  
R15  20259314.663   108259675.583        1355.011          45.000                                                                  
G25  19464201.454   102285262.756         974.971          44.000    19464207.610    79702915.938         759.580          42.000  
E21  22467546.433   118067922.204         584.453          43.000    22467555.900    90467775.900         447.791          47.000  
G10  22009715.248   115661802.963       -1874.844          38.000    22009720.553    90126218.369       -1461.105          38.000  
G29  21915382.105   115166107.153        2987.168          42.000                                                                  
G13  19029264.887    99999408.437       -4321.436          42.000                                                                  
E19  23059500.795   121178510.805        1427.787          38.000    23059504.375    92851084.094        1093.798          41.000  
E07  21010884.369   110412940.489       -3186.358          45.000    21010891.409    84602122.505       -2441.427          47.000  
E15  23339780.632   122651483.670        1485.219          41.000    23339788.220    93979963.575        1137.944          45.000  
E13  24878282.675   130736252.965        1552.629          35.000    24878302.084   100174611.718        1189.772          39.000  
G24  17120648.006    89969859.331         532.910          49.000    17120645.754    70106658.523         415.442          45.000  
G15  17897557.190    94052279.654       -3152.810          45.000    17897557.472    73287535.900       -2456.603          40.000  
E30  22113962.717   116209822.068       -2545.549          46.000    22113965.739    89043997.533       -1950.433          48.000  
E27  20137433.053   105823169.435       -1075.988          49.000    20137435.303    81085436.454        -824.428          50.000  
E18                                                                  24476683.914                       -4338.629          21.000  
> 2024 06 08 20 02 30.4880000  0 31                     
G23  21710741.855   114090428.861       -2639.115          39.000    21710756.084    88901599.499       -2056.515          37.000  
G11  20739946.493   108989319.092        1740.608          43.000    20739951.040    84926847.107        1356.309          39.000  
G12  17801312.013    93546761.364         -98.472          47.000    17801311.519    72894128.704         -76.515          44.000  
E34  23752936.405   124822528.321         -91.156          40.000    23752942.468    95643254.078         -69.892          45.000  
R13  17658116.571    94293353.671       -2105.685          40.000    17658116.618    73339562.371       -1638.011          41.000  
R14  17182957.840    91595099.965         164.771          51.000    17182959.590    71240830.169         128.210          48.000  
R03  17719092.533    94851594.647       -4280.374          50.000    17719093.584    73773510.774       -3329.122          46.000  
R04  17125382.870    91705642.821       -1049.689          47.000    17125380.944    71326620.314        -816.357          47.000  
G19  18560049.341    97534030.921       -3408.799          46.000                                                                  
S31  34962584.580   183729539.622        -800.077          46.000  
S33  35955392.428   188946729.329        -801.516          41.000  
G17  20144770.778   105861754.159       -4176.227          42.000    20144768.575    82489797.162       -3254.291          41.000  
G06  20129592.361   105781893.837         795.673          44.000    20129594.067    82427573.129         620.245          40.000  
R23  17556976.181    93918146.571        -858.501          49.000                                                                  
R24  17785437.672    95106937.155        2611.259          48.000    17785438.035    73972155.745        2030.962          47.000  
R05  19738451.646   105513339.249        2056.494          45.000    19738453.183    82065912.898        1599.549          45.000  
R15  20251718.171   108219089.937        1350.671          44.000                                                                  
G25  19458660.438   102256145.402         965.980          43.000    19458666.244    79680227.313         752.591          42.000  
E21  22464235.623   118050516.604         576.081          44.000    22464243.912    90454439.305         441.354          48.000  
G10  22020464.077   115718288.592       -1890.906          37.000    22020469.556    90170232.986       -1473.640          37.000  
G29  21898339.112   115076544.525        2983.438          43.000                                                                  
G13  19053965.422   100129208.864       -4332.406          42.000                                                                  
E19  23051387.303   121135873.037        1415.007          38.000    23051390.696    92818413.640        1084.258          41.000  
E07  21029110.639   110508717.261       -3198.813          46.000    21029117.379    84675509.730       -2451.020          47.000  
E15  23331323.306   122607039.431        1477.771          42.000    23331330.316    93945909.055        1132.365          44.000  
E13  24869411.078   130689632.957        1555.161          34.000    24869430.857   100138889.800        1191.907          39.000  
G24  17117641.792    89954068.409         519.604          48.000    17117640.097    70094353.943         404.950          44.000  
G15  17915601.342    94147103.323       -3168.972          45.000    17915601.283    73361424.244       -2469.229          39.000  
E30  22128505.329   116286243.381       -2549.172          45.000    22128508.187    89102554.062       -1953.241          48.000  
E27  20143597.783   105855564.109       -1083.748          49.000    20143599.971    81110258.375        -830.319          51.000  
E18                                                                  24509031.566                       -4345.778          18.000  
> 2024 06 08 20 03 00.4880000  0 31                     
G23  21725833.792   114169737.723       -2647.942          39.000    21725848.386    88963397.954       -2063.213          36.000  
G11  20730023.210   108937177.836        1735.536          43.000    20730029.218    84886218.233        1352.075          40.000  
G12  17801906.098    93549885.003        -109.999          47.000    17801905.331    72896562.760         -85.565          43.000  
E34  23753503.120   124825508.757        -107.467          40.000    23753509.326    95645537.900         -82.253          44.000  
R13  17669965.148    94356624.204       -2112.379          39.000    17669965.237    73388772.718       -1643.175          42.000  
R14  17182050.073    91590262.198         157.709          51.000    17182051.280    71237067.492         122.626          48.000  
R03  17743127.182    94980256.338       -4296.987          49.000    17743128.458    73873580.602       -3342.163          46.000  
R04  17131349.895    91737594.806       -1080.487          48.000    17131348.688    71351471.806        -840.332          48.000  
G19  18579558.723    97636553.769       -3425.952          46.000                                                                  
S31  34967163.875   183753602.867        -804.468          46.000  
S33  35959980.197   188970839.320        -805.679          41.000  
G17  20168646.854   105987225.255       -4188.482          42.000    20168644.866    82587566.925       -3263.855          42.000  
G06  20125094.521   105758257.941         780.096          44.000    20125096.077    82409155.606         607.758          40.000  
R23  17561876.659    93944359.990        -889.015          48.000                                                                  
R24  17770835.494    95028848.326        2594.492          49.000    17770834.856    73911420.132        2018.003          46.000  
R05  19726974.073   105451981.328        2034.248          46.000    19726975.412    82018190.158        1582.054          45.000  
R15  20244148.856   108178636.138        1346.362          45.000                                                                  
G25  19453170.763   102227297.454         957.134          42.000    19453176.145    79657748.560         746.181          41.000  
E21  22460972.273   118033362.168         567.585          45.000    22460979.489    90441295.140         434.938          48.000  
G10  22031305.975   115775265.372       -1907.454          40.000    22031312.523    90214630.336       -1486.411          38.000  
G29  21881320.106   114987105.955        2979.201          44.000                                                                  
G13  19078730.363   100259344.182       -4343.497          43.000                                                                  
E19  23043346.430   121093615.122        1402.125          39.000    23043349.470    92786034.245        1074.283          41.000  
E07  21047408.072   110604870.216       -3211.333          46.000    21047414.826    84749185.200       -2460.640          47.000  
E15  23322908.253   122562817.531        1470.449          42.000    23322914.988    93912024.899        1126.658          44.000  
E13  24860523.522   130642924.015        1558.695          35.000    24860542.824   100103099.761        1194.251          39.000  
G24  17114712.790    89938681.896         506.073          47.000    17114711.882    70082364.463         394.495          44.000  
G15  17933738.535    94242414.244       -3185.066          45.000    17933739.434    73435692.273       -2481.815          41.000  
E30  22143067.978   116362770.880       -2552.549          45.000    22143070.983    89161191.946       -1955.964          47.000  
E27  20149806.473   105888190.356       -1091.404          49.000    20149808.477    81135257.728        -836.235          51.000  
E18                                                                  24541363.817                       -4327.383          17.000  
> 2024 06 08 20 03 30.4880000  0 31                     
G23  21740976.107   114249310.026       -2656.572          40.000    21740991.070    89025401.786       -2070.270          38.000  
G11  20720130.323   108885193.051        1730.493          43.000    20720137.646    84845711.258        1348.282          41.000  
G12  17802568.256    93553359.927        -121.384          48.000    17802566.144    72899270.552         -94.768          43.000  
E34  23754164.189   124828981.821        -123.705          41.000    23754169.863    95648199.160         -94.790          44.000  
R13  17681851.177    94420091.974       -2118.967          39.000    17681851.271    73438136.450       -1647.720          42.000  
R14  17181182.067    91585635.852         150.922          51.000    17181182.356    71233469.276         117.499          47.000  
R03  17767255.716    95109414.513       -4313.296          50.000    17767256.458    73974036.532       -3354.854          45.000  
R04  17137490.833    91770471.672       -1110.962          49.000    17137488.184    71377042.608        -864.172          48.000  
G19  18599166.565    97739593.361       -3443.093          46.000                                                                  
S31  34971767.478   183777795.328        -808.183          46.000  
S33  35964592.962   188995079.148        -810.057          41.000  
G17  20192593.171   106113063.050       -4200.537          42.000    20192590.712    82685622.377       -3273.096          42.000  
G06  20120686.583   105735094.432         764.587          45.000    20120688.017    82391106.167         595.837          40.000  
R23  17566948.881    93971495.370        -919.627          48.000                                                                  
R24  17756326.333    94951264.221        2577.808          49.000    17756325.204    73851077.052        2005.134          45.000  
R05  19715622.817   105391298.378        2011.784          47.000    19715623.178    81970992.287        1564.831          44.000  
R15  20236604.663   108138316.274        1341.919          45.000                                                                  
G25  19447731.690   102198720.974         948.413          40.000    19447738.023    79635481.429         738.862          41.000  
E21  22457755.899   118016460.996         559.332          46.000    22457763.321    90428345.040         428.635          48.000  
G10  22042243.132   115832733.656       -1923.569          40.000    22042247.862    90259410.661       -1499.162          38.000  
G29  21864325.174   114897796.072        2975.082          44.000                                                                  
G13  19103559.165   100389814.057       -4354.409          44.000                                                                  
E19  23035378.017   121051741.405        1389.559          38.000    23035381.004    92753949.228        1064.762          41.000  
E07  21065776.646   110701400.415       -3223.638          45.000    21065783.990    84823149.723       -2470.071          47.000  
E15  23314536.395   122518822.867        1462.862          43.000    23314542.877    93878314.817        1120.762          43.000  
E13  24851619.351   130596130.553        1561.034          35.000    24851638.277   100067244.892        1196.321          40.000  
G24  17111862.746    89923704.519         492.511          46.000    17111861.590    70070693.750         384.052          44.000  
G15  17951968.640    94338212.418       -3200.975          46.000    17951969.479    73510339.984       -2494.530          42.000  
E30  22157651.420   116439406.885       -2556.324          44.000    22157654.515    89219912.937       -1958.532          47.000  
E27  20156058.632   105921050.061       -1098.922          49.000    20156061.557    81160435.979        -842.085          51.000  
E18                                                                  24573687.735                       -4336.655          17.000  
> 2024 06 08 20 04 00.4880000  0 31                     
G23  21756164.754   114329120.636       -2664.348          40.000    21756180.184    89087591.181       -2076.235          38.000  
G11  20710263.664   108833345.331        1726.089          44.000    20710271.410    84805311.018        1344.949          41.000  
G12  17803292.047    93557162.125        -132.225          48.000    17803288.793    72902233.379        -103.092          42.000  
E34  23754914.843   124832926.241        -139.558          41.000    23754919.890    95651221.560        -106.713          43.000  
R13  17693769.662    94483741.7641      -2124.674          39.000    17693769.191    73487636.341       -1652.429          41.000  
R14  17180349.725    91581198.022         144.806          51.000    17180350.360    71230017.707         112.616          48.000  
R03  17791470.876    95239041.617       -4328.728          49.000    17791472.527    74074857.203       -3366.715          46.000  
R04  17143799.482    91804249.302       -1140.955          51.000    17143796.199    71403313.992        -887.274          48.000  
G19  18618868.156    97843124.493       -3459.286          46.000                                                                  
S31  34976391.887   183802096.426        -811.895          46.000  
S33  35969226.350   189019427.406        -813.600          41.000  
G17  20216604.229   106239242.585       -4211.773          42.000    20216602.136    82783944.127       -3281.860          42.000  
G06  20116364.754   105712383.586         749.335          44.000    20116366.259    82373409.457         583.911          40.000  
R23  17572190.253    93999529.882        -949.509          48.000                                                                  
R24  17741907.683    94874166.822        2561.621          48.000    17741907.426    73791112.519        1992.600          44.000  
R05  19704393.330   105331270.724        1990.025          47.000    19704392.543    81924304.119        1547.838          42.000  
R15  20229079.424   108098106.534        1338.477          45.000    20229075.906    84076190.3001       1041.089          39.000  
G25  19442341.234   102170393.198         940.473          42.000    19442347.626    79613408.049         732.411          42.000  
E21  22454583.106   117999790.261         551.795          45.000    22454590.958    90415571.513         422.824          49.000  
G10  22053267.020   115890668.911       -1938.891          40.000    22053272.581    90304554.821       -1510.977          39.000  
G29  21847350.728   114808594.755        2971.360          44.000                                                                  
G13  19128446.307   100520593.656       -4364.597          44.000                                                                  
E19  23027478.558   121010231.266        1377.094          38.000    23027481.737    92722142.806        1055.486          41.000  
E07  21084212.669   110798283.897       -3235.244          44.000    21084220.228    84897384.942       -2478.861          47.000  
E15  23306203.895   122475035.293        1455.916          43.000    23306210.298    93844763.379        1115.645          44.000  
E13  24842694.380   130549231.463        1565.076          34.000    24842713.802   100031309.127        1199.215          40.000  
G24  17109087.527    89909115.865         479.675          47.000    17109085.121    70059325.975         373.761          44.000  
G15  17970286.901    94434473.539       -3216.459          46.000    17970287.693    73585348.427       -2506.219          41.000  
E30  22172250.892   116516128.570       -2558.883          44.000    22172254.065    89278699.628       -1960.699          47.000  
E27  20162350.716   105954120.036       -1105.986          48.000    20162354.577    81185775.346        -847.293          51.000  
E18                                                                  24605998.762                       -4331.583          15.000  
> 2024 06 08 20 04 30.4880000  0 30                     
G23  21771394.961   114409150.755       -2670.834          39.000    21771409.831    89149951.747       -2081.604          37.000  
G11  20700420.356   108781622.025        1722.168          44.000    20700427.526    84765007.658        1342.233          40.000  
G12  17804074.406    93561275.404        -141.914          48.000    17804071.279    72905438.583        -110.607          42.000  
E34  23755751.963   124837327.551        -154.040          41.000    23755758.105    95654594.090        -117.774          44.000  
R13  17705717.649    94547544.100       -2128.785          40.000    17705716.949    73537260.323       -1655.895          41.000  
R14  17179548.501    91576932.694         139.642          51.000    17179551.043    71226700.272         108.704          48.000  
R03  17815772.307    95369116.763       -4342.841          50.000    17815773.606    74176026.326       -3377.637          47.000  
R04  17150273.128    91838910.727       -1169.775          50.000    17150269.367    71430272.787        -909.747          48.000  
G19  18638660.006    97947129.140       -3474.492          46.000                                                                  
S31  34981033.459   183826489.355        -814.095          46.000  
S33  35973876.985   189043867.235        -816.036          41.000  
G17  20240677.077   106365745.230       -4221.917          42.000    20240674.626    82882517.659       -3289.655          42.000  
G06  20112126.174   105690112.462         735.400          43.000    20112128.157    82356055.374         572.974          41.000  
R23  17577595.547    94028448.915        -978.344          48.000                                                                  
R24  17727578.799    94797544.623        2546.509          48.000    17727578.471    73731517.604        1980.614          45.000  
R05  19693284.676   105271885.688        1969.149          49.000    19693283.205    81878115.774        1531.514          42.000  
R15  20221572.777   108057990.353        1336.041          47.000    20221575.769    84044989.103        1038.818          41.000  
G25  19436996.070   102142297.944         933.078          43.000    19437001.604    79591515.836         726.917          42.000  
E21  22451450.585   117983333.772         545.444          44.000    22451459.150    90402962.149         417.917          49.000  
G10  22064376.751   115949053.043       -1953.232          41.000    22064383.276    90350048.719       -1521.569          37.000  
G29  21830394.497   114719488.700        2968.838          44.000                                                                  
G13  19153388.947   100651664.512       -4373.551          45.000                                                                  
E19  23019645.363   120969070.488        1366.558          38.000    23019648.992    92690604.098        1047.218          41.000  
E07  21102712.827   110895503.346       -3245.899          44.000    21102720.511    84971877.606       -2487.055          47.000  
E15  23297907.002   122431441.310        1450.259          43.000    23297915.002    93811360.268        1111.187          44.000  
E13  24833747.059   130502212.619        1569.818          35.000    24833766.297    99995281.579        1202.824          40.000  
G24  17106383.703    89894902.210         467.950          48.000    17106381.010    70048250.414         364.600          44.000  
G15  17988690.111    94531178.234       -3230.549          47.000    17988690.860    73660702.521       -2517.399          42.000  
E30  22186863.600   116592919.954       -2560.480          44.000    22186867.041    89337539.717       -1961.892          47.000  
E27  20168681.226   105987383.730       -1111.619          48.000    20168684.531    81211263.148        -851.737          51.000  
> 2024 06 08 20 05 00.4880000  0 30                     
G23  21786659.885   114489373.118       -2676.768          38.000    21786676.677    89212462.053       -2086.013          38.000  
G11  20690597.048   108730001.384        1719.276          44.000    20690603.359    84724784.313        1339.518          39.000  
G12  17804910.835    93565674.424        -150.967          47.000    17804908.619    72908866.463        -117.734          42.000  
E34  23756671.948   124842162.060        -168.177          41.000    23756677.919    95658298.565        -128.746          44.000  
R13  17717690.860    94611479.4271      -2133.113          40.000    17717689.699    73586989.323       -1658.949          40.000  
R14  17178776.700    91572814.459         135.254          52.000    17178777.695    71223497.266         105.212          47.000  
R03  17840149.192    95499610.229       -4356.323          50.000    17840151.218    74277520.825       -3388.317          47.000  
R04  17156904.185    91874429.740       -1197.791          48.000    17156902.134    71457898.606        -931.677          47.000  
G19  18658536.213    98051579.708       -3488.682          47.000                                                                  
S31  34985688.128   183850949.415        -815.986          45.000  
S33  35978540.865   189068374.470        -817.405          41.000  
G17  20264805.491   106492543.339       -4230.957          42.000    20264803.133    82981321.469       -3297.034          43.000  
G06  20107967.618   105668259.021         721.851          42.000    20107969.968    82339026.764         562.665          42.000  
R23  17583162.357    94058227.152       -1006.579          48.000                                                                  
R24  17713334.316    94721377.067        2531.628          48.000    17713335.041    73672276.274        1969.125          46.000  
R05  19682291.369   105213121.129        1948.843          48.000    19682290.991    81832410.055        1515.624          44.000  
R15  20214078.581   108017941.983        1334.155          47.000    20214082.461    84013840.556        1037.683          42.000  
G25  19431689.082   102114409.876         926.764          44.000    19431694.611    79569785.048         721.924          41.000  
E21  22448353.958   117967066.305         539.486          43.000    22448363.169    90390497.605         413.421          48.000  
G10  22075567.685   116007859.238       -1966.796          41.000    22075572.857    90395871.561       -1532.715          37.000  
G29  21813452.589   114630455.473        2966.870          43.000                                                                  
G13  19178381.270   100782999.210       -4381.917          44.000                                                                  
E19  23011874.575   120928236.315        1356.075          38.000    23011878.415    92659315.642        1039.068          41.000  
E07  21121271.573   110993032.406       -3255.744          43.000    21121279.911    85046607.494       -2494.561          46.000  
E15  23289643.594   122388018.419        1444.823          42.000    23289651.897    93778088.250        1107.149          45.000  
E13  24824772.673   130455050.684        1574.617          36.000    24824791.735    99959144.399        1206.698          40.000  
G24  17103746.811    89881040.906         456.665          50.000    17103743.667    70037449.432         355.646          45.000  
G15  18007171.857    94628299.549       -3243.891          47.000    18007172.756    73736381.256       -2527.835          42.000  
E30  22201485.091   116669755.840       -2561.625          44.000    22201488.306    89396413.918       -1962.775          47.000  
E27  20175043.823   106020815.556       -1116.903          48.000    20175046.249    81236879.763        -855.783          51.000  
> 2024 06 08 20 05 30.4880000  0 30                     
G23  21801958.703   114569767.309       -2682.027          41.000    21801975.765    89275106.273       -2089.800          37.000  
G11  20680790.426   108678469.127        1716.911          44.000    20680796.600    84684629.781        1338.047          40.000  
G12  17805798.206    93570340.554        -159.148          47.000    17805797.155    72912502.477        -124.084          43.000  
E34  23757671.387   124847413.617        -181.263          41.000    23757676.757    95662322.615        -138.925          44.000  
R13  17729686.650    94675534.214       -2136.234          40.000    17729684.816    73636809.683       -1661.857          40.000  
R14  17178029.041    91568825.838         131.470          52.000    17178029.157    71220395.094         102.222          48.000  
R03  17864601.424    95630499.774       -4368.738          50.000    17864603.933    74379323.363       -3397.857          48.000  
R04  17163693.103    91910787.084       -1225.031          47.000    17163690.923    71486176.483        -952.863          47.000  
G19  18678493.383    98156456.395       -3502.335          46.000                                                                  
S31  34990352.359   183875460.442        -817.153          45.000  
S33  35983213.767   189092931.259        -818.817          40.000  
G17  20288986.881   106619616.775       -4239.483          42.000    20288984.368    83080339.808       -3303.418          43.000  
G06  20103885.408   105646808.729         709.088          41.000    20103888.131    82322312.301         552.362          42.000  
R23  17588887.009    94088847.690       -1034.004          48.000                                                                  
R24  17699173.839    94645651.528        2517.520          49.000    17699174.106    73613378.756        1958.089          47.000  
R05  19671411.229   105154963.216        1929.268          47.000    19671412.226    81787176.137        1500.489          45.000  
R15  20206593.245   107977943.082        1333.191          48.000    20206598.242    83982730.562        1036.865          43.000  
G25  19426418.635   102086711.259         920.730          45.000    19426422.766    79548201.854         717.195          41.000  
E21  22445290.866   117950969.937         534.440          43.000    22445299.628    90378164.150         409.598          48.000  
G10  22086835.550   116067067.900       -1979.547          39.000    22086839.789    90442007.976       -1542.220          36.000  
G29  21796521.638   114541479.919        2965.579          43.000                                                                  
G13  19203420.088   100914577.703       -4389.356          44.000                                                                  
E19  23004163.260   120887712.920        1346.395          38.000    23004166.845    92628265.275        1031.817          40.000  
E07  21139887.039   111090852.155       -3264.591          44.000    21139894.476    85121560.128       -2501.637          46.000  
E15  23281409.780   122344751.472        1440.395          42.000    23281418.807    93744935.726        1103.615          45.000  
E13  24815768.413   130407729.929        1580.158          36.000    24815787.016    99922885.473        1211.415          39.000  
G24  17101173.682    89867516.528         445.886          50.000    17101170.843    70026910.966         347.290          45.000  
G15  18025729.068    94725817.623       -3256.320          47.000    18025729.653    73812369.152       -2537.463          41.000  
E30  22216111.785   116746618.507       -2561.717          44.000    22216114.933    89455308.644       -1962.903          47.000  
E27  20181434.480   106054397.389       -1121.104          48.000    20181436.512    81262611.317        -859.050          51.000  
> 2024 06 08 20 06 00.4880000  0 31                     
G23  21817276.929   114650261.873       -2684.226          41.000    21817293.489    89337828.765       -2091.322          36.000  
G11  20670987.956   108626959.442        1717.094          44.000    20670995.238    84644492.846        1337.897          39.000  
G12  17806723.322    93575204.113        -164.673          47.000    17806723.672    72916292.327        -128.458          43.000  
E34  23758737.053   124853014.475        -192.048          41.000    23758742.342    95666614.259        -146.962          44.000  
R13  17741691.240    94739637.738       -2136.959          40.000    17741689.116    73686667.931       -1662.306          39.000  
R14  17177291.208    91564896.594         130.670          52.000    17177292.537    71217339.107         101.624          49.000  
R03  17889112.609    95761711.058       -4378.402          49.000    17889115.372    74481376.159       -3405.395          47.000  
R04  17170626.074    91947911.910       -1249.671          48.000    17170623.898    71515051.269        -971.893          47.000  
G32  21628875.307   113660526.6491       2332.465          43.000    21628875.989    88566559.5621       1817.427          38.000  
G19  18698518.297    98261687.622       -3512.890          47.000                                                                  
S31  34995013.035   183899952.145        -815.189          45.000  
S33  35987883.654   189117469.979        -816.990          41.000  
G17  20313206.723   106746894.119       -4245.435          43.000    20313204.302    83179517.062       -3307.733          42.000  
G06  20099867.962   105625695.427         698.724          42.000    20099870.307    82305860.460         544.476          41.000  
R23  17594755.316    94120240.663       -1058.795          48.000                                                                  
R24  17685083.389    94570302.213        2506.067          50.000    17685083.735    73554773.865        1949.088          48.000  
R05  19660632.286   105097344.974        1912.295          47.000    19660633.051    81742361.975        1487.327          44.000  
R15  20199103.637   107937922.755        1335.217          48.000    20199109.403    83951603.984        1038.458          43.000  
G25  19421169.976   102059132.724         918.003          44.000    19421174.204    79526712.207         715.574          41.000  
E21  22442246.335   117934975.365         531.979          42.000    22442255.401    90365908.696         407.813          47.000  
G10  22098165.198   116126608.003       -1989.376          37.000    22098171.253    90488402.707       -1549.862          37.000  
G29  21779588.496   114452495.871        2966.704          44.000                                                                  
G13  19228491.352   101046328.609       -4393.907          43.000                                                                  
E19  22996498.517   120847433.065        1339.112          39.000    22996501.916    92597401.528        1026.232          40.000  
E07  21158544.166   111188892.186       -3270.903          45.000    21158550.961    85196681.547       -2506.266          46.000  
E15  23273193.038   122301573.873        1438.371          42.000    23273202.390    93711851.628        1102.146          46.000  
E13  24806720.950   130360183.084        1589.234          37.000    24806739.238    99886453.362        1217.606          39.000  
G24  17098651.732    89854262.322         437.933          51.000    17098649.638    70016583.013         341.266          46.000  
G15  18044348.466    94823661.094       -3266.209          47.000    18044349.125    73888610.583       -2545.024          42.000  
E30  22230729.710   116823438.824       -2559.271          44.000    22230733.518    89514170.898       -1960.973          48.000  
E27  20187839.658   106088059.589       -1122.696          48.000    20187842.072    81288404.461        -860.239          51.000  
> 2024 06 08 20 06 30.4880000  0 31                     
G23  21832601.784   114730790.822       -2684.691          41.000    21832618.569    89400578.055       -2091.955          37.000  
G11  20661178.676   108575412.220        1719.304          44.000    20661184.056    84604326.630        1339.530          37.000  
G12  17807674.524    93580201.093        -168.387          47.000    17807674.492    72920186.127        -131.321          43.000  
E34  23759857.012   124858902.523        -200.740          41.000    23759862.920    95671125.977        -153.993          44.000  
R13  17753692.642    94803725.851       -2135.443          39.000    17753691.069    73736514.179       -1660.958          39.000  
R14  17176552.966    91560962.414         131.561          52.000    17176555.668    71214279.274         102.350          49.000  
R03  17913669.830    95893174.793       -4386.066          47.000    17913673.730    74583625.323       -3411.382          47.000  
R04  17177689.030    91985738.249       -1272.253          48.000    17177688.551    71544471.681        -989.276          48.000  
G32  21615573.790   113590627.986        2327.526          42.000    21615574.190    88512093.086        1813.589          37.000  
G19  18718598.379    98367207.606       -3521.808          47.000                                                                  
S31  34999658.113   183924361.873        -811.971          45.000  
S33  35992537.703   189141926.165        -813.249          41.000  
G17  20337452.625   106874309.135       -4249.054          43.000    20337450.527    83278801.585       -3310.925          42.000  
G06  20095902.673   105604858.672         690.338          42.000    20095905.012    82289624.088         537.946          41.000  
R23  17600756.622    94152341.913       -1081.607          48.000                                                                  
R24  17671051.994    94495269.606        2496.014          50.000    17671052.638    73496415.303        1941.379          48.000  
R05  19649942.447   105040205.360        1896.937          47.000    19649942.723    81697920.040        1475.724          44.000  
R15  20191598.372   107897816.652        1338.690          47.000    20191602.212    83920410.639        1041.040          41.000  
G25  19415931.987   102031610.670         917.004          44.000    19415937.414    79505266.624         714.550          42.000  
E21  22439209.900   117919018.949         531.627          42.000    22439218.356    90353682.493         407.269          46.000  
G10  22109546.236   116186414.362       -1997.501          40.000    22109552.890    90535004.907       -1556.606          36.000  
G29  21762642.336   114363442.479        2969.946          44.000                                                                  
G13  19253583.077   101178185.747       -4396.589          43.000                                                                  
E19  22988868.526   120807335.300        1333.840          39.000    22988871.658    92566677.317        1022.248          40.000  
E07  21177230.353   111287087.684       -3275.351          45.000    21177237.158    85271922.102       -2509.647          46.000  
E15  23264982.244   122258424.689        1438.295          41.000    23264991.136    93678789.316        1101.871          46.000  
E13  24797617.650   130312348.678        1599.239          36.000    24797636.410    99849800.814        1225.677          39.000  
G24  17096169.065    89841217.188         431.836          50.000    17096168.032    70006417.991         336.420          47.000  
G15  18063016.829    94921763.954       -3273.956          46.000    18063018.036    73965054.153       -2551.205          42.000  
E30  22245327.875   116900153.275       -2554.986          44.000    22245331.775    89572952.046       -1957.659          48.000  
E27  20194247.607   106121738.234       -1122.487          47.000    20194250.771    81314210.208        -860.179          50.000  
> 2024 06 08 20 07 00.4880000  0 31                     
G23  21847919.380   114811283.783       -2681.699          41.000    21847936.912    89463299.255       -2089.938          37.000  
G11  20651350.541   108523763.008        1723.966          44.000    20651353.520    84564080.914        1343.241          36.000  
G12  17808638.468    93585263.000        -169.200          47.000    17808637.176    72924130.524        -131.920          43.000  
E34  23761019.303   124865011.378        -206.542          40.000    23761025.433    95675806.864        -158.511          44.000  
R13  17765679.558    94867730.721       -2131.383          39.000    17765677.316    73786295.692       -1657.679          39.000  
R14  17175801.190    91556954.963         135.388          51.000    17175802.915    71211162.444         105.219          48.000  
R03  17938261.385    96024817.615       -4390.234          46.000    17938266.248    74686013.778       -3414.799          47.000  
R04  17184871.089    92024196.311       -1291.827          49.000    17184871.100    71574383.412       -1004.743          49.000  
G32  21602292.697   113520837.729        2325.181          41.000    21602293.182    88457711.059        1811.390          38.000  
G19  18738719.992    98472946.371       -3527.600          47.000                                                                  
S31  35004274.896   183948623.168        -805.590          45.000  
S33  35997163.077   189166232.624        -807.057          41.000  
G17  20361711.628   107001791.584       -4250.104          42.000    20361709.223    83378138.636       -3311.737          41.000  
G06  20091977.707   105584233.558         684.430          42.000    20091979.897    82273552.634         533.276          40.000  
R23  17606877.094    94185083.505       -1101.548          48.000                                                                  
R24  17657067.596    94420489.691        2488.995          50.000    17657068.079    73438253.283        1935.850          47.000  
R05  19639330.303   104983478.997        1884.480          47.000    19639331.318    81653799.521        1465.582          43.000  
R15  20184063.683   107857554.980        1345.233          46.000    20184066.523    83889096.353        1046.179          41.000  
G25  19410692.493   102004077.135         918.640          44.000    19410698.443    79483812.090         715.912          42.000  
E21  22436168.121   117903032.706         533.939          42.000    22436175.738    90341433.420         409.091          45.000  
G10  22120965.366   116246417.061       -2002.780          39.000    22120971.554    90581760.126       -1560.743          35.000  
G29  21745670.356   114274254.159        2975.643          43.000                                                                  
G13  19278682.253   101310078.767       -4396.558          44.000                                                                  
E19  22981260.430   120767354.053        1331.381          39.000    22981263.684    92536042.376        1020.245          41.000  
E07  21195933.059   111385369.571       -3277.005          45.000    21195940.227    85347228.846       -2511.019          47.000  
E15  23256764.822   122215238.683        1440.738          41.000    23256773.071    93645698.775        1103.904          46.000  
E13  24788446.662   130264160.705        1612.464          35.000    24788466.596    99812877.381        1235.912          39.000  
G24  17093713.503    89828315.574         428.198          50.000    17093713.191    69996364.795         333.691          48.000  
G15  18081720.914    95020056.617       -3279.116          46.000    18081722.890    74041645.641       -2555.312          42.000  
E30  22259893.410   116976694.071       -2547.804          44.000    22259897.249    89631600.144       -1952.264          48.000  
E27  20200646.777   106155364.975       -1119.498          47.000    20200649.688    81339976.171        -857.721          50.000  
> 2024 06 08 20 07 30.4880000  0 31                     
G23  21863219.860   114891684.658       -2678.326          41.000    21863237.932    89525948.681       -2086.590          38.000  
G11  20641492.591   108471961.647        1729.285          43.000    20641494.647    84523716.617        1347.362          36.000  
G12  17809604.197    93590335.720        -168.986          48.000    17809602.206    72928083.343        -131.731          43.000  
E34  23762213.530   124871288.872        -211.912          40.000    23762220.036    95680616.989        -162.407          44.000  
R13  17777639.378    94931599.010       -2126.174          39.000    17777638.143    73835970.969       -1653.866          39.000  
R14  17175025.714    91552820.470         140.143          51.000    17175025.993    71207946.804         109.009          48.000  
R03  17962875.213    96156580.329       -4393.839          45.000    17962880.921    74788495.423       -3417.436          47.000  
R04  17192161.047    92063230.533       -1310.400          48.000    17192160.652    71604743.293       -1019.190          49.000  
G32  21589022.243   113451105.240        2323.714          40.000    21589023.371    88403374.011        1810.600          38.000  
G19  18758872.553    98578847.791       -3532.530          47.000                                                                  
S31  35008852.968   183972681.925        -798.280          45.000  
S33  36001749.903   189190336.975        -799.910          41.000  
G17  20385972.962   107129285.403       -4249.817          43.000    20385970.291    83477484.516       -3311.475          42.000  
G06  20088083.739   105563769.556         679.559          43.000    20088085.902    82257606.700         529.480          40.000  
R23  17613107.505    94218411.249       -1120.390          48.000                                                                  
R24  17643121.281    94345913.089        2482.686          50.000    17643121.355    73380249.383        1931.005          47.000  
R05  19628787.364   104927115.388        1873.047          49.000    19628787.585    81609961.206        1456.724          44.000  
R15  20176489.493   107817082.820        1352.887          44.000    20176492.729    83857618.398        1052.313          42.000  
G25  19405439.988   101976478.326         921.357          43.000    19405446.672    79462306.707         717.988          42.000  
E21  22433110.669   117886962.888         537.291          43.000    22433117.174    90329120.320         411.616          44.000  
G10  22132410.223   116306560.613       -2006.816          39.000    22132416.900    90628625.042       -1563.424          38.000  
G29  21728663.161   114184879.971        2982.473          44.000                                                                  
G13  19303777.073   101441952.017       -4395.218          43.000                                                                  
E19  22973664.989   120727437.342        1329.679          39.000    22973667.996    92505456.886        1018.954          41.000  
E07  21214641.555   111483682.945       -3277.231          45.000    21214648.925    85422559.699       -2511.213          47.000  
E15  23248529.770   122171964.739        1444.237          41.000    23248538.207    93612540.837        1106.451          46.000  
E13  24779200.387   130215567.517        1626.816          37.000    24779220.147    99775643.477        1246.651          39.000  
G24  17091274.933    89815506.249         425.732          49.000    17091275.708    69986383.519         331.671          48.000  
G15  18100450.249    95118482.670       -3282.721          46.000    18100453.447    74118341.044       -2557.879          43.000  
E30  22274415.652   117053007.575       -2539.781          45.000    22274419.405    89690074.068       -1946.064          49.000  
E27  20207026.059   106188885.791       -1115.341          48.000    20207028.738    81365660.995        -854.625          51.000  
> 2024 06 08 20 08 00.4880000  0 31                     
G23  21878495.220   114971957.881       -2674.008          40.000    21878513.965    89588498.667       -2083.512          36.000  
G11  20631599.878   108419978.476        1735.512          43.000    20631603.053    84483210.623        1352.456          38.000  
G12  17810565.009    93595385.917        -168.191          48.000    17810562.745    72932018.630        -131.113          43.000  
E34  23763434.115   124877703.373        -216.556          41.000    23763439.880    95685532.131        -165.809          43.000  
R13  17789568.871    94995304.5371      -2120.728          38.000    17789567.429    73885514.209       -1649.475          38.000  
R14  17174219.816    91548524.824         145.605          51.000    17174220.629    71204605.819         113.348          48.000  
R03  17987506.429    96288425.075       -4396.479          47.000    17987510.455    74891040.879       -3419.491          46.000  
R04  17199551.922    92102805.968       -1328.381          48.000    17199550.781    71635524.116       -1033.185          49.000  
G32  21575756.604   113381400.521        2322.916          39.000    21575759.346    88349058.577        1810.020          38.000  
G19  18779049.159    98684876.261       -3536.634          47.000                                                                  
S31  35013386.262   183996504.347        -790.323          46.000  
S33  36006291.898   189214341.4071       -792.156          41.000  
G17  20410229.675   107256754.995       -4248.812          44.000    20410227.092    83576811.603       -3310.844          41.000  
G06  20084214.010   105543436.556         675.520          42.000    20084216.514    82241762.862         526.337          40.000  
R23  17619440.631    94252291.978       -1138.795          48.000                                                                  
R24  17629207.340    94271510.960        2476.758          50.000    17629207.146    73322381.166        1926.368          46.000  
R05  19618306.385   104871083.736        1861.945          49.000    19618305.476    81566381.062        1448.050          44.000  
R15  20168866.134   107776366.523        1360.864          43.000    20168873.557    83825950.544        1058.618          43.000  
G25  19400169.079   101948781.034         924.495          42.000    19400175.246    79440724.591         720.394          42.000  
E21  22430030.921   117870776.249         541.217          45.000    22430036.748    90316717.696         414.655          44.000  
G10  22143875.599   116366809.923       -2010.264          42.000    22143882.009    90675572.397       -1566.285          39.000  
G29  21711614.585   114095289.458        2989.516          42.000                                                                  
G13  19328861.495   101573770.004       -4393.326          43.000                                                                  
E19  22966075.259   120687554.288        1328.387          39.000    22966078.159    92474897.209        1018.168          40.000  
E07  21233349.385   111581993.440       -3277.284          45.000    21233356.951    85497888.334       -2511.132          47.000  
E15  23240272.409   122128572.363        1448.019          41.000    23240280.969    93579292.144        1109.607          47.000  
E13  24769870.645   130166537.908        1641.486          38.000    24769890.862    99738075.190        1257.571          40.000  
G24  17088847.567    89802758.515         423.743          47.000    17088849.438    69976450.218         330.127          48.000  
G15  18119198.362    95217006.848       -3286.088          46.000    18119201.379    74195112.905       -2560.571          42.000  
E30  22288888.079   117129060.681       -2531.067          45.000    22288891.982    89748348.466       -1939.407          49.000  
E27  20213378.765   106222267.145       -1110.611          49.000    20213381.168    81391238.962        -851.081          51.000  
