     3.00           OBSERVATION DATA    M: Mixed            RINEX VERSION / TYPE
CONVBIN demo5 b34j                      20240609 013620 UTC PGM / RUN BY / DATE 
log: SAUC00CHL_R_20241601700_15M_30S_MO.ubx                 COMMENT             
format: u-blox UBX                                          COMMENT             
format: u-blox UBX                                          COMMENT             
log: SAUC00CHL_R_20241601700_15M_30S_MO.ubx                 COMMENT             
SAUC00CHL                                                   MARKER NAME         
                                                            MARKER NUMBER       
GEODETIC                                                    MARKER TYPE         
El Sauce            Obstech                                 OBSERVER / AGENCY   
UNKNOWN             UBLOX-ZED-F9P                           REC # / TYPE / VERS 
UNKNWOWN            TWIVSP6037L                             ANT # / TYPE        
  1813185.0000 -5195981.0000 -3216438.0000                  APPROX POSITION XYZ 
        0.0000        0.0000        0.0000                  ANTENNA: DELTA H/E/N
G    8 C1C L1C D1C S1C C2X L2X D2X S2X                      SYS / # / OBS TYPES 
R    8 C1C L1C D1C S1C C2C L2C D2C S2C                      SYS / # / OBS TYPES 
E    8 C1X L1X D1X S1X C7X L7X D7X S7X                      SYS / # / OBS TYPES 
S    4 C1C L1C D1C S1C                                      SYS / # / OBS TYPES 
  2024    06    08    17    00   00.0030000     GPS         TIME OF FIRST OBS   
  2024    06    08    17    14   30.0040000     GPS         TIME OF LAST OBS    
                                                            END OF HEADER       
> 2024 06 08 17 00 00.0030000  0 25                     
E08  24966561.408   131200144.0331      -1647.397          45.000    24966563.126   100529957.7391      -1262.261          48.000  
E03  28696649.668   150801746.8331      -3080.870          40.000    28696660.745   115549379.8431      -2360.957          39.000  
G30  23607246.041   124056866.2831      -2821.666          45.000    23607247.039    96667656.9191      -2198.810          39.000  
R13  21399872.906   114274132.4001        599.599          38.000    21399876.815    88880127.0661        466.340          41.000  
R12  20716469.399   110663731.8111      -2329.946          49.000    20716469.826    86072070.2401      -1812.211          51.000  
R03  23488472.431   125735653.9241       3202.221          47.000    23488470.876    97794448.4271       2490.699          47.000  
R11  24412562.922   130453357.2711      -4315.588          48.000    24412560.562   101463730.9271      -3356.444          45.000  
G19  24311205.180   127756441.0261       2131.884          43.000                                                                  
S31  39663452.877   208432770.9131       -750.019          45.000  
S33  40652487.880   213630150.3871       -751.358          41.000  
G17  23801886.909   125079980.4181       1716.547          47.000    23801886.808    97465026.3191       1337.793          38.000  
E02  26296903.995   138191224.5281      -2945.323          46.000    26296906.583   105886816.4021      -2256.849          49.000  
R02  20269875.973   108163950.9321        334.329          50.000    20269876.281    84127547.5281        260.120          48.000  
R01  21257425.210   113633098.7401      -3565.219          47.000    21257426.282    88381408.9401      -2772.764          44.000  
E18  21328975.859   112084753.3031       -783.955          45.000    21328980.812    85883257.2451       -600.816          44.000  
G13  21588573.919   113448766.0961        803.497          48.000                                                                  
G20  23855547.268   125361562.3711      -3650.679          44.000                                                                  
E07  24961507.939   131173656.2631        706.302          47.000    24961512.556   100509696.9681        541.312          52.000  
G14  21828012.705   114707128.5761      -2741.980          46.000    21828011.537    89382204.1721      -2136.432          45.000  
G05  22734374.933   119469896.7631      -2237.391          47.000    22734375.345    93093406.0351      -1743.296          42.000  
G22  21117576.513   110973805.8611       -673.358          46.000                                                                  
G24  25833910.114   135758242.1851       1242.929          38.000    25833916.695   105785887.3921        968.557          39.000  
G15  23662618.162   124347924.8991       2048.793          46.000    23662616.715    96894543.4191       1596.182          41.000  
E30  24328126.572   127845334.2961       -526.848          46.000    24328129.107    97959520.7211       -403.676          50.000  
E27  26790271.518   140783953.1201       1688.588          43.000    26790283.089   107873535.9541       1293.814          45.000  
> 2024 06 08 17 00 30.0030000  0 25                     
E08  24975985.921   131249666.820       -1653.910          46.000    24975986.936   100567903.685       -1267.354          48.000  
E03  28714246.993   150894220.476       -3083.324          40.000    28714257.829   115620235.852       -2362.964          39.000  
G30  23623352.826   124141506.679       -2820.992          45.000    23623353.491    96733610.385       -2198.239          39.000  
R13  21396544.292   114256353.475         586.114          38.000    21396546.516    88866299.189         455.865          40.000  
R12  20729579.928   110733783.894       -2339.936          48.000    20729583.266    86126555.042       -1820.067          49.000  
R03  23470537.673   125639643.358        3198.656          47.000    23470536.049    97719773.637        2487.850          47.000  
R11  24436776.248   130582746.739       -4309.929          48.000    24436774.346   101564367.099       -3352.277          46.000  
G19  24299035.845   127692488.513        2131.897          44.000                                                                  
S31  39667728.052   208455234.926        -747.308          45.000  
S33  40656769.394   213652649.424        -748.382          41.000  
G17  23792105.014   125028576.251        1710.485          46.000    23792104.590    97424971.286        1332.597          38.000  
E02  26313728.980   138279639.087       -2948.813          46.000    26313731.370   105954562.599       -2259.379          49.000  
R02  20268054.671   108154233.594         313.699          49.000    20268055.322    84119989.541         243.991          48.000  
R01  21277480.826   113740310.708       -3581.941          47.000    21277482.485    88464795.878       -2786.194          44.000  
E18  21333533.995   112108703.575        -812.313          45.000    21333538.133    85901608.896        -622.393          44.000  
G13  21584006.334   113424763.454         796.935          48.000                                                                  
G20  23876395.873   125471122.807       -3653.226          43.000                                                                  
E07  24957485.376   131152517.469         703.099          47.000    24957490.013   100493499.706         538.663          52.000  
G14  21843698.458   114789556.029       -2753.088          47.000    21843696.784    89446433.309       -2145.392          45.000  
G05  22747186.406   119537221.868       -2250.745          47.000    22747187.019    93145866.937       -1753.853          42.000  
G22  21121468.023   110994257.763        -689.778          46.000                                                                  
G24  25826806.259   135720913.791        1245.715          40.000    25826813.321   105756800.550         970.485          39.000  
G15  23650929.568   124286500.585        2046.352          46.000    23650928.076    96846680.316        1594.639          42.000  
E30  24331162.138   127861285.571        -536.403          46.000    24331164.192    97971743.115        -411.003          49.000  
E27  26780644.990   140733372.336        1683.820          42.000    26780656.981   107834779.491        1290.232          44.000  
> 2024 06 08 17 01 00.0030000  0 25                     
E08  24985447.656   131299384.940       -1660.316          46.000    24985447.892   100605999.305       -1272.228          48.000  
E03  28731856.460   150986760.513       -3085.500          40.000    28731868.235   115691142.690       -2364.115          39.000  
G30  23639454.118   124226120.698       -2819.698          44.000    23639455.325    96799543.337       -2197.452          40.000  
R13  21393287.521   114238972.0731        573.007          37.000    21393289.824    88852780.495         445.446          39.000  
R12  20742754.070   110804132.919       -2349.617          52.000    20742750.396    86181270.925       -1827.613          46.000  
R03  23452622.645   125543739.777        3195.016          47.000    23452620.060    97645182.065        2485.132          46.000  
R11  24460957.416   130711963.913       -4304.093          47.000    24460956.108   101664869.210       -3347.710          47.000  
G19  24286866.555   127628538.138        2131.937          45.000                                                                  
S31  39671987.429   208477617.944        -744.290          45.000  
S33  40661035.594   213675069.516        -746.424          40.000  
G17  23782357.809   124977358.796        1704.270          45.000    23782357.632    97385061.717        1328.069          38.000  
E02  26330572.445   138368152.632       -2951.843          46.000    26330574.736   106022384.656       -2261.906          49.000  
R02  20266349.630   108145136.186         293.112          50.000    20266350.311    84112913.738         227.946          48.000  
R01  21297630.692   113848020.052       -3598.395          47.000    21297631.732    88548569.646       -2798.755          44.000  
E18  21338252.650   112133499.305        -840.346          46.000    21338256.312    85920608.372        -643.992          44.000  
G13  21579475.018   113400951.064         790.821          48.000                                                                  
G20  23897258.557   125580753.499       -3655.261          44.000                                                                  
E07  24953480.811   131131472.443         700.178          47.000    24953485.039   100477374.294         536.559          52.000  
G14  21859447.774   114872315.280       -2764.038          48.000    21859445.061    89510920.997       -2153.815          45.000  
G05  22760074.295   119604944.842       -2263.899          48.000    22760074.495    93198637.860       -1763.892          42.000  
G22  21125452.734   111015196.147        -705.821          45.000                                                                  
G24  25819688.271   135683510.857        1248.311          38.000    25819696.246   105727655.609         972.453          40.000  
G15  23639253.540   124225143.384        2044.185          46.000    23639252.302    96798869.533        1592.941          42.000  
E30  24334251.749   127877521.677        -545.714          46.000    24334253.708    97984183.758        -418.210          49.000  
E27  26771045.713   140682928.684        1679.511          42.000    26771057.279   107796128.099        1286.757          43.000  
> 2024 06 08 17 01 30.0030000  0 25                     
E08  24994947.151   131349304.389       -1667.491          46.000    24994947.317   100644249.189       -1277.783          48.000  
E03  28749480.048   151079372.133       -3088.422          40.000    28749492.045   115762104.403       -2366.378          38.000  
G30  23655551.761   124310713.742       -2819.693          44.000    23655553.648    96865459.922       -2197.445          42.000  
R13  21390108.153   114221992.517         559.172          37.000    21390109.522    88839574.324         435.054          39.000  
R12  20755980.841   110874781.742       -2360.164          52.000    20755973.625    86236220.119       -1835.669          46.000  
R03  23434729.099   125447952.865        3190.702          47.000    23434725.892    97570681.185        2481.635          47.000  
R11  24485107.120   130841012.538       -4299.105          48.000    24485105.937   101765240.252       -3343.771          47.000  
G19  24274699.207   127564598.578        2130.775          44.000                                                                  
S31  39676232.888   208499927.349        -742.881          45.000  
S33  40665288.051   213697414.941        -744.018          40.000  
G17  23772648.396   124926337.055        1697.098          45.000    23772648.043    97345304.658        1322.476          38.000  
E02  26347435.470   138456769.165       -2955.831          46.000    26347438.320   106090285.589       -2264.842          49.000  
R02  20264763.225   108136667.121         271.573          50.000    20264763.713    84106326.667         211.198          48.000  
R01  21317873.674   113956230.095       -3615.524          47.000    21317875.077    88632732.832       -2812.162          45.000  
E18  21343133.944   112159146.979        -869.288          46.000    21343137.028    85940260.635        -666.182          44.000  
G13  21574981.604   113377336.509         783.561          48.000                                                                  
G20  23918135.274   125690457.141       -3658.136          44.000                                                                  
E07  24949495.640   131110528.208         696.181          47.000    24949499.588   100461326.103         533.472          52.000  
G14  21875260.300   114955409.576       -2775.592          48.000    21875257.108    89575669.768       -2162.842          44.000  
G05  22773037.702   119673069.604       -2277.743          47.000    22773038.740    93251721.886       -1774.942          43.000  
G22  21129530.476   111036626.316        -722.460          45.000                                                                  
G24  25812557.202   135646038.555        1250.115          39.000    25812564.988   105698456.562         974.108          41.000  
G15  23627591.583   124163860.833        2041.213          46.000    23627590.826    96751116.927        1590.584          43.000  
E30  24337396.228   127894047.735        -555.965          46.000    24337398.618    97996846.553        -425.906          50.000  
E27  26761475.712   140632628.796        1674.092          44.000    26761485.524   107757586.834        1282.632          43.000  
> 2024 06 08 17 02 00.0030000  0 25                     
E08  25004485.167   131399430.377       -1674.474          46.000    25004486.241   100682657.330       -1282.967          48.000  
E03  28767118.537   151172059.407       -3090.984          40.000    28767130.678   115833124.098       -2368.399          38.000  
G30  23671646.242   124395290.210       -2819.202          44.000    23671648.392    96931363.620       -2196.901          41.000  
R13  21387005.960   114205426.1931        545.026          38.000    21387006.283    88826684.099         424.240          40.000  
R12  20769259.014   110945732.377       -2370.345          47.000    20769259.634    86291403.942       -1843.593          49.000  
R03  23416857.400   125352291.423        3186.199          47.000    23416855.177    97496277.919        2478.354          46.000  
R11  24509225.999   130969894.989       -4293.520          48.000    24509224.439   101865482.040       -3339.461          47.000  
G19  24262535.021   127500677.910        2129.966          44.000                                                                  
S31  39680465.191   208522167.328        -740.661          45.000  
S33  40669527.244   213719691.717        -741.563          40.000  
G17  23762977.617   124875518.885        1689.925          44.000    23762977.239    97305706.180        1317.181          37.000  
E02  26364318.880   138545491.737       -2959.278          46.000    26364321.430   106158267.793       -2267.519          49.000  
R02  20263295.157   108128833.265         250.121          50.000    20263295.791    84100233.658         194.553          48.000  
R01  21338211.553   114064942.952       -3632.395          48.000    21338212.555    88717287.089       -2825.192          45.000  
E18  21348177.123   112185652.202        -898.031          46.000    21348181.158    85960569.968        -688.186          44.000  
G13  21570526.696   113353926.892         776.584          48.000                                                                  
G20  23939025.008   125800235.400       -3660.851          44.000                                                                  
E07  24945530.797   131089690.913         692.627          48.000    24945534.287   100445359.864         530.626          51.000  
G14  21891136.904   115038841.229       -2786.974          48.000    21891132.909    89640681.442       -2171.741          42.000  
G05  22786078.617   119741598.425       -2291.386          47.000    22786079.211    93305120.760       -1785.608          42.000  
G22  21133702.405   111058552.495        -739.186          45.000                                                                  
G24  25805413.809   135608501.106        1251.969          39.000    25805422.133   105669206.810         975.483          41.000  
G15  23615946.063   124102659.871        2038.380          46.000    23615944.459    96703427.879        1588.462          42.000  
E30  24340596.738   127910867.875        -565.697          46.000    24340599.718    98009734.709        -433.496          50.000  
E27  26751932.737   140582478.321        1668.953          45.000    26751941.879   107719160.066        1278.700          43.000  
> 2024 06 08 17 02 30.0030000  0 25                     
E08  25014066.255   131449779.513       -1682.464          46.000    25014067.614   100721236.449       -1289.099          48.000  
E03  28784774.411   151264838.007       -3094.504          40.000    28784786.133   115904213.743       -2371.085          38.000  
G30  23687740.667   124479866.005       -2819.794          45.000    23687742.827    96997266.771       -2197.235          42.000  
R13  21383981.619   114189274.787         530.642          39.000    21383982.580    88814122.039         413.062          41.000  
R12  20782600.279   111016998.114       -2381.335          50.000    20782602.281    86346832.681       -1852.058          50.000  
R03  23399014.250   125256775.832        3180.851          47.000    23399011.832    97421988.063        2474.003          46.000  
R11  24533316.289   131098626.043       -4288.928          48.000    24533314.909   101965606.081       -3335.926          47.000  
G19  24250378.551   127436795.488        2128.158          44.000                                                                  
S31  39684687.119   208544353.887        -739.249          45.000  
S33  40673756.663   213741915.229        -740.301          41.000  
G17  23753349.809   124824923.674        1682.431          44.000    23753349.851    97266281.498        1310.654          38.000  
E02  26381225.057   138634334.846       -2963.834          46.000    26381227.759   106226342.347       -2271.102          49.000  
R02  20261949.347   108121653.732         227.961          50.000    20261950.152    84094649.552         177.281          47.000  
R01  21358645.194   114174172.758       -3650.081          48.000    21358646.592    88802243.403       -2839.059          45.000  
E18  21353385.988   112213031.920        -927.777          45.000    21353391.816    85981549.340        -710.958          44.000  
G13  21566114.493   113330740.675         768.602          48.000                                                                  
G20  23959932.251   125910101.862       -3664.215          44.000                                                                  
E07  24941589.258   131068978.175         687.816          48.000    24941592.556   100429489.051         527.157          51.000  
G14  21907080.062   115122623.925       -2798.998          47.000    21907075.590    89705966.678       -2180.971          42.000  
G05  22799199.080   119810545.590       -2305.663          48.000    22799199.727    93358845.628       -1796.445          42.000  
G22  21137972.438   111080990.158        -756.897          45.000                                                                  
G24  25798261.045   135570914.168        1253.389          38.000    25798269.915   105639918.488         976.786          41.000  
G15  23604318.980   124041559.003        2034.368          46.000    23604317.260    96655816.810        1585.425          42.000  
E30  24343856.195   127927997.774        -576.665          46.000    24343859.752    98022860.206        -441.822          50.000  
E27  26742421.653   140532494.395        1662.881          46.000    26742430.267   107680860.906        1274.073          44.000  
> 2024 06 08 17 03 00.0030000  0 25                     
E08  25023696.593   131500387.197       -1691.362          46.000    25023698.200   100760013.690       -1295.904          49.000  
E03  28802454.089   151357742.426       -3098.948          40.000    28802465.753   115975399.788       -2374.695          38.000  
G30  23703841.779   124564475.854       -2820.832          45.000    23703843.263    97063196.464       -2197.961          42.000  
R13  21381043.031   114173576.2451        515.485          39.000    21381043.910    88801915.295         401.094          42.000  
R12  20796009.448   111088611.536       -2392.956          52.000    20796008.182    86402531.976       -1861.174          49.000  
R03  23381205.132   125161445.579        3174.361          45.000    23381203.109    97347842.347        2469.047          46.000  
R11  24557384.298   131227239.935       -4285.296          47.000    24557383.541   102065638.992       -3332.995          48.000  
G19  24238236.355   127372989.285        2125.575          43.000                                                                  
S31  39688905.847   208566522.335        -738.627          45.000  
S33  40677982.228   213764120.314        -739.771          41.000  
G17  23743771.582   124774589.337        1673.147          44.000    23743771.929    97227060.041        1303.912          39.000  
E02  26398160.634   138723331.847       -2969.355          45.000    26398163.541   106294534.799       -2275.116          49.000  
R02  20260733.437   108115166.759         204.567          49.000    20260734.014    84089604.101         159.172          47.000  
R01  21379181.888   114283952.385       -3668.414          48.000    21379183.349    88887627.373       -2853.309          45.000  
E18  21358769.454   112241321.817        -958.292          45.000    21358775.212    86003226.097        -734.255          45.000  
G13  21561751.415   113307814.836         759.772          48.000                                                                  
G20  23980863.025   126020088.054       -3668.170          44.000                                                                  
E07  24937678.290   131048426.426         682.296          48.000    24937681.690   100413741.617         522.758          51.000  
G14  21923096.234   115206790.206       -2811.932          47.000    21923091.517    89771550.810       -2191.274          42.000  
G05  22812404.945   119879943.686       -2320.811          48.000    22812406.475    93412921.911       -1808.646          43.000  
G22  21142346.481   111103973.465        -775.183          45.000                                                                  
G24  25791105.857   135533312.480        1253.837          37.000    25791114.466   105610618.653         976.730          42.000  
G15  23592718.395   123980595.355        2029.698          46.000    23592716.347    96608312.656        1581.779          42.000  
E30  24347181.260   127945471.897        -588.283          45.000    24347185.254    98036249.459        -450.778          51.000  
E27  26732948.841   140482713.022        1655.860          46.000    26732957.510   107642716.967        1268.600          45.000  
> 2024 06 08 17 03 30.0030000  0 25                     
E08  25033380.063   131551272.754       -1701.185          46.000    25033381.602   100799003.838       -1303.493          49.000  
E03  28820160.899   151450791.058       -3104.488          40.000    28820172.805   116046696.275       -2378.703          37.000  
G30  23719952.412   124649138.447       -2823.356          46.000    23719953.706    97129167.250       -2199.930          42.000  
R13  21378192.625   114158357.085         498.984          39.000    21378193.901    88790078.265         388.048          41.000  
R12  20809484.159   111160588.800       -2405.648          51.000    20809479.504    86458514.314       -1871.142          46.000  
R03  23363435.547   125066323.950        3166.813          46.000    23363433.789    97273858.901        2463.190          47.000  
R11  24581434.322   131355753.816       -4282.458          48.000    24581433.163   102165594.133       -3330.730          48.000  
G19  24226112.614   127309281.649        2121.542          43.000                                                                  
S31  39693124.823   208588690.770        -739.367          45.000  
S33  40682208.187   213786326.987        -740.305          41.000  
G17  23734247.336   124724538.357        1663.310          45.000    23734248.096    97188059.434        1296.328          40.000  
E02  26415129.097   138812499.983       -2975.721          45.000    26415131.317   106362858.368       -2279.910          48.000  
R02  20259651.378   108109393.556         180.156          49.000    20259651.834    84085113.814         140.069          47.000  
R01  21399824.119   114394298.724       -3688.045          48.000    21399826.005    88973452.118       -2868.353          45.000  
E18  21364330.460   112270541.396        -989.871          46.000    21364335.674    86025615.213        -758.668          45.000  
G13  21557441.858   113285170.212         749.787          47.000                                                                  
G20  24001819.561   126130210.186       -3673.367          46.000                                                                  
E07  24933801.838   131028055.984         675.679          48.000    24933805.235   100398133.074         517.886          51.000  
G14  21939188.453   115291356.514       -2826.011          46.000    21939184.849    89837446.612       -2201.840          43.000  
G05  22825699.711   119949808.899       -2336.879          47.000    22825701.819    93467362.130       -1820.929          43.000  
G22  21146827.180   111127520.874        -794.531          45.000                                                                  
G24  25783951.344   135495714.433        1253.075          38.000    25783959.557   105581321.659         976.219          41.000  
G15  23581147.412   123919790.252        2023.822          46.000    23581145.700    96560932.075        1577.019          42.000  
E30  24350575.509   127963308.580        -600.971          45.000    24350579.768    98049916.510        -460.445          51.000  
E27  26723517.409   140433154.057        1647.914          46.000    26723526.592   107604743.446        1262.715          45.000  
> 2024 06 08 17 04 00.0030000  0 25                     
E08  25043123.038   131602473.866       -1712.457          46.000    25043124.908   100838235.781       -1312.140          49.000  
E03  28837902.355   151544020.569       -3111.397          40.000    28837914.294   116118131.378       -2383.652          37.000  
G30  23736080.420   124733890.830       -2827.061          45.000    23736081.700    97195208.021       -2203.149          42.000  
R13  21375436.427   114143649.3861        480.669          38.000    21375439.432    88778639.769         374.413          41.000  
R12  20823028.597   111232965.069       -2419.557          48.000    20823027.935    86514806.971       -1881.920          47.000  
R03  23345712.230   124971452.568        3157.591          45.000    23345711.337    97200070.134        2455.927          47.000  
R11  24605471.742   131484203.523       -4281.073          47.000    24605470.679   102265499.329       -3329.626          48.000  
G19  24214015.746   127245713.010        2116.053          43.000                                                                  
S31  39697350.567   208610898.066        -741.378          45.000  
S33  40686441.030   213808571.170        -742.407          40.000  
G17  23724784.898   124674811.140        1651.732          45.000    23724785.231    97149311.118        1287.009          40.000  
E02  26432136.058   138901874.880       -2983.127          45.000    26432139.227   106431340.386       -2285.742          49.000  
R02  20258711.003   108104374.571         154.263          49.000    20258711.124    84081210.119         119.905          47.000  
R01  21420579.519   114505246.846       -3708.779          47.000    21420581.121    89059744.941       -2884.615          45.000  
E18  21370075.399   112300728.495       -1022.938          46.000    21370079.767    86048745.677        -783.790          45.000  
G13  21553193.617   113262846.412         738.199          47.000                                                                  
G20  24022807.528   126240502.226       -3679.571          45.000                                                                  
E07  24929966.984   131007905.607         667.525          47.000    24929970.680   100382693.180         511.392          50.000  
G14  21955363.466   115376357.709       -2841.031          45.000    21955360.654    89903681.292       -2213.872          44.000  
G05  22839090.205   120020176.426       -2354.475          46.000    22839092.683    93522193.756       -1834.659          43.000  
G22  21151422.257   111151669.004        -815.577          44.000                                                                  
G24  25776804.831   135458156.922        1250.784          39.000    25776811.541   105552056.231         974.559          40.000  
G15  23569613.918   123859183.027        2016.311          45.000    23569612.487    96513705.680        1571.120          42.000  
E30  24354045.753   127981544.473        -614.945          46.000    24354049.859    98063889.464        -471.272          51.000  
E27  26714136.279   140383855.758        1638.387          46.000    26714144.874   107566969.640        1255.332          44.000  
> 2024 06 08 17 04 30.0030000  0 25                     
E08  25052933.101   131654024.345       -1724.174          46.000    25052934.763   100877735.420       -1321.169          49.000  
E03  28855684.028   151637463.814       -3118.610          40.000    28855696.520   116189730.270       -2389.685          37.000  
G30  23752231.931   124818766.170       -2831.406          46.000    23752233.421    97261344.571       -2206.033          42.000  
R13  21372784.328   114129488.205         462.839          38.000    21372786.926    88767625.620         359.928          40.000  
R12  20836661.591   111305771.156       -2434.108          53.000    20836660.593    86571433.862       -1893.102          50.000  
R03  23328042.948   124876869.386        3147.688          46.000    23328041.963    97126505.480        2448.323          46.000  
R11  24629503.471   131612621.906       -4280.121          49.000    24629502.484   102365380.178       -3328.967          48.000  
G19  24201951.957   127182319.905        2109.984          44.000                                                                  
S31  39701589.962   208633175.785        -744.016          45.000  
S33  40690687.925   213830887.083        -745.161          41.000  
G17  23715390.544   124625443.989        1639.415          45.000    23715390.115    97110843.365        1277.646          39.000  
E02  26449189.276   138991488.298       -2991.152          45.000    26449191.856   106500005.130       -2291.941          48.000  
R02  20257919.053   108100145.860         127.689          50.000    20257919.302    84077921.074          99.339          47.000  
R01  21441452.375   114616828.182       -3730.031          47.000    21441454.672    89146530.252       -2901.205          44.000  
E18  21376009.981   112331917.072       -1056.428          46.000    21376014.711    86072643.518        -809.472          45.000  
G13  21549012.720   113240878.707         726.338          47.000                                                                  
G20  24043833.375   126350994.463       -3686.401          45.000                                                                  
E07  24926180.773   130988010.119         658.856          46.000    24926184.545   100367448.576         504.905          50.000  
G14  21971627.577   115461824.669       -2856.677          46.000    21971624.916    89970278.913       -2225.943          44.000  
G05  22852583.378   120091077.753       -2372.318          48.000    22852584.355    93577441.340       -1848.569          42.000  
G22  21156137.737   111176450.654        -836.586          44.000                                                                  
G24  25769671.689   135420672.903        1248.138          39.000    25769678.017   105522848.079         972.226          40.000  
G15  23558124.858   123798809.523        2008.604          45.000    23558123.903    96466661.415        1565.159          42.000  
E30  24357598.273   128000212.412        -629.524          46.000    24357602.055    98078193.456        -482.364          51.000  
E27  26704810.659   140334852.475        1628.360          46.000    26704820.081   107529421.875        1247.919          44.000  
> 2024 06 08 17 05 00.0030000  0 25                     
E08  25062812.699   131705941.052       -1737.116          46.000    25062814.277   100917515.679       -1331.013          49.000  
E03  28873509.557   151731136.746       -3126.486          40.000    28873522.233   116261505.140       -2395.768          38.000  
G30  23768409.634   124903780.676       -2836.681          46.000    23768411.026    97327589.579       -2210.185          41.000  
R13  21370237.900   114115873.6991        443.345          39.000    21370239.986    88757048.299         344.976          40.000  
R12  20850375.805   111379020.785       -2449.515          54.000    20850374.053    86628405.745       -1905.117          51.000  
R03  23310433.656   124782566.1701       3136.709          47.000    23310430.207    97053181.105        2439.856          46.000  
R11  24653532.479   131741023.690       -4280.243          48.000    24653531.657   102465248.141       -3328.906          49.000  
G19  24189925.384   127119122.355        2102.657          44.000                                                                  
S31  39705846.092   208655541.834        -747.561          45.000  
S33  40694951.269   213853290.916        -748.508          41.000  
G17  23706068.092   124576456.893        1625.908          45.000    23706067.463    97072671.794        1266.857          39.000  
E02  26466289.887   139081355.019       -3000.222          45.000    26466292.931   106568863.988       -2298.887          48.000  
R02  20257278.624   108096726.449          99.920          50.000    20257278.987    84075261.507          77.804          47.000  
R01  21462448.167   114729057.110       -3752.168          48.000    21462449.690    89233819.240       -2918.343          44.000  
E18  21382137.710   112364124.035       -1091.115          44.000    21382143.320    86097321.668        -835.874          45.000  
G13  21544903.879   113219285.710         713.135          47.000                                                                  
G20  24064899.751   126461700.563       -3694.184          45.000                                                                  
E07  24922446.744   130968387.401         649.103          46.000    24922450.255   100352412.988         497.399          50.000  
G14  21987983.290   115547771.351       -2873.453          47.000    21987979.748    90037250.350       -2238.834          44.000  
G05  22866179.382   120162526.577       -2391.196          48.000    22866179.775    93633115.571       -1863.420          42.000  
G22  21160977.151   111201881.854        -859.049          44.000                                                                  
G24  25762554.730   135383278.412        1244.341          38.000    25762562.093   105493709.612         969.867          41.000  
G15  23546684.078   123738688.330        1999.331          45.000    23546683.267    96419813.749        1557.983          42.000  
E30  24361235.982   128019328.264        -645.107          46.000    24361239.531    98092840.666        -494.314          51.000  
E27  26695545.359   140286161.603        1617.411          46.000    26695554.567   107492113.513        1239.321          45.000  
> 2024 06 08 17 05 30.0030000  0 25                     
E08  25072766.926   131758250.549       -1750.362          46.000    25072768.609   100957596.902       -1341.248          49.000  
E03  28891383.594   151825064.972       -3135.036          39.000    28891396.672   116333475.600       -2402.394          37.000  
G30  23784619.065   124988960.306       -2842.212          46.000    23784620.045    97393963.251       -2214.768          41.000  
R13  21367802.219   114102862.064         423.786          39.000    21367803.344    88746928.228         329.650          40.000  
R12  20864175.158   111452737.523       -2465.141          51.000    20864173.953    86685740.935       -1917.307          49.000  
R03  23292886.589   124688631.836        3125.347          47.000    23292882.494    96980121.115        2430.730          46.000  
R11  24677562.738   131869433.518       -4280.542          47.000    24677561.960   102565122.327       -3329.156          47.000  
G19  24177942.212   127056149.346        2095.308          45.000                                                                  
S31  39710123.880   208678021.828        -751.323          45.000  
S33  40699236.238   213875809.246        -752.496          41.000  
G17  23696823.551   124527879.083        1612.411          44.000    23696822.766    97034819.103        1256.112          38.000  
E02  26483444.153   139171499.634       -3009.588          45.000    26483447.179   106637935.761       -2306.041          49.000  
R02  20256794.613   108094145.235          71.908          50.000    20256795.312    84073253.882          55.839          48.000  
R01  21483569.031   114841957.490       -3774.592          48.000    21483570.193    89321630.463       -2935.798          44.000  
E18  21388463.616   112397375.987       -1126.033          43.000    21388470.733    86122800.482        -862.652          44.000  
G13  21540872.376   113198095.994         699.431          48.000                                                                  
G20  24086012.397   126572643.783       -3702.181          45.000                                                                  
E07  24918769.569   130949065.083         638.930          46.000    24918773.304   100337607.573         489.601          50.000  
G14  22004433.987   115634221.455       -2890.265          47.000    22004430.815    90104614.081       -2252.192          45.000  
G05  22879884.312   120234547.365       -2410.395          47.000    22879885.296    93689235.445       -1878.126          42.000  
G22  21165944.926   111227987.585        -881.570          44.000                                                                  
G24  25755459.672   135345999.160        1240.322          36.000    25755468.145   105464660.980         966.468          41.000  
G15  23535296.757   123678847.866        1989.859          46.000    23535295.846    96373184.839        1550.585          41.000  
E30  24364963.866   128038917.584        -661.012          46.000    24364967.091    98107850.671        -506.491          51.000  
E27  26686344.219   140237810.303        1605.911          46.000    26686352.820   107455065.310        1230.664          45.000  
> 2024 06 08 17 06 00.0030000  0 25                     
E08  25082798.933   131810969.831       -1764.417          46.000    25082800.688   100997992.099       -1351.900          49.000  
E03  28909309.589   151919264.517       -3144.781          38.000    28909323.037   116405653.948       -2409.399          37.000  
G30  23800862.645   125074321.510       -2848.589          46.000    23800863.624    97460478.427       -2220.189          41.000  
R13  21365477.332   114090447.9921        403.456          39.000    21365479.483    88737277.547         313.713          41.000  
R12  20878060.457   111526935.783       -2481.464          48.000    20878060.189    86743450.655       -1930.071          46.000  
R03  23275407.421   124595057.959        3112.855          47.000    23275402.645    96907341.453        2421.101          47.000  
R11  24701597.425   131997867.081       -4281.830          42.000    24701595.992   102665014.993       -3330.072          41.000  
G19  24166005.311   126993421.086        2086.630          45.000                                                                  
S31  39714427.043   208700632.480        -756.374          45.000  
S33  40703546.412   213898458.185        -757.088          40.000  
G17  23687660.695   124479730.539        1597.442          43.000    23687660.385    96997300.887        1244.865          39.000  
E02  26500653.870   139261937.069       -3019.574          45.000    26500656.501   106707231.950       -2313.767          48.000  
R02  20256470.805   108092421.501          42.816          49.000    20256472.381    84071913.173          33.276          48.000  
R01  21504818.004   114955543.200       -3797.818          48.000    21504819.024    89409974.712       -2953.662          44.000  
E18  21394994.428   112431689.919       -1161.617          44.000    21395000.676    86149092.970        -890.081          45.000  
G13  21536920.654   113177327.951         684.953          48.000                                                                  
G20  24107171.529   126683837.474       -3710.937          45.000                                                                  
E07  24915153.198   130930061.227         627.897          46.000    24915157.004   100323046.154         481.189          50.000  
G14  22020982.980   115721189.113       -2907.584          47.000    22020980.010    90172381.084       -2265.950          45.000  
G05  22893700.816   120307153.915       -2430.180          47.000    22893702.701    93745811.785       -1893.787          43.000  
G22  21171044.142   111254783.811        -905.103          44.000                                                                  
G24  25748389.779   135308851.402        1235.738          37.000    25748398.979   105435714.823         962.998          40.000  
G15  23523966.570   123619306.918        1979.473          45.000    23523965.391    96326789.323        1542.245          41.000  
E30  24368784.622   128058996.406        -677.701          46.000    24368787.941    98123235.755        -519.226          50.000  
E27  26677210.005   140189816.068        1593.759          45.000    26677219.815   107418290.715        1221.070          45.000  
> 2024 06 08 17 06 30.0030000  0 26                     
E08  25092913.115   131864119.525       -1779.137          46.000    25092914.747   101038717.101       -1363.204          48.000  
E03  28927290.819   152013755.098       -3154.742          38.000    28927304.463   116478055.325       -2417.386          37.000  
G30  23817144.951   125159884.390       -2855.642          46.000    23817145.602    97527150.720       -2225.099          40.000  
R13  21363271.142   114078662.981         382.165          39.000    21363272.773    88728111.471         297.185          42.000  
R12  20892047.259   111601632.754       -2498.456          53.000    20892043.739    86801548.367       -1943.225          47.000  
R14  25735968.016   137187181.2631       2445.735          40.000    25735991.466   106701260.9673       1902.675          36.000  
R03  23257998.271   124501869.268        3099.478          47.000    23257994.739    96834861.404        2410.856          47.000  
R11  24725640.409   132126342.933       -4283.587          36.000    24725638.916   102764940.506       -3331.000          36.000  
G19  24154119.322   126930960.879        2077.233          46.000                                                                  
S31  39718758.474   208723393.679        -761.628          45.000  
S33  40707885.185   213921258.911        -762.878          41.000  
G17  23678583.843   124432034.598        1581.962          43.000    23678584.705    96960135.334        1232.565          40.000  
E02  26517922.898   139352685.983       -3030.455          46.000    26517925.779   106776766.783       -2322.038          48.000  
R02  20256312.226   108091577.757          13.090          48.000    20256313.757    84071256.911          10.045          47.000  
R01  21526197.799   115069832.629       -3821.601          48.000    21526199.253    89498866.307       -2972.315          44.000  
E18  21401731.445   112467086.324       -1198.258          45.000    21401736.545    86176214.937        -918.124          45.000  
G13  21533053.798   113157004.255         669.744          48.000                                                                  
G20  24128382.315   126795299.134       -3720.074          45.000                                                                  
E07  24911601.481   130911397.523         616.160          46.000    24911605.625   100308745.396         472.108          50.000  
G14  22037633.837   115808692.145       -2925.728          47.000    22037631.281    90240565.233       -2279.846          44.000  
G05  22907631.773   120380363.809       -2450.569          46.000    22907634.399    93802858.284       -1909.674          43.000  
G22  21176278.292   111282289.998        -929.280          44.000                                                                  
G24  25741350.573   135271855.116        1230.300          39.000    25741358.747   105406886.626         958.585          40.000  
G15  23512697.433   123560088.160        1968.252          46.000    23512696.065    96280644.841        1533.943          41.000  
E30  24372702.670   128079584.374        -694.937          46.000    24372705.808    98139010.961        -532.560          51.000  
E27  26668148.668   140142200.129        1580.627          45.000    26668159.440   107381805.992        1211.087          46.000  
> 2024 06 08 17 07 00.0030000  0 26                     
E08  25103113.686   131917726.309       -1794.753          46.000    25103115.889   101079792.335       -1375.170          48.000  
E03  28945332.238   152108562.469       -3165.885          37.000    28945346.749   116550699.417       -2425.808          38.000  
G30  23833470.534   125245675.017       -2863.642          46.000    23833470.601    97594000.521       -2231.425          40.000  
R13  21361185.115   114067532.4831        360.210          38.000    21361187.631    88719450.555         280.083          41.000  
R12  20906130.565   111676852.177       -2516.101          53.000    20906128.605    86860052.365       -1956.970          51.000  
R14  25722236.958   137114004.7071       2432.668          43.000    25722261.055   106644341.143        1892.059          40.000  
R03  23240666.994   124409096.278        3085.323          47.000    23240664.015    96762704.716        2399.664          48.000  
R11  24749697.692   132254876.4231      -4285.962          27.000    24749695.654   102864918.831       -3334.088          25.000  
G19  24142289.935   126868798.189        2066.955          47.000                                                                  
S31  39723123.607   208746332.385        -767.897          45.000  
S33  40712258.019   213944236.491        -769.000          41.000  
G17  23669599.111   124384820.778        1565.438          43.000    23669600.467    96923345.431        1220.102          40.000  
E02  26535255.865   139443770.993       -3041.902          46.000    26535258.692   106846559.141       -2330.705          48.000  
R02  20256324.961   108091643.157         -17.363          49.000    20256325.280    84071307.726         -13.384          46.000  
R01  21547713.388   115184849.797       -3846.056          46.000    21547715.945    89588323.945       -2991.418          44.000  
E18  21408678.769   112503591.771       -1235.589          46.000    21408682.757    86204186.713        -946.711          45.000  
G13  21529276.822   113137153.246         653.637          49.000                                                                  
G20  24149648.525   126907051.957       -3729.917          46.000                                                                  
E07  24908119.506   130893101.817         603.526          46.000    24908124.010   100294726.615         462.438          50.000  
G14  22054391.632   115896754.373       -2944.857          47.000    22054388.643    90309185.130       -2294.586          44.000  
G05  22921682.398   120454201.079       -2471.882          46.000    22921685.790    93860393.637       -1926.044          43.000  
G22  21181652.416   111310531.965        -953.699          44.000                                                                  
G24  25734344.840   135235036.144        1224.134          38.000    25734352.268   105378196.606         954.073          40.000  
G15  23501495.113   123501220.152        1956.377          45.000    23501493.697    96234773.703        1524.397          40.000  
E30  24376721.512   128100707.162        -713.094          46.000    24376725.550    98155195.972        -546.495          51.000  
E27  26659165.125   140094989.732        1566.848          45.000    26659175.145   107345632.016        1200.386          46.000  
> 2024 06 08 17 07 30.0030000  0 26                     
E08  25113403.239   131971798.300       -1810.058          46.000    25113405.532   101121224.039       -1386.950          49.000  
E03  28963436.164   152203693.784       -3176.591          37.000    28963450.252   116623591.679       -2433.659          38.000  
G30  23849840.581   125331700.968       -2871.455          46.000    23849841.144    97661033.679       -2237.711          39.000  
R13  21359223.235   114057053.135         338.464          39.000    21359225.297    88711299.958         263.304          41.000  
R12  20920310.239   111752599.372       -2533.623          46.000    20920309.288    86918966.815       -1970.617          51.000  
R14  25708586.381   137041215.235        2419.632          44.000    25708603.505   106587726.349        1881.704          38.000  
R03  23223415.408   124316751.046        3071.027          46.000    23223412.895    96690880.699        2388.550          47.000  
R11  24773768.595                1      -4285.122          19.000    24773765.358                       -3336.591          25.000  
G19  24130519.482   126806944.423        2056.668          47.000                                                                  
S31  39727524.003   208769456.485        -773.893          45.000  
S33  40716665.890   213967399.804        -775.446          41.000  
G17  23660708.771   124338100.062        1549.000          43.000    23660709.674    96886939.756        1207.149          40.000  
E02  26552654.143   139535198.293       -3053.374          46.000    26552656.436   106916613.775       -2339.381          48.000  
R02  20256510.297   108092627.563         -48.141          49.000    20256510.323    84072073.309         -37.531          47.000  
R01  21569366.573   115300599.776       -3870.468          46.000    21569369.473    89678351.508       -3010.367          44.000  
E18  21415837.084   112541214.170       -1272.647          45.000    21415841.429    86233014.350        -975.041          44.000  
G13  21525591.458   113117784.681         637.540          49.000                                                                  
G20  24170971.517   127019100.742       -3739.786          45.000                                                                  
E07  24904710.113   130875183.276         590.993          46.000    24904714.167   100280996.821         452.945          50.000  
G14  22071256.791   115985381.060       -2963.777          47.000    22071253.676    90378244.872       -2309.278          44.000  
G05  22935854.230   120528671.830       -2492.822          46.000    22935856.788    93918422.625       -1942.443          43.000  
G22  21187167.619   111339516.630        -978.425          43.000                                                                  
G24  25727373.800   135198401.841        1218.008          40.000    25727381.244   105349650.481         949.119          40.000  
G15  23490361.738   123442712.839        1944.293          45.000    23490359.806    96189183.597        1514.837          40.000  
E30  24380844.306   128122371.935        -731.182          46.000    24380848.508    98171796.256        -560.275          51.000  
E27  26650259.872   140048193.484        1553.047          45.000    26650269.368   107309775.379        1189.927          45.000  
> 2024 06 08 17 08 00.0030000  0 26                     
E08  25123776.998   132026310.253       -1823.767          46.000    25123778.903   101162992.850       -1397.277          49.000  
E03  28981595.723   152299122.816       -3184.925          36.000    28981610.111   116696712.091       -2440.406          38.000  
G30  23866250.380   125417936.460       -2877.254          45.000    23866251.034    97728230.108       -2241.854          39.000  
R13  21357378.816   114047210.1591        318.875          40.000    21357380.363    88703638.879         248.024          40.000  
R12  20934577.915   111828845.324       -2549.111          47.000    20934581.486    86978268.977       -1982.600          48.000  
R14  25695000.513   136968793.651        2408.576          45.000    25695017.964   106531397.699        1873.647          39.000  
R03  23206239.500   124224811.727        3058.705          45.000    23206238.000    96619372.431        2378.908          47.000  
R11  24797831.447                       -4289.666          25.000    24797844.430   103065009.9931      -3335.437          25.000  
G19  24118803.525   126745376.913        2048.236          46.000                                                                  
S31  39731954.737   208792739.784        -777.928          45.000  
S33  40721104.082   213990722.269        -779.294          41.000  
G17  23651908.429   124291850.226        1534.554          44.000    23651908.555    96850900.984        1196.031          40.000  
E02  26570111.939   139626940.553       -3062.665          46.000    26570114.605   106986909.763       -2346.688          49.000  
R02  20256862.944   108094506.969         -76.873          49.000    20256863.000    84073535.014         -59.753          47.000  
R01  21591152.301   115417053.697       -3892.597          47.000    21591154.504    89768926.620       -3027.594          43.000  
E18  21423202.511   112579928.012       -1307.930          43.000    21423208.292    86262678.290       -1002.268          44.000  
G13  21521992.797   113098875.262         623.468          49.000                                                                  
G20  24192344.752   127131416.908       -3747.641          45.000                                                                  
E07  24901367.633   130857617.667         580.290          46.000    24901371.797   100267537.445         444.716          50.000  
G14  22088223.540   116074544.047       -2980.345          46.000    22088220.869    90447722.495       -2322.236          44.000  
G05  22950141.693   120603747.462       -2511.802          47.000    22950143.671    93976922.977       -1957.250          43.000  
G22  21192819.240   111369217.430       -1001.142          42.000                                                                  
G24  25720433.539   135161926.163        1213.921          41.000    25720440.819   105321228.002         946.052          40.000  
G15  23479292.095   123384542.929        1934.233          45.000    23479290.847    96143856.400        1507.205          41.000  
E30  24385065.496   128144552.351        -747.240          46.000    24385069.411    98188791.647        -572.470          52.000  
E27  26641429.465   140001786.731        1541.253          46.000    26641437.908   107274217.177        1180.789          45.000  
> 2024 06 08 17 08 30.0030000  0 26                     
E08  25134223.351   132081203.377       -1835.482          47.000    25134224.816   101205053.734       -1406.322          49.000  
E03  28999802.196   152394789.906       -3192.677          36.000    28999815.775   116770014.876       -2445.933          39.000  
G30  23882689.289   125504322.182       -2881.263          45.000    23882690.165    97795543.614       -2245.399          39.000  
R13  21355640.695   114037928.562         300.566          40.000    21355642.039    88696419.922         233.462          41.000  
R12  20948937.939   111905526.377       -2562.712          52.000    20948930.496    87037909.945       -1992.932          43.000  
R14  25681471.810   136896680.493        2399.284          40.000    25681491.879   106475309.102        1866.218          39.000  
R03  23189129.230   124133221.711        3047.765          44.000    23189127.745    96548135.845        2370.352          46.000  
R11  24821917.483                       -4288.050          26.000    24821915.843                1      -3335.731          21.000  
G19  24107130.309   126684040.025        2041.209          46.000                                                                  
S31  39736404.313   208816123.579        -780.379          45.000  
S33  40725561.316   214014145.763        -781.985          41.000  
G17  23643186.657   124246015.005        1521.429          45.000    23643186.266    96815185.309        1185.445          40.000  
E02  26587617.986   139718937.109       -3070.247          46.000    26587620.775   107057400.601       -2352.530          48.000  
R02  20257371.683   108097223.610        -103.985          49.000    20257372.455    84075647.926         -80.971          48.000  
R01  21613058.389   115534148.625       -3913.239          47.000    21613059.593    89860000.275       -3043.567          43.000  
E18  21430765.994   112619674.247       -1341.650          42.000    21430772.230    86293133.244       -1028.016          44.000  
G13  21518470.999   113080367.846         610.673          49.000                                                                  
G20  24213757.775   127243938.399       -3753.611          45.000                                                                  
E07  24898081.489   130840347.358         571.381          47.000    24898085.549   100254304.349         437.796          51.000  
G14  22105280.981   116164181.684       -2995.164          46.000    22105278.398    90517569.987       -2334.158          44.000  
G05  22964531.687   120679366.259       -2529.064          47.000    22964534.081    94035846.534       -1970.610          44.000  
G22  21198596.151   111399574.558       -1022.449          43.000                                                                  
G24  25713511.411   135125549.609        1211.729          41.000    25713518.119   105292882.764         944.227          40.000  
G15  23468276.133   123326653.547        1925.439          44.000    23468274.885    96098747.813        1500.405          40.000  
E30  24389373.582   128167188.594        -761.615          47.000    24389377.117    98206136.329        -583.544          52.000  
E27  26632661.174   139955711.217        1530.929          45.000    26632670.094   107238912.800        1173.071          45.000  
> 2024 06 08 17 09 00.0030000  0 26                     
E08  25144730.922   132136421.468       -1845.275          47.000    25144732.523   101247363.633       -1414.062          49.000  
E03  29018041.949   152490637.816       -3197.293          36.000    29018055.821   116843456.226       -2450.054          39.000  
G30  23899145.826   125590801.396       -2883.731          45.000    23899146.586    97862929.933       -2247.062          39.000  
R13  21353998.199   114029159.9891        284.582          39.000    21353999.216    88689597.637         221.097          41.000  
R12  20963363.419   111982582.488       -2574.152          51.000    20963359.963    87097842.582       -2002.070          49.000  
R14  25667990.612   136824819.319        2391.816          43.000    25668012.626   106419416.554        1860.232          40.000  
R03  23172074.504   124041927.616        3038.824          45.000    23172072.922    96477129.404        2363.502          47.000  
G19  24095491.827   126622880.362        2036.249          46.000                                                                  
S31  39740862.294   208839550.576        -781.189          45.000  
S33  40730027.149   214037612.671        -782.328          41.000  
G17  23634533.815   124200541.096        1510.450          45.000    23634532.449    96779751.172        1176.931          40.000  
E02  26605161.856   139811129.678       -3075.800          46.000    26605164.608   107128041.654       -2356.720          48.000  
R02  20258026.353   108100721.886        -129.144          49.000    20258028.712    84078368.772        -100.289          48.000  
R01  21635072.506   115651824.236       -3931.592          47.000    21635073.239    89951525.576       -3057.697          43.000  
E18  21438515.356   112660396.236       -1372.954          42.000    21438521.617    86324335.877       -1052.150          45.000  
G13  21515014.448   113062208.080         600.097          48.000                                                                  
G20  24235198.066   127356605.433       -3757.354          45.000                                                                  
E07  24894840.926   130823317.256         564.078          47.000    24894844.771   100241255.304         432.371          51.000  
G14  22122417.992   116254234.934       -3008.131          46.000    22122415.413    90587741.289       -2343.799          44.000  
G05  22979013.696   120755469.481       -2544.272          46.000    22979015.453    94095147.557       -1982.698          43.000  
G22  21204487.638   111430530.439       -1041.144          44.000                                                                  
G24  25706596.747   135089215.284        1211.115          41.000    25706603.811   105264570.394         943.896          41.000  
G15  23457303.409   123268990.422        1918.896          45.000    23457301.936    96053815.531        1495.372          41.000  
E30  24393757.051   128190223.466        -773.936          47.000    24393760.354    98223786.458        -593.047          52.000  
E27  26623945.591   139909911.290        1522.679          46.000    26623954.115   107203819.610        1166.764          45.000  
R11                                                                  24845973.870                       -3324.285          22.000  
> 2024 06 08 17 09 30.0030000  0 25                     
E08  25155289.652   132191908.184       -1853.323          47.000    25155291.679   101289879.345       -1420.198          49.000  
E03  29036304.810   152586609.428       -3200.794          34.000    29036319.548   116916992.334       -2452.638          40.000  
G30  23915609.236   125677317.350       -2883.879          45.000    23915610.001    97930344.920       -2247.390          39.000  
R13  21352439.690   114020839.888         270.481          39.000    21352441.622    88683126.494         210.326          41.000  
R12  20977841.794   112059953.300       -2583.654          47.000    20977845.628    87158019.744       -2009.387          50.000  
R14  25654546.842   136753153.959        2385.998          44.000    25654568.365   106363676.346        1856.121          40.000  
R03  23155066.350   123950875.861        3031.517          46.000    23155063.328    96406311.401        2357.952          47.000  
G19  24083876.947   126561844.354        2032.967          45.000                                                                  
S31  39745318.186   208862964.854        -780.039          45.000  
S33  40734490.612   214061067.169        -781.059          41.000  
G17  23625938.688   124155374.761        1500.957          45.000    23625937.470    96744556.703        1169.533          40.000  
E02  26622731.512   139903460.014       -3079.335          45.000    26622734.700   107198788.234       -2359.521          49.000  
R02  20258817.916   108104946.384        -152.265          48.000    20258820.450    84081654.471        -118.512          48.000  
R01  21657183.244   115770020.014       -3947.876          47.000    21657184.702    90043455.459       -3070.667          43.000  
E18  21446440.236   112702037.292       -1402.607          43.000    21446445.359    86356242.740       -1074.557          45.000  
G13  21511613.654   113044341.346         591.277          47.000                                                                  
G20  24256654.893   127469358.647       -3759.194          45.000                                                                  
E07  24891635.783   130806472.192         559.059          47.000    24891639.340   100228348.073         428.396          51.000  
G14  22139622.471   116344644.631       -3018.931          46.000    22139619.845    90658190.346       -2352.450          44.000  
G05  22993575.854   120831997.832       -2557.327          45.000    22993577.567    94154779.855       -1992.692          42.000  
G22  21210481.902   111462027.720       -1058.428          45.000                                                                  
G24  25699679.526   135052866.104        1212.605          41.000    25699686.366   105236246.465         944.843          41.000  
G15  23446363.257   123211499.232        1914.204          45.000    23446362.039    96009017.245        1491.517          41.000  
E30  24398205.788   128213599.620        -784.292          48.000    24398208.491    98241698.076        -600.906          52.000  
E27  26615272.383   139864331.210        1516.334          46.000    26615280.212   107168894.859        1161.817          45.000  
> 2024 06 08 17 10 00.0040000  0 25                     
E08  25165890.720   132247616.820       -1860.580          47.000    25165893.007   101332565.086       -1425.579          49.000  
E03  29054583.657   152682658.331       -3202.720          33.000    29054597.837   116990587.661       -2454.130          41.000  
G30  23932070.858   125763823.891       -2883.255          45.000    23932072.090    97997752.520       -2246.595          39.000  
R13  21350955.011   114012899.5961        257.145          38.000    21350958.266    88676967.093         200.097          41.000  
R12  20992379.251   112137588.449       -2592.147          52.000    20992378.729    87218402.531       -2015.991          49.000  
R14  25641130.671   136681633.571        2381.444          46.000    25641151.748   106308048.945        1852.278          42.000  
R03  23138092.884   123860017.459        3025.424          45.000    23138089.854    96335643.816        2352.803          46.000  
G19  24072276.399   126500884.509        2030.463          45.000                                                                  
S31  39749762.058   208886318.812        -777.472          45.000  
S33  40738941.973   214084461.438        -778.661          41.000  
G17  23617392.983   124110469.155        1492.373          45.000    23617392.065    96709565.389        1162.740          40.000  
E02  26640318.477   139995880.709       -3081.880          45.000    26640321.454   107269604.060       -2361.538          48.000  
R02  20259737.609   108109849.624        -174.893          48.000    20259739.084    84085468.064        -135.933          48.000  
R01  21679382.512   115888687.443       -3963.166          47.000    21679384.099    90135752.168       -3082.354          43.000  
E18  21454530.154   112744549.879       -1431.493          44.000    21454535.158    86388817.455       -1097.021          45.000  
G13  21508259.722   113026720.548         583.039          47.000                                                                  
G20  24278119.091   127582150.052       -3760.259          46.000                                                                  
E07  24888456.104   130789764.186         554.502          47.000    24888459.814   100215545.868         424.883          51.000  
G14  22156885.304   116435362.467       -3028.851          46.000    22156883.179    90728879.509       -2360.340          44.000  
G05  23008210.834   120908902.626       -2569.768          45.000    23008212.400    94214705.470       -2002.310          42.000  
G22  21216569.462   111494017.445       -1074.496          46.000                                                                  
G24  25692749.969   135016451.658        1214.783          40.000    25692756.612   105207871.669         946.648          41.000  
G15  23435446.353   123154131.641        1909.774          45.000    23435445.571    95964315.250        1488.298          42.000  
E30  24402709.748   128237268.301        -793.769          48.000    24402712.189    98259833.840        -608.196          51.000  
E27  26606629.733   139818921.444        1510.679          45.000    26606638.980   107134100.626        1157.579          45.000  
> 2024 06 08 17 10 30.0040000  0 25                     
E08  25176531.180   132303530.899       -1867.293          47.000    25176533.193   101375408.241       -1430.723          50.000  
E03  29072870.710   152778764.517       -3204.252          32.000    29072887.208   117064226.855       -2455.510          41.000  
G30  23948526.897   125850302.035       -2882.077          45.000    23948528.164    98065138.027       -2245.566          39.000  
R13  21349544.762   114005367.383         244.972          39.000    21349547.696    88671108.770         190.376          40.000  
R12  21006960.187   112215466.714       -2599.993          53.000    21006954.810    87278974.591       -2022.266          45.000  
R14  25627739.667   136610250.017        2376.916          44.000    25627760.447   106252527.934        1849.187          40.000  
R03  23121155.302   123769349.340        3019.151          45.000    23121152.395    96265124.180        2348.356          46.000  
G19  24060689.518   126439994.997        2028.435          46.000                                                                  
S31  39754191.785   208909596.494        -774.610          45.000  
S33  40743379.879   214107780.099        -776.355          41.000  
G17  23608895.128   124065817.523        1484.126          44.000    23608895.009    96674771.954        1156.695          40.000  
E02  26657918.874   140088370.920       -3084.239          45.000    26657922.008   107340473.131       -2363.033          48.000  
R02  20260782.217   108115420.110        -196.698          49.000    20260782.572    84089800.623        -152.881          47.000  
R01  21701665.375   116007802.667       -3977.969          47.000    21701667.046    90228397.167       -3093.843          43.000  
E18  21462782.376   112787917.877       -1459.822          44.000    21462787.249    86422047.599       -1118.578          45.000  
G13  21504951.310   113009335.741         575.525          46.000                                                                  
G20  24299586.007   127694955.917       -3760.278          46.000                                                                  
E07  24885300.322   130773182.692         550.565          47.000    24885304.548   100202840.602         421.830          51.000  
G14  22174203.195   116526366.788       -3038.171          46.000    22174201.097    90799791.891       -2367.645          44.000  
G05  23022912.744   120986163.006       -2581.218          46.000    23022914.506    94274908.200       -2011.402          42.000  
G22  21222747.323   111526483.610       -1090.190          45.000                                                                  
G24  25685805.609   134979960.882        1217.587          41.000    25685812.340   105179437.389         948.911          41.000  
G15  23424551.724   123096880.638        1906.566          45.000    23424551.069    95919704.135        1485.469          42.000  
E30  24407266.325   128261214.158        -802.771          47.000    24407268.791    98278181.982        -615.164          51.000  
E27  26598019.055   139773672.834        1505.670          45.000    26598028.061   107099429.881        1153.685          45.000  
> 2024 06 08 17 11 00.0040000  0 26                     
E08  25187208.523   132359641.540       -1873.818          47.000    25187210.724   101418402.007       -1435.780          49.000  
E03  29091170.131   152874919.502       -3205.357          33.000    29091185.105   117137903.448       -2456.722          41.000  
G30  23964976.756   125936743.496       -2880.778          45.000    23964977.544    98132494.976       -2244.695          40.000  
R13  21348204.512   113998210.3591        232.417          39.000    21348206.945    88665541.517         180.495          41.000  
R12  21021582.510   112293576.353       -2607.584          50.000    21021576.053    87339726.692       -2028.159          46.000  
R14  25614371.680   136538990.759        2373.015          44.000    25614392.423   106197103.647        1845.522          40.000  
R03  23104251.329   123678866.9301       3013.004          45.000    23104248.283    96194744.384        2343.530          45.000  
R11  24941918.217                       -4255.344          16.000                                                                  
G19  24049114.514   126379166.130        2026.327          46.000                                                                  
S31  39758605.166   208932788.889        -771.794          46.000  
S33  40747800.769   214131013.179        -772.895          41.000  
G17  23600444.200   124021410.370        1475.896          44.000    23600444.568    96640169.042        1149.961          40.000  
E02  26675530.703   140180921.064       -3086.196          45.000    26675533.631   107411388.124       -2364.628          48.000  
R02  20261949.130   108121648.211        -218.633          49.000    20261949.636    84094644.637        -170.106          47.000  
R01  21724029.831   116127392.2561      -3992.551          46.000    21724032.276    90321382.358       -3105.208          43.000  
E18  21471194.845   112832131.398       -1487.931          43.000    21471200.411    86455925.623       -1140.199          44.000  
G13  21501686.927   112992177.327         568.033          47.000                                                                  
G20  24321052.931   127807765.911       -3760.439          45.000                                                                  
E07  24882167.136   130756717.573         546.746          47.000    24882171.180   100190224.486         418.890          51.000  
G14  22191573.553   116617647.045       -3047.357          46.000    22191571.375    90870919.293       -2374.629          45.000  
G05  23037680.416   121063768.415       -2592.619          46.000    23037683.015    94335379.790       -2020.467          43.000  
G22  21229013.955   111559415.528       -1105.728          45.000                                                                  
G24  25678844.656   134943381.218        1220.675          41.000    25678850.770   105150933.891         951.244          41.000  
G15  23413677.237   123039735.681        1902.908          45.000    23413676.405    95875175.635        1482.879          42.000  
E30  24411873.587   128285426.251        -811.643          47.000    24411876.034    98296734.116        -621.946          51.000  
E27  26589436.237   139728573.682        1500.741          44.000    26589445.906   107064873.647        1149.848          45.000  
> 2024 06 08 17 11 30.0040000  0 25                     
E08  25197921.420   132415941.183       -1879.607          46.000    25197923.924   101461540.596       -1440.240          49.000  
E03  29109474.456   152971114.845       -3207.213          32.000    29109490.237   117211610.915       -2457.413          40.000  
G30  23981417.082   126023140.332       -2878.970          44.000    23981418.318    98199817.149       -2243.647          40.000  
R13  21346933.995   113991418.184         220.675          39.000    21346934.669    88660258.772         171.712          40.000  
R12  21036239.034   112371906.726       -2614.463          46.000    21036242.601    87400650.214       -2033.584          49.000  
R14  25601027.124   136467849.273        2369.532          46.000    25601046.325   106141770.850        1842.545          40.000  
R03  23087381.084   123588554.702        3007.589          46.000    23087376.965    96124501.591        2339.138          45.000  
G19  24037549.923   126318393.210        2025.003          47.000                                                                  
S31  39763000.771   208955887.783        -768.268          46.000  
S33  40752204.311   214154152.932        -769.655          41.000  
G17  23592039.750   123977242.617        1468.422          44.000    23592039.101    96605752.640        1144.025          39.000  
E02  26693151.811   140273521.666       -3087.508          45.000    26693154.645   107482341.806       -2365.599          47.000  
R02  20263238.304   108128528.213        -240.160          49.000    20263238.771    84099995.715        -186.766          47.000  
R01  21746473.780   116247371.646       -4006.177          46.000    21746477.242    90414699.498       -3115.962          43.000  
E18  21479767.187   112877182.259       -1515.514          42.000    21479773.312    86490445.250       -1161.420          44.000  
G13  21498464.609   112975239.790         561.004          48.000                                                                  
G20  24342518.866   127920569.203       -3759.957          44.000                                                                  
E07  24879054.666   130740362.409         543.324          47.000    24879058.783   100177692.609         416.403          51.000  
G14  22208994.604   116709192.891       -3055.815          47.000    22208991.902    90942253.667       -2381.270          45.000  
G05  23052512.431   121141708.409       -2603.483          46.000    23052515.107    94396112.058       -2028.722          43.000  
G22  21235366.835   111592804.186       -1120.398          44.000                                                                  
G24  25671865.285   134906704.434        1224.489          41.000    25671871.445   105122354.721         954.141          41.000  
G15  23402821.829   122982690.749        1899.972          46.000    23402821.437    95830725.100        1480.388          42.000  
E30  24416530.198   128309895.963        -819.865          47.000    24416532.309    98315483.637        -628.131          50.000  
E27  26580880.746   139683616.999        1496.305          44.000    26580891.395   107030426.576        1146.570          46.000  
> 2024 06 08 17 12 00.0040000  0 25                     
E08  25208671.602   132472430.901       -1886.254          47.000    25208673.572   101504824.826       -1445.195          49.000  
E03  29127788.677   153067350.546       -3208.403          32.000    29127804.117   117285349.323       -2458.353          40.000  
G30  23997849.279   126109493.034       -2877.713          43.000    23997850.718    98267104.905       -2242.622          40.000  
R13  21345729.530   113984995.1511        208.004          38.000    21345730.768    88655260.077         161.916          40.000  
R12  21050949.392   112450455.386       -2622.048          52.000    21050948.129    87461743.588       -2039.302          50.000  
R14  25587704.647   136396827.118        2365.358          45.000    25587723.278   106086530.892        1839.635          40.000  
R03  23070543.854   123498423.190        3001.278          46.000    23070539.911    96054399.342        2334.153          45.000  
G19  24025996.557   126257680.552        2022.588          47.000                                                                  
S31  39767378.288   208978893.415        -765.436          45.000  
S33  40756589.507   214177200.008        -766.744          41.000  
G17  23583681.661   123933318.218        1460.025          44.000    23583680.091    96571525.855        1137.609          38.000  
E02  26710782.978   140366171.800       -3089.102          45.000    26710785.713   107553333.437       -2367.010          47.000  
R02  20264649.486   108136062.659        -262.064          48.000    20264650.690    84105855.805        -203.956          47.000  
R01  21768997.393   116367775.272       -4020.422          45.000    21769001.576    90508346.616       -3127.199          43.000  
E18  21488499.899   112923070.783       -1543.692          42.000    21488505.707    86525606.691       -1182.805          45.000  
G13  21495285.089   112958525.595         553.276          49.000                                                                  
G20  24363982.717   128033363.756       -3759.718          43.000                                                                  
E07  24875963.535   130724119.414         539.490          46.000    24875967.795   100165246.698         413.427          51.000  
G14  22226465.615   116801002.427       -3064.706          48.000    22226463.029    91013793.495       -2388.082          45.000  
G05  23067408.503   121219981.400       -2614.647          46.000    23067410.232    94457103.805       -2037.273          43.000  
G22  21241806.663   111626649.171       -1135.918          43.000                                                                  
G24  25664867.204   134869930.835        1227.524          41.000    25664873.377   105093700.163         956.259          41.000  
G15  23391986.725   122925749.235        1896.245          46.000    23391985.971    95786355.130        1477.633          43.000  
E30  24421235.451   128334623.318        -828.509          47.000    24421237.633    98334430.576        -634.880          50.000  
E27  26572352.954   139638804.324        1491.234          44.000    26572364.157   106996089.867        1142.689          47.000  
> 2024 06 08 17 12 30.0040000  0 25                     
E08  25219457.056   132529108.955       -1892.485          47.000    25219459.138   101548253.369       -1450.033          49.000  
E03  29146108.272   153163624.056       -3210.018          32.000    29146124.314   117359116.727       -2459.633          39.000  
G30  24014272.809   126195799.598       -2876.256          41.000    24014274.294    98334356.685       -2241.176          40.000  
R13  21344593.705   113978930.176         195.856          38.000    21344594.601    88650542.964         152.440          40.000  
R12  21065695.245   112529217.413       -2629.176          52.000    21065692.189    87523002.969       -2044.887          48.000  
R14  25574404.751   136325923.491        2361.326          47.000    25574422.040   106031383.048        1836.798          41.000  
R03  23053740.051   123408474.843        2995.071          46.000    23053736.695    95984439.596        2329.353          45.000  
G19  24014454.812   126197029.266        2020.535          47.000                                                                  
S31  39771738.138   209001804.836        -762.583          44.000  
S33  40760957.417   214200152.099        -763.782          40.000  
G17  23575370.188   123889638.416        1451.827          43.000    23575367.913    96537489.690        1131.166          38.000  
E02  26728422.931   140458867.945       -3090.724          45.000    26728425.080   107624360.307       -2368.237          46.000  
R02  20266183.970   108144251.078        -284.001          48.000    20266185.711    84112224.545        -220.954          48.000  
R01  21791599.892   116488598.318       -4034.567          46.000    21791604.028    90602319.920       -3137.917          43.000  
E18  21497391.207   112969794.586       -1571.542          42.000    21497396.773    86561408.135       -1204.200          45.000  
G13  21492147.746   112942035.334         545.841          49.000                                                                  
G20  24385444.154   128146144.585       -3759.327          41.000                                                                  
E07  24872893.981   130707988.071         535.648          46.000    24872898.251   100152886.343         410.503          51.000  
G14  22243985.895   116893071.237       -3073.477          47.000    22243983.299    91085535.346       -2395.012          46.000  
G05  23082365.831   121298582.256       -2625.612          45.000    23082367.071    94518351.051       -2045.569          42.000  
G22  21248333.875   111660947.605       -1150.996          43.000                                                                  
G24  25657850.674   134833058.184        1230.795          41.000    25657855.750   105064968.407         958.597          39.000  
G15  23381170.601   122868911.416        1892.794          45.000    23381169.766    95742065.958        1474.877          43.000  
E30  24425989.610   128359605.569        -837.220          47.000    24425991.697    98353572.811        -641.381          50.000  
E27  26563852.707   139594134.578        1486.582          44.000    26563863.436   106961862.661        1138.900          47.000  
> 2024 06 08 17 13 00.0040000  0 25                     
E08  25230278.281   132585974.796       -1898.702          46.000    25230280.461   101591825.801       -1454.943          49.000  
E03  29164433.745   153259933.942       -3210.784          32.000    29164451.794   117432911.940       -2460.404          39.000  
G30  24030687.881   126282059.031       -2874.664          41.000    24030689.098    98401571.766       -2240.121          41.000  
R13  21343521.389   113973233.4191        184.221          37.000    21343525.902    88646106.053         143.011          40.000  
R12  21080475.535   112608189.040       -2635.913          45.000    21080473.156    87584425.388       -2050.177          45.000  
R14  25561127.134   136255138.472        2357.352          47.000    25561142.672   105976327.471        1833.424          42.000  
R03  23036971.229   123318712.842        2988.786          47.000    23036967.950    95914624.772        2324.738          45.000  
G19  24002925.488   126136441.731        2018.195          47.000                                                                  
S31  39776079.716   209024619.971        -758.968          45.000  
S33  40765307.323   214223009.819        -760.389          40.000  
G17  23567105.727   123846205.470        1443.458          44.000    23567103.212    96503645.913        1124.627          39.000  
E02  26746070.884   140551607.608       -3092.120          46.000    26746072.395   107695420.536       -2369.408          46.000  
R02  20267842.150   108153094.406        -305.875          49.000    20267842.643    84119102.663        -237.963          47.000  
R01  21814282.237   116609836.864       -4048.366          47.000    21814284.007    90696616.428       -3148.725          43.000  
E18  21506441.248   113017352.282       -1599.384          42.000    21506446.703    86597848.530       -1225.421          45.000  
G13  21489052.808   112925770.174         538.330          50.000                                                                  
G20  24406903.238   128258907.776       -3758.488          43.000                                                                  
E07  24869846.021   130691969.032         531.804          46.000    24869849.864   100140612.057         407.595          51.000  
G14  22261555.050   116985395.921       -3081.880          47.000    22261552.041    91157476.575       -2401.549          46.000  
G05  23097383.517   121377507.554       -2636.486          43.000    23097386.078    94579851.111       -2054.282          42.000  
G22  21254946.844   111695697.716       -1166.010          44.000                                                                  
G24  25650814.969   134796085.245        1234.015          42.000    25650819.352   105036158.480         961.674          39.000  
G15  23370374.706   122812178.882        1889.130          46.000    23370373.680    95697858.847        1471.994          42.000  
E30  24430792.289   128384841.134        -845.493          48.000    24430793.759    98372909.156        -647.891          51.000  
E27  26555378.996   139549607.719        1481.472          44.000    26555389.630   106927744.918        1135.355          46.000  
> 2024 06 08 17 13 30.0040000  0 26                     
E08  25241136.771   132643033.971       -1905.196          47.000    25241138.657   101635546.357       -1459.860          50.000  
E03  29182772.425   153356284.834       -3212.171          33.000    29182786.877   117506738.544       -2461.337          39.000  
G30  24047094.318   126368276.527       -2873.128          41.000    24047096.222    98468754.167       -2239.031          41.000  
R13  21342523.321   113967893.351         171.953          39.000    21342526.099    88641952.762         133.807          40.000  
R12  21095298.639   112687372.984       -2643.016          50.000    21095296.518    87646012.859       -2055.643          47.000  
R14  25547870.784   136184478.477        2353.335          45.000    25547888.051   105921369.074        1830.551          42.000  
R03  23020239.221   123229146.291        2982.288          47.000    23020237.076    95844961.925        2319.463          46.000  
R11  25060927.969                       -4227.102          15.000                                                                  
G19  23991409.379   126075926.617        2015.874          47.000                                                                  
S31  39780404.380   209047345.066        -755.887          45.000  
S33  40769639.680   214245777.139        -757.360          41.000  
G17  23558888.939   123803027.971        1434.999          45.000    23558887.305    96470001.230        1118.019          40.000  
E02  26763727.874   140644394.522       -3093.770          46.000    26763729.622   107766516.961       -2370.396          46.000  
R02  20269624.467   108162599.820        -327.943          49.000    20269623.963    84126495.702        -255.021          47.000  
R01  21837040.656   116731493.720       -4062.240          47.000    21837043.000    90791238.258       -3159.363          43.000  
E18  21515651.218   113065748.666       -1627.243          43.000    21515656.288    86634931.563       -1246.816          45.000  
G13  21486001.942   112909737.632         530.430          50.000                                                                  
G20  24428359.506   128371655.648       -3758.119          44.000                                                                  
E07  24866820.385   130676068.996         528.005          46.000    24866824.071   100128428.961         404.560          51.000  
G14  22279172.932   117077979.291       -3090.376          47.000    22279170.206    91229619.392       -2408.045          46.000  
G05  23112464.551   121456760.339       -2647.102          44.000    23112467.453    94641606.355       -2062.688          42.000  
G22  21261646.405   111730903.689       -1181.004          44.000                                                                  
G24  25643761.510   134759017.049        1237.036          41.000    25643765.264   105007274.383         964.171          39.000  
G15  23359600.527   122755559.188        1885.353          47.000    23359598.388    95653739.609        1469.201          42.000  
E30  24435643.764   128410334.553        -854.023          48.000    24435645.113    98392443.058        -654.403          51.000  
E27  26546934.723   139505229.853        1476.863          44.000    26546944.469   106893741.337        1131.613          46.000  
> 2024 06 08 17 14 00.0040000  0 26                     
E08  25252032.608   132700293.427       -1911.852          47.000    25252034.936   101679420.373       -1464.897          49.000  
E03  29201114.961   153452682.778       -3214.190          33.000    29201131.096   117580601.186       -2462.655          38.000  
G12  26833092.437   141008862.4791       2673.069          36.000    26833105.810   109877492.7211       2083.729          35.000  
G30  24063494.724   126454458.678       -2871.856          42.000    24063496.053    98535909.029       -2238.094          41.000  
R13  21341593.637   113962918.8231        159.578          38.000    21341595.412    88638087.668         124.140          40.000  
R12  21110165.916   112766772.639       -2650.059          53.000    21110163.400    87707768.193       -2061.087          50.000  
R14  25534639.996   136113951.107        2348.749          45.000    25534657.926   105866513.901        1827.034          41.000  
R03  23003546.685   123139786.276        2975.403          47.000    23003544.536    95775459.718        2314.200          46.000  
G19  23979908.325   126015493.849        2013.135          46.000                                                                  
S31  39784712.624   209069986.560        -753.288          45.000  
S33  40773956.303   214268460.706        -754.476          41.000  
G17  23550722.821   123760115.716        1426.142          44.000    23550721.991    96436563.216        1110.910          40.000  
E02  26781394.557   140737233.711       -3095.386          46.000    26781395.974   107837653.460       -2371.728          45.000  
R02  20271531.001   108172775.945        -350.159          49.000    20271530.833    84134410.423        -272.391          47.000  
R01  21859878.235   116853572.302       -4076.179          47.000    21859880.820    90886188.080       -3170.134          43.000  
E18  21525020.581   113114989.792       -1655.347          42.000    21525026.359    86672661.867       -1268.274          45.000  
G13  21482996.830   112893946.142         522.485          50.000                                                                  
G20  24449813.081   128484392.181       -3757.431          44.000                                                                  
E07  24863819.038   130660296.110         523.641          46.000    24863822.603   100116343.282         401.283          51.000  
G14  22296840.534   117170825.520       -3099.115          46.000    22296838.202    91301967.048       -2414.725          45.000  
G05  23127607.953   121536344.601       -2658.287          42.000    23127611.718    94703619.882       -2071.241          41.000  
G22  21268433.672   111766571.228       -1196.258          44.000                                                                  
G24  25636690.689   134721859.842        1240.028          40.000    25636694.875   104978320.951         966.309          39.000  
G15  23348849.557   122699061.375        1881.359          47.000    23348846.862    95609715.362        1465.938          41.000  
E30  24440545.089   128436091.781        -862.821          48.000    24440546.636    98412179.109        -661.127          51.000  
E27  26538519.964   139461008.491        1471.510          45.000    26538529.158   106859857.681        1127.615          46.000  
> 2024 06 08 17 14 30.0040000  0 26                     
E08  25262968.811   132757761.374       -1919.444          47.000    25262970.723   101723454.134       -1470.740          49.000  
E03  29219470.265   153549134.959       -3216.089          34.000    29219485.952   117654505.408       -2464.282          39.000  
G12  26817833.442   140928678.504        2672.220          35.000    26817847.101   109815011.401        2082.389          36.000  
G30  24079889.428   126540613.353       -2871.626          43.000    24079890.776    98603042.492       -2237.778          41.000  
R13  21340734.629   113958326.445         145.915          39.000    21340735.383    88634515.938         113.616          40.000  
R12  21125070.746   112846393.344       -2658.175          51.000    21125068.981    87769695.423       -2067.445          50.000  
R14  25521434.900   136043565.649        2343.318          43.000    25521454.466   105811769.059        1822.599          43.000  
R03  22986894.417   123050644.836        2967.330          48.000    22986892.324    95706127.519        2308.020          46.000  
G19  23968425.563   125955154.781        2009.317          46.000                                                                  
S31  39789006.865   209092552.747        -751.219          45.000  
S33  40778258.438   214291069.301        -752.684          41.000  
G17  23542609.199   123717479.465        1416.101          43.000    23542609.112    96403340.240        1103.409          41.000  
E02  26799072.329   140830131.579       -3097.828          46.000    26799074.162   107908834.929       -2373.695          45.000  
R02  20273564.843   108183632.352        -373.720          49.000    20273564.491    84142854.243        -290.561          46.000  
R01  21882794.907   116976078.008       -4090.919          46.000    21882797.664    90981470.113       -3181.524          42.000  
E18  21534552.408   113165082.986       -1684.329          41.000    21534558.213    86711045.033       -1290.606          44.000  
G13  21480039.464   112878406.051         513.431          50.000                                                                  
G20  24471265.465   128597122.271       -3757.950          44.000                                                                  
E07  24860843.703   130644659.783         518.424          47.000    24860847.171   100104362.229         397.333          50.000  
G14  22314559.298   117263940.002       -3108.833          47.000    22314557.364    91374523.740       -2422.146          45.000  
G05  23142817.034   121616265.568       -2670.020          43.000    23142820.158    94765895.720       -2080.536          41.000  
G22  21275310.731   111802707.217       -1212.700          45.000                                                                  
G24  25629604.540   134684621.227        1242.241          41.000    25629609.740   104949304.133         967.883          41.000  
G15  23338123.669   122642695.741        1876.249          47.000    23338120.822    95565794.112        1461.947          42.000  
E30  24445497.499   128462120.042        -872.597          47.000    24445499.688    98432122.837        -668.612          51.000  
E27  26530136.290   139416952.429        1465.435          45.000    26530145.247   106826100.693        1122.723          46.000  
