     3.00           OBSERVATION DATA    M: Mixed            RINEX VERSION / TYPE
CONVBIN demo5 b34j                      20240609 013620 UTC PGM / RUN BY / DATE 
log: SAUC00CHL_R_20241602015_15M_30S_MO.ubx                 COMMENT             
format: u-blox UBX                                          COMMENT             
format: u-blox UBX                                          COMMENT             
log: SAUC00CHL_R_20241602015_15M_30S_MO.ubx                 COMMENT             
SAUC00CHL                                                   MARKER NAME         
                                                            MARKER NUMBER       
GEODETIC                                                    MARKER TYPE         
El Sauce            Obstech                                 OBSERVER / AGENCY   
UNKNOWN             UBLOX-ZED-F9P                           REC # / TYPE / VERS 
UNKNWOWN            TWIVSP6037L                             ANT # / TYPE        
  1813185.0000 -5195981.0000 -3216438.0000                  APPROX POSITION XYZ 
        0.0000        0.0000        0.0000                  ANTENNA: DELTA H/E/N
G    8 C1C L1C D1C S1C C2X L2X D2X S2X                      SYS / # / OBS TYPES 
R    8 C1C L1C D1C S1C C2C L2C D2C S2C                      SYS / # / OBS TYPES 
E    8 C1X L1X D1X S1X C7X L7X D7X S7X                      SYS / # / OBS TYPES 
S    4 C1C L1C D1C S1C                                      SYS / # / OBS TYPES 
  2024    06    08    20    20   02.9880000     GPS         TIME OF FIRST OBS   
  2024    06    08    20    20   30.4880000     GPS         TIME OF LAST OBS    
                                                            END OF HEADER       
> 2024 06 08 20 20 02.9880000  0 30                     
G11  20392500.703   107163524.5241       1683.029          46.000    20392501.973    83504160.2711       1311.221          39.000  
G12  17839990.297    93750026.3391       -306.431          48.000    17839987.700    73052519.2581       -238.905          42.000  
E34  23809231.539   125118370.4851       -502.276          43.000    23809235.318    95869941.4401       -384.833          44.000  
R13  18075614.455    96522775.5361      -2160.087          39.000    18075612.939    75073542.4531      -1679.618          40.000  
R17  20365200.709   108978296.6171       3596.618          44.000                                                                  
R14  17153733.053    91439327.7781        106.323          51.000    17153733.141    71119676.0601         82.489          48.000  
R03  18591094.473    99519532.9751      -4583.016          47.000    18591101.078    77404030.1121      -3564.597          47.000  
R04  17415306.540    93258147.7491      -1913.922          50.000    17415304.127    72534120.5421      -1488.600          47.000  
G32  21267276.378   111760320.3011       2106.906          40.000    21267280.435    87085878.7011       1641.436          41.000  
G19  19278977.068   101312016.7531      -3776.484          47.000                                                                  
S31  35117114.185   184541593.5861       -767.958          46.000  
S33  36110216.933   189760463.9181       -769.319          41.000  
G06  20007892.017   105142361.7171        377.564          41.000    20007894.066    81929238.0261        294.228          41.000  
R23  17811195.535    95278052.3301      -1749.752          48.000                                                                  
R24  17314267.444    92587401.1421       2120.166          48.000    17314267.664    72012520.3601       1649.005          45.000  
R05  19394186.732   103673044.7191       1394.803          49.000    19394187.603    80634573.3471       1084.834          43.000  
R15  19979275.155   106763262.2531       1395.118          46.000    19979278.853    83037986.9301       1085.115          42.000  
G25  19275361.861   101292925.2601        843.131          45.000    19275364.220    78929672.5861        657.010          40.000  
E21  22356913.925   117486557.7251        474.604          44.000    22356920.748    90022320.1771        363.608          48.000  
G29  21297831.957   111920835.8101       2972.551          43.000    21297846.848    87211088.4491       2316.259          36.000  
G13  19936483.991   104766791.5031      -4486.182          42.000                                                                  
E19  22794084.507   119783741.2941       1118.585          40.000    22794086.094    91782366.6691        857.085          40.000  
E07  21690946.654   113986662.9201      -3423.408          45.000    21690954.434    87340422.7011      -2623.061          47.000  
E15  23043759.928   121095891.9881       1353.910          43.000    23043767.619    92788019.1151       1037.374          47.000  
E13  24528948.019   128900468.8571       1808.468          41.000    24528968.682    98767967.5151       1385.809          42.000  
G24  17043010.331    89561886.9091        187.268          47.000    17043012.350    69788758.5871        145.929          47.000  
G15  18583073.031    97654657.1491      -3502.381          47.000    18583076.961    76094574.5721      -2728.906          44.000  
E30  22630372.058   118923568.4241      -2485.154          44.000    22630375.906    91123360.7321      -1904.306          48.000  
E27  20366009.858   107024347.5701      -1156.739          49.000    20366010.192    82005820.5381       -886.388          50.000  
G23                                                                  22245713.569                       -2114.730          18.000  
> 2024 06 08 20 20 30.4880000  0 30                     
G11  20383709.848   107117328.555        1676.453          46.000    20383710.900    83468163.531        1306.451          39.000  
G12  17841615.428    93758564.849        -314.618          48.000    17841612.465    73059172.684        -245.358          43.000  
E34  23811896.182   125132377.892        -516.748          43.000    23811900.654    95880674.498        -395.822          44.000  
R13  18086751.579    96582245.234       -2165.190          39.000    18086749.988    75119796.656       -1683.715          39.000  
R17  20346714.894   108879377.929        3597.156          44.000                                                                  
R14  17153198.226    91436470.896         101.257          52.000    17153198.174    71117454.093          78.705          49.000  
R03  18614660.560    99645685.528       -4591.902          46.000    18614667.725    77502148.195       -3571.472          47.000  
R04  17425198.796    93311120.293       -1938.782          49.000    17425196.551    72575321.295       -1508.053          47.000  
G32  21256285.506   111702556.017        2094.009          40.000    21256287.952    87040867.497        1631.774          40.000  
G19  19298768.949   101416024.274       -3787.932          47.000                                                                  
S31  35121139.349   184562747.007        -770.662          46.000  
S33  36114249.194   189781654.728        -772.083          41.000  
G06  20005957.081   105132193.777         361.643          41.000    20005959.597    81921315.118         281.822          42.000  
R23  17820258.202    95326531.313       -1776.096          48.000                                                                  
R24  17303411.414    92529351.015        2101.520          49.000    17303411.933    71967370.411        1634.430          44.000  
R05  19387068.765   103634989.872        1372.578          49.000    19387067.283    80604975.114        1067.626          41.000  
R15  19972099.331   106724921.724        1393.090          46.000    19972103.839    83008166.694        1083.532          43.000  
G25  19270965.476   101269824.474         837.032          45.000    19270968.706    78911672.149         651.907          41.000  
E21  22354444.949   117473582.913         468.875          44.000    22354451.798    90012378.590         359.250          48.000  
G29  21282289.679   111839157.233        2967.577          44.000    21282303.068    87147442.723        2311.568          32.000  
G13  19959976.362   104890241.975       -4492.231          43.000                                                                  
E19  22788260.106   119753138.837        1106.742          39.000    22788262.679    91758918.071         847.725          40.000  
E07  21708882.505   114080915.712       -3431.544          46.000    21708890.304    87412642.192       -2629.380          48.000  
E15  23036694.713   121058763.766        1346.072          43.000    23036702.352    92759570.264        1031.414          47.000  
E13  24519477.639   128850700.318        1810.665          41.000    24519497.993    98729833.238        1387.699          42.000  
G24  17042064.631    89556914.866         174.181          47.000    17042066.472    69784884.274         135.618          48.000  
G15  18601429.168    97751117.559       -3512.959          47.000    18601433.272    76169738.269       -2737.368          44.000  
E30  22643381.122   118991929.661       -2486.621          44.000    22643384.473    91175741.415       -1905.375          48.000  
E27  20372076.105   107056222.819       -1161.715          50.000    20372075.399    82030244.481        -890.063          49.000  
G23                                                                  22259899.773                       -2110.312          19.000  
