     3.00           OBSERVATION DATA    M: Mixed            RINEX VERSION / TYPE
CONVBIN demo5 b34j                      20240609 013619 UTC PGM / RUN BY / DATE 
log: SAUC00CHL_R_20241600315_15M_30S_MO.ubx                 COMMENT             
format: u-blox UBX                                          COMMENT             
format: u-blox UBX                                          COMMENT             
log: SAUC00CHL_R_20241600315_15M_30S_MO.ubx                 COMMENT             
SAUC00CHL                                                   MARKER NAME         
                                                            MARKER NUMBER       
GEODETIC                                                    MARKER TYPE         
El Sauce            Obstech                                 OBSERVER / AGENCY   
UNKNOWN             UBLOX-ZED-F9P                           REC # / TYPE / VERS 
UNKNWOWN            TWIVSP6037L                             ANT # / TYPE        
  1813185.0000 -5195981.0000 -3216438.0000                  APPROX POSITION XYZ 
        0.0000        0.0000        0.0000                  ANTENNA: DELTA H/E/N
G    8 C1C L1C D1C S1C C2X L2X D2X S2X                      SYS / # / OBS TYPES 
R    8 C1C L1C D1C S1C C2C L2C D2C S2C                      SYS / # / OBS TYPES 
E    8 C1X L1X D1X S1X C7X L7X D7X S7X                      SYS / # / OBS TYPES 
S    4 C1C L1C D1C S1C                                      SYS / # / OBS TYPES 
  2024    06    08    03    24   05.0000000     GPS         TIME OF FIRST OBS   
  2024    06    08    03    29   30.0000000     GPS         TIME OF LAST OBS    
                                                            END OF HEADER       
> 2024 06 08 03 24 05.0000000  0 30                     
G23  20578479.709   108140778.8801       -901.376          46.000    20578475.368    84265618.3741       -702.296          45.000  
E04  28119088.199   147766848.9261       1357.353          40.000                                                                  
G16  21420079.947   112563294.3001       1099.305          46.000                                                                  
R04  23244969.077   124475801.8611       3182.820          47.000    23244965.670    96814491.0811       2475.483          43.000  
R15  23082988.976   123348478.3141      -5121.165          45.000    23082991.534    95937652.9191      -3982.837          42.000  
R19  21113368.041   112942339.4311       -170.214          39.000    21113363.876    87844232.7821       -132.683          45.000  
R18  20845572.001   111275086.4441      -1818.585          49.000    20845570.382    86547515.4691      -1414.392          47.000  
R03  21651527.451   115902397.0041       1347.418          48.000    21651521.542    90146324.1521       1047.893          46.000  
R16  20376765.455   108849025.4551      -2924.583          50.000    20376763.472    84660325.4741      -2274.715          47.000  
G29  24780121.950   130220441.5571      -3014.092          41.000    24780118.821   101470460.6951      -2348.518          37.000  
E02  27209822.291   142988584.1571       1805.881          41.000    27209823.292   109562671.6661       1383.709          44.000  
S31  38797917.637   203884454.2161       -746.121          45.000  
S33  39791768.877   209107225.6741       -745.587          38.000  
G31  24537911.665   128947427.7221      -3264.681          44.000    24537916.105   100478636.0171      -2544.048          39.000  
E36  25753104.983   135333664.8551        604.354          44.000    25753109.017   103697276.2631        463.329          48.000  
R17  23423558.275   125344184.9801      -3009.192          47.000    23423551.340    97490189.9821      -2340.590          42.000  
R02  22926468.975   122340049.2061      -1952.468          47.000    22926466.175    95153388.1421      -1518.480          45.000  
R09  21645006.907   115583107.8071       1048.077          48.000    21645002.550    89897945.7961        815.278          47.000  
G27  22851979.701   120088039.4151       1627.640          47.000    22851976.642    93575153.2261       1268.269          44.000  
E12  26316673.797   138295176.7041      -2752.894          40.000    26316671.598   105966491.1431      -2109.174          42.000  
E14  28766578.978   151169402.2931      -1166.341          39.000    28766579.729   115831102.3851       -893.650          46.000  
E24  24742376.649   130022098.9781      -2880.240          47.000    24742376.830    99627332.1101      -2206.902          50.000  
E25  23846469.467   125314094.9861       -225.101          45.000    23846471.481    96019906.4651       -172.342          50.000  
E31  28610555.173   150349380.7221      -3760.927          34.000    28610563.894   115202741.4681      -2881.347          36.000  
E10  24655169.499   129564084.0791      -2203.939          47.000    24655169.354    99276506.4021      -1688.641          48.000  
G10  21066459.013   110705109.1691       1766.411          48.000    21066456.768    86263810.3821       1376.459          47.000  
G18  22630802.263   118925932.8101      -3235.314          46.000    22630797.892    92669645.6381      -2520.782          44.000  
G08  25487725.940   133938904.2671       2056.873          39.000    25487726.285   104367973.5251       1602.885          40.000  
E11  22967254.724   120693929.4101      -1207.268          42.000    22967252.053    92479875.4711       -925.038          46.000  
G26  20615673.667   108336123.1491      -1959.853          48.000    20615671.076    84417758.8191      -1527.212          44.000  
> 2024 06 08 03 24 30.5000000  0 30                     
G23  20582897.125   108163991.400        -919.642          46.000    20582892.468    84283706.102        -716.763          46.000  
E04  28112500.840   147732234.482        1356.851          40.000                                                                  
G16  21414779.187   112535438.136        1084.690          45.000                                                                  
R04  23229812.989   124394641.367        3182.095          48.000    23229809.430    96751366.549        2475.029          44.000  
R15  23107430.372   123479088.332       -5123.455          46.000    23107433.511    96039238.423       -3984.958          41.000  
R19  21114191.014   112946739.714        -175.156          40.000    21114187.303    87847655.215        -136.257          46.000  
R18  20854264.569   111321486.587       -1821.173          49.000    20854262.033    86583604.484       -1416.510          46.000  
R03  21645148.476   115868250.912        1330.228          48.000    21645142.794    90119766.107        1034.553          46.000  
R16  20390772.196   108923847.880       -2944.356          50.000    20390770.513    84718520.662       -2289.924          47.000  
G29  24794757.314   130297350.604       -3018.709          41.000    24794754.231   101530389.824       -2352.375          38.000  
E02  27201070.837   142942594.087        1800.681          41.000    27201071.416   109527432.539        1379.558          43.000  
S31  38801539.254   203903486.207        -746.944          45.000  
S33  39795387.835   209126244.324        -746.465          38.000  
G31  24553751.002   129030662.379       -3264.038          44.000    24553755.487   100543494.230       -2543.604          41.000  
E36  25750185.121   135318319.687         598.615          44.000    25750188.909   103685518.362         458.695          48.000  
R17  23437894.478   125420900.518       -3008.254          47.000    23437887.715    97549857.598       -2339.865          42.000  
R02  22935847.643   122390094.565       -1973.473          48.000    22935844.508    95192312.293       -1534.768          44.000  
R09  21640048.803   115556633.665        1027.608          49.000    21640044.933    89877354.763         799.206          47.000  
G27  22844082.864   120046540.007        1626.591          47.000    22844079.546    93542816.056        1267.486          44.000  
E12  26330031.411   138365370.815       -2752.872          41.000    26330029.193   106020276.260       -2109.476          43.000  
E14  28772224.919   151199072.589       -1161.175          39.000    28772225.687   115853836.762        -889.691          45.000  
E24  24756373.014   130095651.827       -2889.247          47.000    24756373.403    99683690.767       -2213.734          50.000  
E25  23847588.878   125319976.602        -236.918          45.000    23847590.482    96024413.178        -181.570          49.000  
E31  28628805.727   150445289.350       -3761.455          34.000    28628814.375   115276230.105       -2882.644          35.000  
E10  24665868.772   129620310.056       -2206.409          47.000    24665868.866    99319588.627       -1690.714          48.000  
G10  21057922.513   110660247.292        1751.848          49.000    21057919.426    86228853.124        1365.088          47.000  
G18  22646505.908   119008452.778       -3237.639          46.000    22646500.872    92733946.917       -2522.758          45.000  
G08  25477736.691   133886410.963        2059.505          39.000    25477737.903   104327069.667        1604.672          41.000  
E11  22973124.030   120724771.741       -1212.154          42.000    22973120.828    92503507.932        -928.983          46.000  
G26  20625222.314   108386303.422       -1976.374          47.000    20625220.356    84456860.307       -1539.967          45.000  
> 2024 06 08 03 25 00.5000000  0 30                     
G23  20588210.882   108191919.365        -942.254          46.000    20588207.176    84305468.197        -734.278          46.000  
E04  28104759.175   147691553.345        1354.986          40.000                                                                  
G16  21408635.057   112503150.591        1067.183          46.000                                                                  
R04  23211990.773   124299208.006        3180.013          47.000    23211988.626    96677140.990        2473.265          45.000  
R15  23136203.052   123632837.161       -5126.871          45.000    23136205.731    96158820.762       -3987.702          41.000  
R19  21115192.164   112952095.449        -182.086          40.000    21115188.712    87851820.772        -141.597          46.000  
R18  20864510.159   111376178.195       -1825.165          49.000    20864507.539    86626142.410       -1419.690          46.000  
R03  21637753.173   115828663.839        1308.636          47.000    21637746.908    90088976.202        1018.038          45.000  
R16  20407375.647   109012536.286       -2968.459          51.000    20407372.557    84787500.525       -2308.710          47.000  
G29  24812006.957   130387998.816       -3024.909          41.000    24812003.932   101601024.747       -2356.972          38.000  
E02  27190810.813   142888680.477        1793.227          41.000    27190811.784   109486122.126        1374.039          43.000  
S31  38805807.844   203925919.432        -748.886          45.000  
S33  39799653.857   209148662.346        -748.040          38.000  
G31  24572385.696   129128586.941       -3264.482          44.000    24572389.565   100619799.101       -2544.081          39.000  
E36  25746789.622   135300477.185         590.688          44.000    25746793.263   103671846.925         452.567          48.000  
R17  23454757.116   125511137.363       -3007.867          46.000    23454751.129    97620041.792       -2339.546          42.000  
R02  22947013.214   122449677.988       -1999.112          47.000    22947010.840    95238654.937       -1554.729          45.000  
R09  21634344.414   115526177.074        1002.476          47.000    21634342.594    89853666.270         779.801          48.000  
G27  22834800.812   119997765.796        1624.607          46.000    22834798.346    93504810.213        1266.061          44.000  
E12  26345750.770   138447975.627       -2754.112          41.000    26345748.399   106083570.856       -2110.235          43.000  
E14  28778838.914   151233832.016       -1156.384          39.000    28778840.163   115880470.595        -885.897          45.000  
E24  24772898.877   130182495.550       -2900.802          47.000    24772899.250    99750233.336       -2222.534          50.000  
E25  23848984.180   125327305.383        -251.915          46.000    23848985.115    96030028.757        -193.016          49.000  
E31  28650285.205   150558172.908       -3764.521          33.000    28650295.477   115362725.471       -2883.765          36.000  
E10  24678475.299   129686559.333       -2210.310          46.000    24678475.699    99370351.045       -1693.601          48.000  
G10  21047973.017   110607963.508        1733.580          49.000    21047970.488    86188112.600        1350.724          47.000  
G18  22664998.295   119105632.061       -3241.419          46.000    22664993.980    92809671.038       -2525.592          44.000  
G08  25465974.124   133824593.939        2061.464          38.000    25465973.938   104278900.616        1606.214          41.000  
E11  22980063.448   120761239.437       -1219.211          42.000    22980060.177    92531450.720        -934.135          46.000  
G26  20636562.270   108445897.723       -1996.786          47.000    20636560.852    84503297.416       -1555.811          44.000  
> 2024 06 08 03 25 30.5000000  0 30                     
G23  20593655.891   108220533.277        -965.424          45.000    20593651.713    84327764.789        -752.492          45.000  
E04  28097029.570   147650936.302        1352.532          40.000                                                                  
G16  21402594.102   112471405.865        1048.802          46.000                                                                  
R04  23194182.910   124203849.606        3177.088          46.000    23194181.530    96602973.717        2471.052          46.000  
R15  23164995.554   123786696.593       -5130.683          45.000    23164998.572    96278489.147       -3990.552          41.000  
R19  21116233.223   112957660.596        -189.092          41.000    21116228.481    87856149.217        -147.095          45.000  
R18  20874779.756   111430998.118       -1829.663          49.000    20874776.577    86668780.153       -1423.206          46.000  
R03  21630480.565   115789729.756        1286.539          47.000    21630472.983    90058694.206        1000.633          46.000  
R16  20424116.155   109101954.539       -2993.012          52.000    20424111.585    84857048.021       -2327.992          47.000  
G29  24829294.276   130478844.331       -3031.810          40.000    24829291.388   101671813.424       -2362.226          39.000  
E02  27180595.089   142834993.511        1785.626          42.000    27180595.513   109444985.387        1367.929          43.000  
S31  38810088.938   203948415.280        -751.253          45.000  
S33  39803932.107   209171143.494        -750.592          38.000  
G31  24591023.259   129226527.500       -3265.299          44.000    24591026.617   100696116.498       -2544.372          38.000  
E36  25743440.928   135282878.972         582.193          44.000    25743444.134   103658362.642         446.144          47.000  
R17  23471619.712   125601373.682       -3008.093          45.000    23471613.696    97690225.582       -2339.834          41.000  
R02  22958325.749   122510041.333       -2025.359          48.000    22958322.998    95285604.213       -1575.250          45.000  
R09  21628784.609   115496484.766         976.597          48.000    21628782.069    89830572.252         759.734          47.000  
G27  22825531.994   119949062.277        1622.017          46.000    22825530.675    93466859.446        1263.897          44.000  
E12  26361477.467   138530622.182       -2755.816          41.000    26361475.246   106146897.428       -2111.640          43.000  
E14  28785426.250   151268450.402       -1151.524          39.000    28785427.616   115906996.377        -882.525          45.000  
E24  24789491.972   130269691.350       -2912.639          47.000    24789492.103    99817045.680       -2231.805          49.000  
E25  23850466.355   125335094.360        -267.578          46.000    23850467.117    96035996.950        -205.110          49.000  
E31  28671779.448   150671125.851       -3766.650          33.000    28671788.925   115449274.086       -2886.274          35.000  
E10  24691105.965   129752933.927       -2214.833          46.000    24691106.248    99421209.514       -1697.035          48.000  
G10  21038129.659   110556234.207        1714.808          49.000    21038126.779    86147804.126        1336.103          46.000  
G18  22683513.639   119202931.870       -3245.464          46.000    22683508.998    92885489.087       -2529.247          44.000  
G08  25454201.975   133762729.402        2062.489          38.000    25454201.455   104230694.575        1607.206          40.000  
E11  22987044.069   120797920.544       -1226.487          42.000    22987040.583    92559557.027        -939.982          46.000  
G26  20648020.208   108506111.843       -2017.707          47.000    20648019.366    84550217.505       -1572.106          44.000  
> 2024 06 08 03 26 00.0000000  0 30                     
G23  20599140.311   108249353.768        -988.778          45.000    20599135.623    84350222.316        -770.460          46.000  
E04  28089444.397   147611075.643        1349.804          39.000                                                                  
G16  21396758.033   112440736.734        1030.027          47.000                                                                  
R04  23176689.041   124110173.191        3173.708          48.000    23176687.686    96530114.675        2468.241          45.000  
R15  23193331.248   123938111.102       -5134.844          46.000    23193333.336    96396255.929       -3993.880          41.000  
R19  21117297.638   112963351.639        -196.851          42.000    21117292.119    87860575.623        -153.084          45.000  
R18  20884904.103   111485044.059       -1834.735          50.000    20884902.361    86710815.880       -1426.990          47.000  
R03  21623451.534   115752100.559        1264.279          48.000    21623444.035    90029427.126         983.268          46.000  
R16  20440711.459   109190605.814       -3017.580          53.000    20440707.188    84925998.964       -2346.777          46.000  
G29  24846333.000   130568383.334       -3038.807          40.000    24846329.983   101741584.078       -2368.415          39.000  
E02  27170594.743   142782439.060        1777.288          42.000    27170594.806   109404716.411        1361.780          44.000  
S31  38814313.119   203970613.298        -754.282          45.000  
S33  39808153.152   209193326.691        -753.459          38.000  
G31  24609354.657   129322863.864       -3266.369          42.000    24609359.450   100771183.842       -2545.210          41.000  
E36  25740196.088   135265826.794         573.406          44.000    25740199.116   103645296.747         439.347          47.000  
R17  23488204.126   125690121.042       -3008.912          46.000    23488197.971    97759251.273       -2340.086          42.000  
R02  22969594.321   122570173.676       -2051.713          49.000    22969591.763    95332373.816       -1595.779          45.000  
R09  21623460.174   115468050.269         950.693          49.000    21623455.894    89808456.519         739.573          46.000  
G27  22816434.266   119901255.512        1618.695          45.000    22816433.035    93429607.443        1261.418          44.000  
E12  26376953.319   138611946.276       -2757.771          41.000    26376950.745   106209210.699       -2113.156          43.000  
E14  28791881.727   151302370.221       -1147.930          39.000    28791882.289   115932986.880        -879.723          45.000  
E24  24805876.691   130355791.023       -2924.826          47.000    24805875.921    99883018.143       -2241.151          49.000  
E25  23852011.929   125343218.026        -283.518          46.000    23852012.874    96042221.580        -217.261          49.000  
E31  28692931.078   150782277.568       -3769.533          33.000    28692940.182   115534442.482       -2888.467          34.000  
E10  24703551.981   129818338.394       -2219.522          46.000    24703552.221    99471324.659       -1700.856          48.000  
G10  21028556.144   110505925.273        1695.689          49.000    21028553.280    86108602.429        1321.261          47.000  
G18  22701745.491   119298741.174       -3250.263          46.000    22701740.861    92960145.681       -2532.653          44.000  
G08  25442619.838   133701865.123        2063.277          39.000    25442618.747   104183267.951        1607.945          40.000  
E11  22993950.120   120834212.366       -1234.134          43.000    22993946.749    92587365.063        -945.635          46.000  
G26  20659405.244   108565940.602       -2038.715          48.000    20659404.415    84596837.324       -1588.722          45.000  
> 2024 06 08 03 26 30.0000000  0 30                     
G23  20604853.558   108279378.113       -1013.137          45.000    20604849.437    84373617.924        -789.436          46.000  
E04  28081750.122   147570643.024        1345.516          39.000                                                                  
G16  21390933.508   112410126.628        1010.353          47.000                                                                  
R04  23158921.332   124015028.555        3168.952          47.000    23158919.890    96456113.657        2464.985          46.000  
R15  23222172.601   124092230.399       -5139.844          44.000    23222174.639    96516126.403       -3997.809          41.000  
R19  21118424.238   112969381.544        -205.228          40.000    21118419.750    87865265.562        -159.692          45.000  
R18  20895229.897   111540168.548       -1840.460          48.000    20895228.904    86753690.467       -1431.488          47.000  
R03  21616432.221   115714525.340        1240.604          47.000    21616424.358    90000202.017         964.998          46.000  
R16  20457728.432   109281513.297       -3043.129          50.000    20457724.697    84996704.751       -2366.890          46.000  
G29  24863704.774   130659672.195       -3047.498          40.000    24863701.212   101812718.218       -2374.690          39.000  
E02  27160474.896   142729258.147        1767.867          42.000    27160474.727   109363967.419        1354.609          44.000  
S31  38818627.795   203993286.615        -757.862          45.000  
S33  39812464.998   209215984.086        -757.353          38.000  
G31  24628005.661   129420879.826       -3268.294          41.000    24628010.879   100847559.880       -2546.737          40.000  
E36  25736948.974   135248762.968         563.826          44.000    25736952.052   103632221.949         431.980          48.000  
R17  23505076.799   125780409.729       -3010.566          45.000    23505070.554    97829475.795       -2341.682          41.000  
R02  22981205.496   122632132.833       -2079.132          48.000    22981202.936    95380564.302       -1617.057          46.000  
R09  21618193.795   115439932.870         923.507          47.000    21618190.714    89786587.436         718.221          46.000  
G27  22807203.913   119852746.807        1614.866          45.000    22807201.385    93391808.449        1258.418          43.000  
E12  26392705.869   138694724.761       -2760.983          42.000    26392703.007   106272638.345       -2115.457          43.000  
E14  28798426.652   151336762.834       -1145.344          40.000    28798427.068   115959339.652        -877.572          45.000  
E24  24822611.575   130443732.819       -2938.176          47.000    24822610.779    99950402.095       -2251.331          49.000  
E25  23853678.058   125351973.285        -300.548          46.000    23853678.746    96048930.154        -230.301          49.000  
E31  28714458.537   150895415.259       -3773.311          33.000    28714469.367   115621132.656       -2891.155          36.000  
E10  24716239.447   129885009.575       -2225.460          46.000    24716239.399    99522410.358       -1705.097          48.000  
G10  21018932.614   110455354.632        1675.383          48.000    21018930.283    86069196.793        1305.455          47.000  
G18  22720315.034   119396327.116       -3255.839          45.000    22720311.298    93036186.643       -2536.857          44.000  
G08  25430839.378   133639959.116        2063.182          39.000    25430838.287   104135029.577        1607.916          39.000  
E11  23001020.364   120871364.816       -1242.631          43.000    23001017.139    92615832.545        -952.284          47.000  
G26  20671107.205   108627431.605       -2060.866          48.000    20671106.080    84644752.375       -1606.008          45.000  
> 2024 06 08 03 27 00.0000000  0 30                     
G23  20610708.407   108310143.366       -1038.197          46.000    20610704.002    84397590.866        -809.146          46.000  
E04  28074079.993   147530336.842        1340.916          39.000                                                                  
G16  21385223.802   112380122.238         989.578          47.000                                                                  
R04  23141180.232   123920029.331        3163.605          47.000    23141179.526    96382225.737        2460.693          46.000  
R15  23251042.997   124246505.859       -5145.552          43.000    23251044.986    96636118.332       -4001.877          41.000  
R19  21119600.344   112975674.882        -214.731          40.000    21119596.373    87870160.351        -166.925          46.000  
R18  20905590.917   111595476.524       -1847.009          48.000    20905589.381    86796707.773       -1436.584          46.000  
R03  21609546.754   115677672.135        1215.833          46.000    21609539.564    89971538.454         945.759          46.000  
R16  20474891.078   109373197.178       -3069.453          50.000    20474888.854    85068014.406       -2387.250          47.000  
G29  24881124.952   130751214.760       -3055.628          40.000    24881121.169   101884050.022       -2381.368          38.000  
E02  27150409.880   142676365.466        1757.789          42.000    27150409.863   109323439.269        1346.936          44.000  
S31  38822964.934   204016079.219        -762.041          45.000  
S33  39816798.989   209238762.095        -761.693          38.000  
G31  24646670.469   129518959.644       -3270.654          42.000    24646674.041   100923985.747       -2548.492          40.000  
E36  25733758.974   135231998.358         553.493          44.000    25733761.804   103619376.417         424.051          48.000  
R17  23521960.922   125870756.294       -3012.891          45.000    23521954.349    97899745.322       -2343.305          41.000  
R02  22992972.781   122694925.940       -2107.395          48.000    22992969.907    95429403.379       -1639.185          46.000  
R09  21613084.736   115412643.288         895.341          48.000    21613081.085    89765362.187         696.288          47.000  
G27  22797998.473   119804368.459        1610.084          46.000    22797994.798    93354111.073        1254.478          43.000  
E12  26408476.266   138777599.047       -2764.421          42.000    26408473.763   106336139.393       -2118.210          44.000  
E14  28804955.985   151371073.159       -1142.473          40.000    28804956.179   115985629.362        -875.513          45.000  
E24  24839423.151   130532079.366       -2951.973          47.000    24839422.695   100018096.185       -2261.938          49.000  
E25  23855442.952   125361247.329        -318.178          46.000    23855443.563    96056036.245        -243.861          49.000  
E10  24728960.576   129951859.168       -2231.680          46.000    24728960.375    99573632.773       -1710.017          48.000  
G10  21009426.460   110405402.474        1654.294          48.000    21009424.255    86030273.099        1288.917          46.000  
G18  22738917.985   119494085.686       -3261.655          45.000    22738913.924    93112362.137       -2541.727          44.000  
G08  25419060.947   133578063.345        2062.760          40.000    25419060.584   104086799.188        1607.181          39.000  
E11  23008140.856   120908783.736       -1252.113          43.000    23008137.857    92644504.185        -959.372          47.000  
G26  20682937.082   108689594.888       -2083.668          49.000    20682934.950    84693191.256       -1623.486          44.000  
E31                                                                  28736021.252   115707915.894       -2894.651          28.000  
> 2024 06 08 03 27 30.5000000  0 30                     
G23  20616809.070   108342202.081       -1064.288          46.000    20616804.573    84422571.689        -829.347          46.000  
E04  28066310.993   147489512.318        1335.535          38.000                                                                  
G16  21379541.977   112350262.850         967.999          47.000                                                                  
R04  23123174.896   123823622.289        3157.510          45.000    23123175.289    96307242.825        2456.018          45.000  
R15  23280427.595   124403530.371       -5151.595          44.000    23280429.839    96758248.429       -4006.828          41.000  
R19  21120851.424   112982364.163        -224.252          40.000    21120846.422    87875363.154        -174.610          44.000  
R18  20916164.516   111651915.871       -1854.278          48.000    20916161.805    86840605.072       -1442.236          46.000  
R03  21602690.580   115640970.475        1190.192          47.000    21602683.639    89942992.753         925.754          46.000  
R16  20492493.939   109467223.623       -3096.583          51.000    20492491.400    85141146.052       -2408.615          48.000  
G29  24898888.792   130844566.002       -3065.999          40.000    24898885.456   101956791.180       -2388.969          39.000  
E02  27140237.811   142622910.218        1747.141          42.000    27140237.796   109282480.082        1338.650          44.000  
S31  38827402.004   204039396.659        -767.303          45.000  
S33  39821233.448   209262063.574        -766.570          38.000  
G31  24665661.718   129618758.947       -3273.778          44.000    24665664.789   101001751.477       -2551.235          39.000  
E36  25730577.412   135215282.336         542.345          44.000    25730580.787   103606568.147         415.499          48.000  
R17  23539141.241   125962690.347       -3015.801          44.000    23539134.410    97971249.599       -2345.567          42.000  
R02  23005100.424   122759641.223       -2136.625          48.000    23005097.530    95479737.487       -1661.912          46.000  
R09  21608052.653   115385771.949         866.213          48.000    21608049.002    89744462.228         673.752          47.000  
G27  22788668.477   119755340.363        1604.544          46.000    22788664.548    93315907.407        1250.519          42.000  
E12  26424532.564   138861973.904       -2768.732          42.000    26424529.623   106400790.249       -2121.511          43.000  
E14  28811582.608   151405893.737       -1140.992          40.000    28811582.049   116012310.046        -874.219          45.000  
E24  24856596.796   130622333.741       -2966.698          46.000    24856597.487   100087252.118       -2273.184          49.000  
E25  23857343.002   125371230.274        -336.807          46.000    23857343.289    96063685.511        -258.048          49.000  
E10  24741932.775   130020026.460       -2238.600          47.000    24741932.212    99625864.843       -1715.388          48.000  
G10  20999887.477   110355276.094        1632.051          47.000    20999885.013    85991213.628        1271.729          46.000  
G18  22757868.368   119593670.828       -3268.725          45.000    22757864.252    93189960.916       -2546.823          44.000  
G08  25407091.856   133515168.837        2061.292          40.000    25407092.726   104037790.530        1606.237          39.000  
E11  23015435.708   120947120.041       -1262.007          43.000    23015433.024    92673878.773        -967.024          47.000  
G26  20695098.228   108753503.783       -2107.324          48.000    20695095.992    84742990.377       -1642.126          44.000  
E31                                                                  28757960.810                       -2879.052          17.000  
> 2024 06 08 03 28 00.5000000  0 30                     
G23  20622958.192   108374515.655       -1090.285          42.000    20622953.787    84447751.135        -849.297          44.000  
E04  28058701.634   147449523.012        1329.691          34.000    28058702.933   112980772.3661       1018.911          41.000  
G16  21374077.186   112321542.687         946.508          44.000                                                                  
R04  23105502.044   123728986.043        3151.931          39.000    23105502.379    96233637.193        2450.890          45.000  
R15  23309364.938   124558164.832       -5157.955          33.000    23309367.087    96878519.600       -4011.316          38.000  
R19  21122137.028   112989242.088        -235.035          31.000    21122131.775    87880712.619        -182.116          44.000  
R18  20926605.330   111707648.706       -1860.962          41.000    20926602.432    86883952.860       -1447.815          45.000  
R03  21596090.474   115605640.829        1165.338          41.000    21596084.184    89915514.157         905.971          46.000  
R16  20509960.835   109560519.608       -3122.981          46.000    20509956.518    85213709.553       -2429.217          47.000  
G29  24916417.564   130936677.931       -3075.089          36.000    24916413.932   102028566.696       -2396.250          37.000  
E02  27130294.915   142570659.818        1736.255          38.000    27130295.084   109242444.079        1330.316          43.000  
S31  38831795.933   204062485.826        -772.627          42.000  
S33  39825624.167   209285138.052        -772.079          34.000  
G31  24684359.292   129717015.728       -3277.063          41.000    24684361.894   101078315.297       -2553.364          37.000  
E36  25727512.668   135199175.399         531.203          41.000    25727515.854   103594226.553         407.078          46.000  
R17  23556056.279   126053211.380       -3018.680          39.000    23556050.595    98041654.790       -2348.189          40.000  
R02  23017192.503   122824168.797       -2164.713          40.000    23017190.025    95529925.602       -1684.337          45.000  
R09  21603265.787   115360214.896         837.830          41.000    21603262.644    89724584.526         651.225          46.000  
G27  22779523.066   119707284.131        1598.792          42.000    22779520.006    93278461.061        1245.941          42.000  
E12  26440350.095   138945095.203       -2773.221          38.000    26440347.015   106464480.611       -2125.025          42.000  
E14  28818091.125   151440096.648       -1139.456          36.000    28818090.721   116038517.462        -873.104          42.000  
E24  24873573.119   130711548.522       -2981.159          41.000    24873574.412   100155611.483       -2284.297          46.000  
E25  23859317.876   125381608.477        -355.345          43.000    23859318.492    96071637.655        -272.230          47.000  
E10  24754732.512   130087288.418       -2245.714          43.000    24754731.695    99677403.220       -1720.658          46.000  
G10  20990631.897   110306634.467        1610.218          44.000    20990629.406    85953311.120        1254.768          44.000  
G18  22776547.615   119691829.074       -3275.704          43.000    22776543.608    93266447.875       -2552.532          42.000  
G08  25395328.431   133453351.103        2059.698          35.000    25395328.029   103989620.831        1605.752          36.000  
E11  23022668.472   120985128.623       -1272.094          39.000    23022665.789    92703002.237        -974.725          45.000  
G26  20707195.093   108817074.453       -2130.774          44.000    20707192.694    84792525.942       -1660.126          42.000  
E31                                                                  28779575.419                       -2897.424          14.000  
> 2024 06 08 03 28 30.5000000  0 29                     
G23  20629255.367   108407610.031       -1116.506          45.000    20629251.136    84473539.000        -869.824          46.000  
E04  28051124.764   147409707.754        1324.002          38.000    28051126.101   112950264.841        1014.592          43.000  
G16  21368736.203   112293476.696         924.331          48.000                                                                  
R04  23087866.855   123634550.563        3144.200          47.000    23087866.655    96160187.712        2445.552          46.000  
R15  23338337.397   124712985.536       -5163.971          45.000    23338339.881    96998935.657       -4016.033          40.000  
R19  21123479.605   112996422.210        -244.781          41.000    21123473.623    87886297.219        -190.181          44.000  
R18  20937088.102   111763605.337       -1869.134          48.000    20937085.641    86927474.700       -1453.796          47.000  
R03  21589635.325   115571087.179        1138.636          46.000    21589629.689    89888639.155         885.454          47.000  
R16  20527577.510   109654623.763       -3150.397          52.000    20527572.840    85286901.651       -2450.435          47.000  
G29  24934002.323   131029086.169       -3085.592          41.000    24933998.430   102100573.053       -2404.131          39.000  
E02  27120414.891   142518744.468        1724.535          42.000    27120415.808   109202664.791        1321.603          45.000  
S31  38836220.345   204085737.296        -777.961          45.000  
S33  39830045.862   209308373.758        -777.718          38.000  
G31  24703074.438   129815370.039       -3280.225          43.000    24703078.150   101154955.027       -2555.861          40.000  
E36  25724511.836   135183407.792         519.741          44.000    25724515.209   103582144.990         398.315          48.000  
R17  23572992.239   126143833.799       -3022.619          44.000    23572984.248    98112138.896       -2350.527          40.000  
R02  23029449.161   122889568.445       -2194.890          48.000    23029446.156    95580791.977       -1706.964          46.000  
R09  21598643.661   115335534.040         807.801          48.000    21598641.009    89705388.289         628.323          48.000  
G27  22770411.357   119659403.273        1592.884          45.000    22770409.266    93241151.317        1241.288          44.000  
E12  26456193.273   139028351.816       -2777.589          42.000    26456190.230   106528274.658       -2128.255          43.000  
E14  28824592.569   151474261.292       -1138.479          40.000    28824592.217   116064695.559        -872.282          45.000  
E24  24890634.859   130801205.824       -2996.055          45.000    24890635.572   100224309.923       -2295.650          48.000  
E25  23861399.167   125392549.175        -374.370          46.000    23861400.517    96080020.785        -286.772          50.000  
E10  24767572.827   130154767.187       -2253.029          47.000    24767572.386    99729107.749       -1726.424          48.000  
G10  20981502.652   110258660.330        1587.769          48.000    20981499.928    85915928.757        1237.177          46.000  
G18  22795266.420   119790197.307       -3282.607          46.000    22795262.265    93343098.433       -2557.999          44.000  
G08  25383575.208   133391586.721        2057.493          39.000    25383574.351   103941492.770        1602.987          39.000  
E11  23029959.348   121023441.811       -1282.189          44.000    23029956.192    92732359.113        -982.542          47.000  
G26  20719426.763   108881354.788       -2154.706          47.000    20719424.628    84842614.522       -1679.022          43.000  
> 2024 06 08 03 29 00.0000000  0 29                     
G23  20635593.489   108440917.888       -1142.096          45.000    20635589.500    84499493.225        -890.096          46.000  
E04  28043707.607   147370732.097        1318.001          38.000    28043708.810   112920400.650        1009.645          42.000  
G16  21363606.768   112266522.641         902.682          48.000                                                                  
R04  23070564.197   123541893.420        3137.275          47.000    23070563.188    96088121.355        2440.238          45.000  
R15  23366860.555   124865408.351       -5169.954          43.000    23366863.276    97117486.695       -4021.170          40.000  
R19  21124855.238   113003780.729        -254.686          40.000    21124849.904    87892020.521        -197.875          45.000  
R18  20947436.885   111818851.351       -1876.624          48.000    20947435.370    86970443.824       -1459.552          47.000  
R03  21583429.892   115537873.384        1112.908          46.000    21583424.757    89862806.258         865.526          46.000  
R16  20545047.571   109747948.334       -3176.788          51.000    20545043.332    85359487.370       -2470.825          47.000  
G29  24951349.960   131120247.520       -3095.438          41.000    24951346.179   102171607.843       -2411.972          40.000  
E02  27110763.945   142468027.017        1713.613          41.000    27110764.799   109163803.389        1312.899          45.000  
S31  38840601.858   204108762.442        -783.247          45.000  
S33  39834424.732   209331383.920        -782.772          39.000  
G31  24721497.243   129912181.312       -3283.352          44.000    24721500.402   101230392.467       -2558.614          39.000  
E36  25721625.026   135168237.608         508.398          44.000    25721628.244   103570521.175         389.648          47.000  
R17  23589664.238   126233049.245       -3025.999          45.000    23589657.025    98181528.696       -2353.700          41.000  
R02  23041660.453   122954731.837       -2223.527          48.000    23041658.092    95631474.613       -1729.379          46.000  
R09  21594260.760   115312125.276         778.947          49.000    21594257.418    89687181.473         605.958          48.000  
G27  22761486.103   119612496.869        1586.915          45.000    22761483.544    93204600.886        1236.563          44.000  
E12  26471798.634   139110356.280       -2782.234          42.000    26471795.176   106591109.244       -2131.858          42.000  
E14  28830979.242   151507824.380       -1137.014          40.000    28830979.097   116090412.728        -871.291          45.000  
E24  24907494.718   130889803.439       -3010.752          46.000    24907495.147   100292196.397       -2306.988          47.000  
E25  23863552.162   125403860.944        -392.910          46.000    23863553.194    96088688.250        -301.005          49.000  
E10  24780240.181   130221335.989       -2260.378          46.000    24780240.042    99780115.011       -1731.808          47.000  
G10  20972651.542   110212143.327        1565.747          48.000    20972647.577    85879681.821        1220.026          46.000  
G18  22813713.044   119887133.809       -3289.447          46.000    22813708.314    93418633.401       -2563.393          45.000  
G08  25372028.390   133330908.519        2056.123          40.000    25372027.245   103894211.056        1601.865          38.000  
E11  23037185.947   121061416.755       -1292.627          44.000    23037182.522    92761456.811        -990.404          46.000  
G26  20731587.344   108945258.721       -2178.009          47.000    20731584.960    84892409.762       -1696.973          43.000  
> 2024 06 08 03 29 30.0000000  0 29                     
G23  20642187.510   108475569.303       -1167.931          45.000    20642183.520    84526494.340        -910.231          46.000  
E04  28036199.509   147331278.476        1312.258          39.000    28036200.975   112890170.240        1005.383          42.000  
G16  21358515.756   112239770.755         880.852          47.000                                                                  
R04  23053008.198   123447879.795        3130.307          47.000    23053006.350    96014999.951        2434.582          45.000  
R15  23395902.838   125020597.429       -5175.903          44.000    23395904.516    97238189.261       -4025.887          41.000  
R19  21126310.447   113011513.6101       -264.708          40.000    21126305.353    87898076.990        -205.741          45.000  
R18  20958004.345   111875260.637       -1884.082          49.000    20958002.958    87014317.689       -1465.216          47.000  
R03  21577266.156   115504878.858        1086.884          46.000    21577260.692    89837143.913         845.286          46.000  
R16  20562963.318   109843655.066       -3203.504          51.000    20562959.229    85433925.898       -2491.467          47.000  
G29  24969048.593   131213254.236       -3105.224          41.000    24969045.204   102244080.573       -2419.421          39.000  
E02  27101014.080   142416791.683        1702.082          41.000    27101015.225   109124545.157        1304.307          45.000  
S31  38845089.236   204132343.518        -788.751          45.000  
S33  39838909.142   209354949.874        -788.696          39.000  
G31  24740250.001   130010730.908       -3286.438          43.000    24740253.646   101307184.415       -2560.819          38.000  
E36  25718753.872   135153151.806         497.318          44.000    25718757.517   103558962.018         381.019          47.000  
R17  23606638.500   126323884.130       -3029.503          44.000    23606632.217    98252178.020       -2356.206          41.000  
R02  23054241.727   123021868.350       -2252.451          47.000    23054239.099    95683691.895       -1751.808          46.000  
R09  21589967.212   115289198.635         749.601          48.000    21589963.638    89669349.650         583.076          47.000  
G27  22752443.798   119564977.678        1581.033          46.000    22752441.566    93167573.002        1231.980          45.000  
E12  26487693.995   139193889.438       -2786.633          42.000    26487691.107   106655115.140       -2134.885          43.000  
E14  28837468.393   151541926.141       -1136.126          40.000    28837468.627   116116542.645        -870.591          45.000  
E24  24924724.564   130980345.049       -3025.333          46.000    24924724.702   100361572.430       -2318.169          48.000  
E25  23865849.011   125415929.586        -411.600          46.000    23865849.928    96097935.660        -315.435          50.000  
E10  24793163.824   130289252.088       -2267.434          46.000    24793164.000    99832154.652       -1737.414          48.000  
G10  20963777.165   110165510.702        1543.243          48.000    20963773.273    85843344.815        1202.350          45.000  
G18  22832512.644   119985924.901       -3296.446          46.000    22832508.278    93495613.472       -2568.599          45.000  
G08  25360298.591   133269261.943        2054.136          39.000    25360296.683   103846174.816        1600.234          38.000  
E11  23044593.384   121100341.249       -1302.477          44.000    23044589.595    92791282.111        -998.020          46.000  
G26  20744088.385   109010952.725       -2201.624          48.000    20744085.750    84943599.900       -1715.668          42.000  
