     3.00           OBSERVATION DATA    M: Mixed            RINEX VERSION / TYPE
CONVBIN demo5 b34j                      20240609 013620 UTC PGM / RUN BY / DATE 
log: SAUC00CHL_R_20241602030_15M_30S_MO.ubx                 COMMENT             
format: u-blox UBX                                          COMMENT             
format: u-blox UBX                                          COMMENT             
log: SAUC00CHL_R_20241602030_15M_30S_MO.ubx                 COMMENT             
SAUC00CHL                                                   MARKER NAME         
                                                            MARKER NUMBER       
GEODETIC                                                    MARKER TYPE         
El Sauce            Obstech                                 OBSERVER / AGENCY   
UNKNOWN             UBLOX-ZED-F9P                           REC # / TYPE / VERS 
UNKNWOWN            TWIVSP6037L                             ANT # / TYPE        
  1813185.0000 -5195981.0000 -3216438.0000                  APPROX POSITION XYZ 
        0.0000        0.0000        0.0000                  ANTENNA: DELTA H/E/N
G    8 C1C L1C D1C S1C C2X L2X D2X S2X                      SYS / # / OBS TYPES 
R    8 C1C L1C D1C S1C C2C L2C D2C S2C                      SYS / # / OBS TYPES 
E    8 C1X L1X D1X S1X C7X L7X D7X S7X                      SYS / # / OBS TYPES 
S    4 C1C L1C D1C S1C                                      SYS / # / OBS TYPES 
  2024    06    08    20    39   54.4890000     GPS         TIME OF FIRST OBS   
  2024    06    08    20    44   30.4890000     GPS         TIME OF LAST OBS    
                                                            END OF HEADER       
> 2024 06 08 20 39 54.4890000  0 29                     
G11  20036946.559   105295099.2851       1459.469          47.000    20036947.834    82048251.4951       1137.571          43.000  
G12  17936278.576    94256029.7521       -501.426          48.000    17936275.039    73446810.0551       -390.996          43.000  
E34  23983499.751   126034172.0631      -1005.025          43.000    23983504.165    96571662.8121       -769.993          47.000  
R13  18572038.809    99173639.6951      -2262.874          36.000    18572038.923    77135339.5381      -1759.964          39.000  
R17  19556936.714   104653165.6891       3662.593          46.000    19556947.213    81396942.4031       2848.727          43.000  
R14  17142394.439    91378895.9821         25.641          50.000    17142393.194    71072675.7741         19.897          47.000  
R03  19632830.458   105095925.3891      -4703.790          49.000    19632840.466    81741200.0901      -3658.529          46.000  
R04  17943768.603    96088004.6141      -2774.377          50.000    17943767.166    74735114.4211      -2157.811          47.000  
G32  20844035.343   109536173.2421       1639.564          44.000    20844035.642    85352778.1741       1277.622          40.000  
G19  20174034.602   106015579.6471      -4061.060          44.000                                                                  
S31  35291538.677   185458202.9391       -737.061          46.000  
S33  36284915.504   190678504.6901       -738.009          41.000  
G06  19990911.973   105053146.5031       -210.774          45.000    19990911.625    81859723.6801       -164.372          39.000  
R23  18313822.861    97966777.9841      -2713.620          48.000                                                                  
R24  16927765.459    90520620.5311       1349.023          51.000    16927762.827    70405029.4831       1049.324          46.000  
R05  19182809.826   102543115.0791        519.451          47.000    19182809.754    79755739.6171        404.082          44.000  
R15  19664292.923   105080021.3051       1468.145          47.000    19664292.985    81728893.7491       1141.965          42.000  
G25  19101770.397   100380728.8541        726.637          42.000    19101774.132    78218876.4241        566.039          42.000  
E21  22264009.372   116998366.6321        383.913          44.000    22264015.401    89648257.5271        294.103          47.000  
G29  20640367.799   108465849.5031       2840.289          45.000    20640382.729    84518894.5481       2213.293          41.000  
G13  20965093.789   110172091.6401      -4529.338          41.000                                                                  
E19  22589719.877   118709810.9451        705.562          39.000    22589723.223    90959486.1251        540.910          41.000  
E07  22492135.035   118196904.7221      -3594.143          44.000    22492145.643    90566442.2781      -2753.740          46.000  
E15  22766986.958   119641463.0501       1102.843          41.000    22766994.142    91673591.5671        845.018          45.000  
E13  24098605.472   126639045.7321       2004.898          41.000    24098624.027    97035198.5111       1536.314          40.000  
G24  17056385.370    89632162.2571       -287.188          48.000    17056383.923    69843519.1641       -223.755          46.000  
G15  19411341.714   102007183.7331      -3744.344          44.000    19411349.318    79486139.5481      -2917.655          39.000  
E30  23189007.712   121859217.8971      -2408.263          42.000    23189010.926    93372754.7931      -1845.132          46.000  
E27  20638669.249   108457187.4191      -1209.278          50.000    20638671.639    83103712.4871       -926.484          53.000  
> 2024 06 08 20 40 00.4890000  0 29                     
G11  20035281.049   105286347.804        1457.325          46.000    20035282.282    82041432.231        1135.649          42.000  
G12  17936852.124    94259042.845        -502.922          47.000    17936848.446    73449157.923        -392.041          43.000  
E34  23984648.734   126040210.891       -1008.084          41.000    23984653.228    96576289.992        -772.520          45.000  
R13  18574582.041    99187231.6613      -2264.434          33.000    18574581.958    77145902.127       -1761.112          37.000  
R17  19552830.485   104631192.071        3661.732          42.000    19552840.933    81379851.960        2847.947          43.000  
R14  17142365.563    91378745.251          24.560          46.000    17142365.252    71072558.548          19.158          47.000  
R03  19638102.763   105124149.573       -4704.453          45.000    19638113.087    81763152.153       -3659.095          46.000  
R04  17946879.556    96104663.688       -2778.804          47.000    17946878.203    74748071.430       -2161.381          47.000  
G32  20842165.521   109526346.424        1636.078          44.000    20842165.476    85345120.929        1274.967          39.000  
G19  20178672.176   106039950.267       -4062.734          43.000                                                                  
S31  35292380.092   185462625.569        -737.394          44.000  
S33  36285758.025   190682933.208        -738.380          39.000  
G06  19991154.483   105054421.943        -214.423          43.000    19991154.468    81860717.556        -167.041          38.000  
R23  18316869.465    97983075.430       -2718.772          44.000                                                                  
R24  16926254.616    90512541.255        1343.959          47.000    16926251.710    70398745.632        1045.271          45.000  
R05  19182229.979   102540013.914         514.107          44.000    19182229.364    79753327.595         399.980          43.000  
R15  19662644.193   105071212.122        1468.089          43.000    19662644.152    81722042.214        1141.825          41.000  
G25  19100941.120   100376371.649         725.793          40.000    19100944.972    78215481.222         565.463          41.000  
E21  22263571.289   116996066.420         382.635          43.000    22263577.552    89646495.037         293.341          46.000  
G29  20637125.745   108448812.217        2838.586          43.000    20637140.332    84505618.842        2211.932          40.000  
G13  20970265.373   110199268.792       -4529.937          39.000                                                                  
E19  22588915.432   118705583.718         702.889          37.000    22588918.856    90956247.105         538.622          40.000  
E07  22496239.170   118218471.712       -3595.151          43.000    22496249.851    90582967.587       -2754.769          44.000  
E15  22765729.351   119634852.344        1100.566          40.000    22765736.143    91668526.264         843.294          44.000  
E13  24096315.961   126627014.217        2005.351          40.000    24096334.396    97025979.638        1536.537          39.000  
G24  17056715.021    89633894.669        -290.495          47.000    17056713.410    69844869.093        -226.242          46.000  
G15  19415617.836   102029653.848       -3745.800          43.000    19415625.326    79503648.644       -2918.852          39.000  
E30  23191757.259   121873666.610       -2408.111          42.000    23191760.334    93383825.894       -1845.343          44.000  
E27  20640050.061   108464444.611       -1210.054          49.000    20640052.553    83109273.204        -927.063          52.000  
> 2024 06 08 20 40 30.4890000  0 29                     
G11  20026990.715   105242782.755        1446.782          47.000    20026991.666    82007485.716        1127.319          42.000  
G12  17939744.187    94274239.480        -510.175          49.000    17939740.433    73460999.510        -397.519          43.000  
E34  23990449.041   126070689.972       -1023.894          43.000    23990453.196    96599644.143        -784.573          47.000  
R13  18587317.973    99255259.6871      -2270.394          37.000    18587318.709    77198801.529       -1765.815          39.000  
R17  19532312.000   104521398.106        3657.828          45.000    19532322.203    81294457.275        2844.815          43.000  
R14  17142240.999    91378088.033          19.263          50.000    17142244.512    71072047.390          14.855          49.000  
R03  19664476.596   105265325.578       -4707.387          49.000    19664485.663    81872955.339       -3661.310          45.000  
R04  17962509.219    96188362.610       -2801.180          50.000    17962508.767    74813170.360       -2178.725          47.000  
G32  20832871.787   109477505.667        1619.707          45.000    20832871.267    85307063.239        1262.054          40.000  
G19  20201888.131   106161952.427       -4070.936          44.000                                                                  
S31  35296595.088   185484775.833        -739.422          46.000  
S33  36289978.847   190705115.741        -740.892          41.000  
G06  19992432.841   105061140.572        -233.362          45.000    19992432.648    81865952.969        -181.710          39.000  
R23  18332189.975    98065029.375       -2744.782          48.000                                                                  
R24  16918784.522    90472593.837        1318.991          51.000    16918781.139    70367675.553        1025.733          46.000  
R05  19179417.398   102524979.265         488.007          48.000    19179416.113    79741633.900         379.337          44.000  
R15  19654403.974   105027183.171        1467.117          46.000    19654404.548    81687797.682        1141.139          44.000  
G25  19096812.725   100354684.880         720.137          41.000    19096817.896    78198582.572         561.018          42.000  
E21  22261398.597   116984652.363         378.007          43.000    22261405.330    89637749.310         289.562          47.000  
G29  20620940.943   108363766.818        2830.841          45.000    20620956.186    84439350.257        2205.664          40.000  
G13  20996130.946   110335194.251       -4532.068          41.000                                                                  
E19  22584941.094   118684703.557         688.892          38.000    22584945.450    90940248.061         527.654          41.000  
E07  22516779.709   118326414.613       -3601.190          44.000    22516791.070    90665676.792       -2759.363          46.000  
E15  22759476.967   119601990.849        1089.843          42.000    22759482.630    91643346.863         835.083          45.000  
E13  24084866.322   126566843.564        2006.070          43.000    24084883.918    96979875.191        1537.225          40.000  
G24  17058418.159    89642846.083        -306.504          48.000    17058416.681    69851844.260        -238.934          46.000  
G15  19437021.335   102142131.325       -3752.810          44.000    19437029.551    79591292.991       -2924.149          39.000  
E30  23205508.062   121945928.036       -2409.279          43.000    23205511.323    93439195.036       -1846.025          46.000  
E27  20646965.382   108500800.394       -1213.958          47.000    20646970.206    83137130.268        -930.120          52.000  
> 2024 06 08 20 41 00.4890000  0 29                     
G11  20018761.263   105199538.470        1436.111          45.000    20018762.045    81973789.134        1118.857          41.000  
G12  17942676.748    94289652.386        -517.358          47.000    17942673.337    73473009.644        -403.106          43.000  
E34  23996338.552   126101641.873       -1039.931          41.000    23996343.334    96623360.604        -796.813          46.000  
R17  19511815.512   104411728.472        3653.831          40.000    19511826.966    81209159.282        2841.301          42.000  
R14  17142150.413    91377590.834          13.429          48.000    17142151.831    71071660.714          10.692          50.000  
R03  19690865.746   105406588.230       -4710.358          43.000    19690876.091    81982825.891       -3663.601          46.000  
R04  17978262.707    96272728.960       -2823.631          46.000    17978263.298    74878788.403       -2196.030          46.000  
G32  20823671.204   109429153.368        1603.651          43.000    20823670.740    85269386.180        1249.030          40.000  
G19  20225150.945   106284198.837       -4078.763          41.000                                                                  
S31  35300822.392   185506990.512        -741.231          43.000  
S33  36294212.021   190727362.042        -742.394          39.000  
G06  19993819.062   105068427.196        -252.213          42.000    19993819.765    81871630.975        -196.749          40.000  
R23  18347654.858    98147756.804       -2770.568          43.000                                                                  
R24  16911454.189    90433395.876        1293.866          46.000    16911451.458    70337188.424        1006.436          47.000  
R05  19176751.991   102510728.741         461.486          45.000    19176751.148    79730550.094         359.242          45.000  
R15  19646169.059   104983178.899        1466.075          43.000    19646171.258    81653572.276        1140.452          45.000  
G25  19092717.829   100333161.077         714.213          40.000    19092722.013    78181810.883         556.825          42.000  
E21  22259254.068   116973380.952         373.663          42.000    22259259.975    89629112.906         285.839          46.000  
G29  20604801.784   108278956.484        2822.980          42.000    20604816.645    84373264.809        2199.835          41.000  
G13  21022008.452   110471182.237       -4534.153          39.000                                                                  
E19  22581048.489   118664248.707         674.489          36.000    22581052.989    90924574.901         516.706          40.000  
E07  22537354.877   118434533.901       -3606.995          42.000    22537365.721    90748521.106       -2763.684          45.000  
E15  22753284.134   119569448.934        1079.367          41.000    22753289.755    91618412.324         826.842          44.000  
E13  24073411.448   126506650.377        2006.719          41.000    24073428.863    96933753.498        1537.587          40.000  
G24  17060212.426    89652278.816        -322.459          45.000    17060211.451    69859194.465        -251.475          45.000  
G15  19458464.571   102254816.696       -3759.486          41.000    19458473.066    79679099.366       -2929.534          38.000  
E30  23219263.436   122018217.067       -2410.049          40.000    23219267.399    93494585.354       -1846.818          45.000  
E27  20653905.116   108537270.210       -1217.651          45.000    20653908.703    83165074.657        -933.050          49.000  
R13                                                                  18600090.385    77251844.481       -1770.597          38.000  
> 2024 06 08 20 41 30.4890000  0 29                     
G11  20010594.778   105156626.228        1424.411          46.000    20010595.433    81940351.311        1109.799          40.000  
G12  17945651.741    94305288.450        -525.375          49.000    17945648.356    73485193.669        -409.299          43.000  
E34  24002320.457   126133074.887       -1056.262          43.000    24002324.490    96647445.723        -809.280          47.000  
R13  18612896.184    99391814.2061      -2282.616          36.000    18612897.607    77305037.777       -1775.944          38.000  
R17  19491345.387   104302132.7351       3648.322          42.000    19491357.677    81123967.835        2837.739          44.000  
R14  17142089.714    91377261.972           7.596          52.000    17142089.587    71071405.008           5.955          49.000  
R03  19717270.858   105547941.970       -4713.792          47.000    19717282.051    82092767.357       -3666.022          44.000  
R04  17994143.001    96357767.199       -2846.200          49.000    17994143.616    74944929.030       -2213.736          46.000  
G32  20814564.279   109381299.817        1586.426          45.000    20814564.997    85232097.724        1236.081          41.000  
G19  20248461.400   106406695.207       -4087.906          43.000                                                                  
S31  35305063.051   185529276.241        -744.448          46.000  
S33  36298459.170   190749678.292        -745.680          41.000  
G06  19995315.821   105076291.508        -272.382          45.000    19995316.905    81877759.121        -212.261          41.000  
R23  18363265.213    98231087.0981      -2796.988          47.000                                                                  
R24  16904266.557    90394958.740        1267.987          51.000    16904264.373    70307293.081         986.281          48.000  
R05  19174234.471   102497271.818         434.755          48.000    19174234.413    79720083.580         337.954          46.000  
R15  19637940.201   104939207.813        1464.453          47.000    19637943.987    81619372.758        1139.222          46.000  
G25  19088655.399   100311807.799         708.452          43.000    19088657.759    78165172.090         551.995          42.000  
E21  22257138.923   116962259.837         367.871          45.000    22257143.351    89620591.619         281.788          46.000  
G29  20588709.550   108194391.276        2814.282          46.000    20588723.856    84307370.385        2192.822          41.000  
G13  21047898.964   110607238.125       -4536.815          41.000                                                                  
E19  22577238.914   118644228.557         659.770          37.000    22577243.383    90909234.809         505.503          41.000  
E07  22557965.315   118542835.860       -3613.630          44.000    22557975.521    90831505.400       -2768.722          46.000  
E15  22747154.127   119537236.800        1067.883          43.000    22747159.510    91593730.469         818.107          45.000  
E13  24061954.069   126446444.681        2006.578          43.000    24061971.914    96887622.235        1537.573          41.000  
G24  17062100.252    89662202.657        -339.526          46.000    17062099.803    69866927.364        -264.482          46.000  
G15  19479948.636   102367714.885       -3767.285          44.000    19479957.919    79767071.496       -2935.598          39.000  
E30  23233026.201   122090541.974       -2411.791          42.000    23233030.321    93550003.139       -1848.002          46.000  
E27  20660871.405   108573861.623       -1222.216          49.000    20660870.701    83193112.294        -936.410          49.000  
> 2024 06 08 20 42 00.4890000  0 29                     
G11  20002494.893   105114065.332        1412.750          44.000    20002495.835    81907187.256        1100.943          40.000  
G12  17948672.929    94321163.561        -533.351          48.000    17948668.979    73497563.967        -415.842          43.000  
E34  24008396.497   126165005.311       -1072.750          42.000    24008400.298    96671911.994        -822.047          46.000  
R13  18625744.111    99460416.723       -2290.494          32.000    18625744.702    77358395.250       -1781.612          39.000  
R17  19470905.662   104192757.423        3642.890          38.000    19470917.993    81038898.788        2833.550          44.000  
R14  17142060.955    91377119.343           1.458          47.000    17142061.490    71071294.139           1.096          47.000  
R03  19743697.977   105689398.837       -4717.129          46.000    19743708.331    82202789.080       -3668.867          44.000  
R04  18010152.628    96443490.197       -2868.970          46.000    18010151.473    75011602.243       -2231.475          45.000  
G32  20805555.804   109333963.435        1569.152          43.000    20805557.228    85195212.251        1222.986          42.000  
G19  20271821.471   106529454.779       -4096.571          41.000                                                                  
S31  35309320.699   185551649.524        -747.398          44.000  
S33  36302722.485   190772083.119        -748.549          39.000  
G06  19996925.826   105084751.113        -292.104          44.000    19996926.432    81884351.091        -227.624          41.000  
R23  18379024.317    98315386.865       -2823.252          43.000                                                                  
R24  16897224.136    90357302.485        1242.014          47.000    16897222.415    70278005.106         966.057          48.000  
R05  19171867.661   102484625.936         407.960          43.000    19171868.713    79710247.923         317.206          46.000  
R15  19629721.363   104895286.379        1463.085          43.000    19629723.687    81585211.827        1137.956          46.000  
G25  19084627.765   100290640.770         702.483          41.000    19084629.319    78148678.412         547.130          41.000  
E21  22255054.264   116951304.591         362.202          44.000    22255058.524    89612197.433         277.535          45.000  
G29  20572667.015   108110089.921        2805.481          45.000    20572681.435    84241681.557        2186.224          40.000  
G13  21073805.511   110743375.952       -4539.643          39.000                                                                  
E19  22573515.685   118624660.423         644.651          36.000    22573519.997    90894241.095         493.641          40.000  
E07  22578611.891   118651334.821       -3619.938          44.000    22578622.688    90914640.652       -2773.767          45.000  
E15  22741090.259   119505372.638        1056.007          41.000    22741095.447    91569315.230         809.276          43.000  
E13  24050498.355   126386244.737        2006.412          42.000    24050515.881    96841495.368        1537.557          40.000  
G24  17064085.222    89672635.417        -356.466          44.000    17064085.301    69875056.810        -277.742          45.000  
G15  19501476.005   102480839.405       -3774.841          43.000    19501485.069    79855220.009       -2941.206          39.000  
E30  23246799.454   122162919.082       -2413.707          40.000    23246803.202    93605460.927       -1849.529          45.000  
E27  20667861.329   108610590.385       -1226.777          50.000    20667860.845    83221255.224        -939.992          48.000  
> 2024 06 08 20 42 30.4890000  0 29                     
G11  19994461.977   105071854.962        1400.843          45.000    19994463.286    81874296.302        1091.633          40.000  
G12  17951738.267    94337272.678        -541.335          49.000    17951734.762    73510116.589        -421.822          44.000  
E34  24014566.619   126197429.299       -1089.386          42.000    24014570.380    96696756.421        -834.747          47.000  
R13  18638632.548    99529222.3251      -2297.615          35.000    18638630.859    77411914.575       -1787.141          39.000  
R17  19450496.089   104083540.114        3637.415          44.000    19450508.033    80953952.631        2829.169          45.000  
R14  17142066.573    91377159.371          -4.866          50.000    17142067.796    71071325.321          -3.620          47.000  
R03  19770140.539   105830950.914       -4720.294          48.000    19770151.477    82312884.948       -3671.417          45.000  
R04  18026289.024    96529890.180       -2891.713          51.000    18026286.100    75078802.034       -2249.048          46.000  
G32  20796644.996   109287142.430        1551.570          44.000    20796647.388    85158728.413        1208.992          41.000  
G19  20295231.045   106652471.152       -4105.139          42.000                                                                  
S31  35313594.157   185574107.363        -750.391          46.000  
S33  36307001.656   190794571.392        -751.519          41.000  
G06  19998648.145   105093803.575        -312.089          44.000    19998649.135    81891405.070        -243.249          42.000  
R23  18394930.574    98400472.977       -2849.769          46.000                                                                  
R24  16890327.917    90320426.276        1215.811          51.000    16890325.135    70249323.788         945.502          47.000  
R05  19169653.638   102472788.066         380.805          46.000    19169653.369    79701040.652         296.052          46.000  
R15  19621511.578   104851410.054        1461.298          48.000    19621511.434    81551086.038        1136.486          43.000  
G25  19080633.254   100269655.605         696.261          43.000    19080635.287    78132326.440         542.329          41.000  
E21  22253000.957   116940510.721         356.662          46.000    22253004.518    89603926.902         273.439          46.000  
G29  20556674.848   108026050.806        2796.460          45.000    20556687.921    84176197.047        2179.138          40.000  
G13  21099725.691   110879588.675       -4542.367          40.000                                                                  
E19  22569877.533   118605541.423         629.285          37.000    22569881.959    90879591.470         482.330          42.000  
E07  22599294.224   118760025.053       -3626.678          43.000    22599306.005    90997922.444       -2778.792          46.000  
E15  22735092.156   119473854.527        1044.327          43.000    22735097.197    91545165.140         800.217          43.000  
E13  24039043.326   126326048.605        2006.000          43.000    24039060.387    96795371.484        1536.912          42.000  
G24  17066167.074    89683574.754        -373.574          46.000    17066166.624    69883580.990        -291.122          46.000  
G15  19523045.569   102594183.974       -3782.079          44.000    19523054.591    79943539.999       -2947.395          39.000  
E30  23260581.584   122235344.409       -2415.397          42.000    23260585.016    93660955.661       -1850.659          46.000  
E27  20674875.441   108647452.110       -1231.349          50.000    20674876.981    83249500.010        -943.488          51.000  
> 2024 06 08 20 43 00.4890000  0 29                     
G11  19986498.294   105030004.355        1388.959          44.000    19986499.675    81841685.696        1082.397          41.000  
G12  17954849.700    94353621.231        -548.975          47.000    17954845.847    73522855.791        -427.745          43.000  
E34  24020831.426   126230353.133       -1105.961          41.000    24020835.740    96721983.847        -847.302          47.000  
R13  18651558.390    99598248.278       -2304.522          32.000    18651557.474    77465601.407       -1792.741          37.000  
R17  19430118.095   103974490.871        3631.934          41.000    19430128.716    80869137.159        2825.074          45.000  
R14  17142112.119    91377389.123         -10.840          49.000    17142112.267    71071504.093          -8.398          49.000  
R03  19796601.867   105972600.220       -4723.230          45.000    19796614.114    82423056.424       -3673.702          45.000  
R04  18042550.939    96616969.679       -2914.062          48.000    18042548.681    75146530.327       -2266.475          47.000  
G32  20787835.244   109240845.241        1534.577          42.000    20787837.027    85122652.683        1195.723          41.000  
G19  20318689.623   106775747.824       -4113.722          39.000                                                                  
S31  35317884.663   185596654.429        -753.037          44.000  
S33  36311298.154   190817149.600        -754.057          39.000  
G06  20000484.482   105103456.555        -331.771          41.000    20000485.741    81898926.988        -258.708          41.000  
R23  18410984.105    98486349.535       -2875.503          43.000                                                                  
R24  16883579.243    90284339.731        1189.653          48.000    16883576.238    70221256.650         925.322          47.000  
R05  19167591.505   102461765.856         353.940          43.000    19167591.928    79692467.743         275.125          46.000  
R15  19613309.996   104807584.972        1460.017          45.000    19613309.691    81517000.066        1135.561          44.000  
G25  19076675.164   100248858.019         690.257          40.000    19076677.759    78116120.634         537.766          41.000  
E21  22250977.428   116929883.870         351.327          45.000    22250982.340    89595784.353         269.282          46.000  
G29  20540733.035   107942282.320        2787.616          42.000    20540746.241    84110923.440        2172.113          39.000  
G13  21125660.651   111015880.128       -4543.983          38.000                                                                  
E19  22566326.482   118586878.919         614.439          36.000    22566330.747    90865291.664         470.861          41.000  
E07  22620014.910   118868910.884       -3632.731          42.000    22620026.554    91081354.115       -2783.595          45.000  
E15  22729161.283   119442690.680        1033.004          41.000    22729166.579    91521286.472         791.481          42.000  
E13  24027589.879   126265864.439        2005.851          42.000    24027607.437    96749256.749        1537.023          41.000  
G24  17068346.825    89695028.440        -390.482          45.000    17068346.153    69892505.974        -304.394          45.000  
G15  19544657.410   102707751.874       -3789.257          42.000    19544665.692    80032033.982       -2952.806          38.000  
E30  23274374.123   122307824.276       -2416.837          41.000    23274377.755    93716492.188       -1851.913          45.000  
E27  20681914.082   108684452.575       -1235.692          46.000    20681918.490    83277851.070        -946.881          52.000  
> 2024 06 08 20 43 30.4890000  0 29                     
G11  19978602.142   104988507.542        1376.955          46.000    19978602.842    81809350.763        1072.845          42.000  
G12  17958004.046    94370199.602        -556.636          49.000    17958000.496    73535774.107        -433.633          44.000  
E34  24027190.613   126263767.826       -1122.356          43.000    24027194.304    96747587.386        -859.965          47.000  
R13  18664520.766    99667500.4001      -2311.485          36.000    18664522.194    77519449.365       -1797.724          39.000  
R17  19409770.650   103865605.146        3626.527          44.000    19409779.978    80784448.853        2820.597          45.000  
R14  17142190.463    91377800.252         -17.000          53.000    17142190.974    71071823.915         -13.271          50.000  
R03  19823078.945   106114333.638       -4725.991          49.000    19823090.635    82533293.338       -3675.753          45.000  
R04  18058935.350    96704715.576       -2936.260          50.000    18058934.233    75214776.888       -2283.666          46.000  
G32  20779123.670   109195064.871        1517.252          43.000    20779125.880    85086979.684        1182.058          41.000  
G19  20342195.527   106899273.389       -4121.869          41.000                                                                  
S31  35322190.634   185619282.825        -755.781          46.000  
S33  36315609.865   190839808.539        -757.191          41.000  
G06  20002434.440   105113702.407        -351.794          44.000    20002435.683    81906910.894        -274.312          42.000  
R23  18427182.895    98573004.728       -2901.677          47.000                                                                  
R24  16876977.239    90249037.049        1163.405          51.000    16876974.905    70193799.230         904.763          48.000  
R05  19165679.860   102451550.861         326.704          47.000    19165681.537    79684522.711         254.219          45.000  
R15  19605115.111   104763801.870        1458.543          48.000    19605116.844    81482946.721        1134.509          44.000  
G25  19072752.079   100228238.493         684.267          43.000    19072754.125    78100053.597         532.819          41.000  
E21  22248984.648   116919414.448         346.095          45.000    22248990.349    89587762.450         265.192          47.000  
G29  20524841.867   107858777.627        2778.766          44.000    20524855.083    84045855.381        2165.283          39.000  
G13  21151608.382   111152238.730       -4546.909          39.000                                                                  
E19  22562861.343   118568665.239         599.312          39.000    22562864.750    90851335.736         459.236          41.000  
E07  22640770.195   118977981.424       -3638.924          43.000    22640781.916    91164927.310       -2788.302          44.000  
E15  22723296.051   119411874.047        1021.148          41.000    22723302.018    91497673.854         782.234          42.000  
E13  24016137.101   126205685.178        2005.735          42.000    24016155.344    96703145.805        1536.604          42.000  
G24  17070623.379    89706989.021        -407.493          47.000    17070622.443    69901825.927        -317.621          46.000  
G15  19566309.472   102821530.630       -3796.410          43.000    19566317.799    80120692.244       -2958.154          39.000  
E30  23288174.554   122380349.787       -2418.709          42.000    23288178.920    93772063.654       -1853.035          46.000  
E27  20688976.171   108721582.350       -1240.065          44.000    20688984.109    83306301.129        -950.238          53.000  
> 2024 06 08 20 44 00.4890000  0 29                     
G11  19970773.579   104947367.265        1365.095          47.000    19970774.470    81777293.643        1063.730          43.000  
G12  17961201.818    94387006.560        -564.347          49.000    17961198.769    73548870.519        -439.608          44.000  
E34  24033641.588   126297673.146       -1138.684          42.000    24033646.070    96773566.833        -872.314          47.000  
R13  18677525.154    99736941.341       -2318.025          36.000    18677526.279    77573459.013       -1803.332          39.000  
R17  19389454.856   103756886.853        3620.947          45.000    19389462.956    80699890.807        2816.164          45.000  
R14  17142300.666    91378393.396         -22.950          51.000    17142301.978    71072285.307         -17.896          50.000  
R03  19849570.591   106256145.805       -4728.525          47.000    19849583.423    82643591.525       -3677.717          46.000  
R04  18075443.198    96793123.658       -2958.091          49.000    18075442.702    75283538.495       -2300.734          45.000  
G32  20770510.305   109149803.197        1499.876          43.000    20770512.605    85051710.851        1168.157          41.000  
G19  20365748.214   107023044.660       -4130.031          41.000                                                                  
S31  35326512.184   185641992.440        -758.636          46.000  
S33  36319936.875   190862547.256        -759.452          41.000  
G06  20004497.079   105124542.141        -371.687          44.000    20004497.927    81915357.557        -289.648          42.000  
R23  18443527.098    98660434.965       -2927.478          47.000                                                                  
R24  16870523.605    90214520.944        1137.066          52.000    16870520.614    70166953.589         884.487          48.000  
R05  19163921.664   102442143.623         299.747          48.000    19163920.250    79677205.940         233.260          44.000  
R15  19596931.213   104720060.377        1457.092          49.000    19596930.138    81448925.776        1133.297          43.000  
G25  19068862.667   100207796.221         678.232          44.000    19068863.560    78084124.649         528.632          41.000  
E21  22247021.145   116909101.620         340.970          44.000    22247027.591    89579860.523         261.316          47.000  
G29  20509001.837   107775538.796        2770.032          43.000    20509014.773    83980994.508        2158.179          39.000  
G13  21177569.187   111288661.428       -4548.651          39.000                                                                  
E19  22559481.543   118550901.148         584.488          39.000    22559484.128    90837724.297         447.947          41.000  
E07  22661561.040   119087234.452       -3644.846          43.000    22661572.682    91248640.356       -2792.817          45.000  
E15  22717498.062   119381406.297        1009.624          41.000    22717503.715    91474328.524         773.691          41.000  
E13  24004685.507   126145512.519        2005.290          41.000    24004704.158    96657039.919        1536.578          42.000  
G24  17072996.333    89719457.728        -424.265          48.000    17072995.243    69911541.808        -330.519          46.000  
G15  19588001.662   102935517.353       -3803.138          44.000    19588009.348    80209512.577       -2963.488          39.000  
E30  23301984.299   122452920.695       -2420.009          42.000    23301988.780    93827669.914       -1854.261          46.000  
E27  20696070.106   108758840.570       -1244.230          46.000    20696073.388    83334849.579        -953.332          52.000  
> 2024 06 08 20 44 30.4890000  0 29                     
G11  19963013.328   104906585.077        1353.363          47.000    19963013.768    81745515.543        1054.740          42.000  
G12  17964443.562    94404039.789        -571.486          50.000    17964439.675    73562143.223        -445.323          43.000  
E34  24040186.657   126332067.529       -1154.734          42.000    24040191.020    96799921.035        -884.838          47.000  
R13  18690570.162    99806601.3833      -2325.170          33.000    18690569.169    77627629.704       -1808.125          37.000  
R17  19369170.646   103648338.715        3615.671          41.000    19369177.605    80615465.071        2812.079          45.000  
R14  17142443.593    91379167.243         -28.845          47.000    17142446.157    71072887.214         -22.375          48.000  
R03  19876076.093   106398031.299       -4730.693          45.000    19876088.007    82753946.801       -3679.455          45.000  
R04  18092076.099    96882188.541       -2979.716          46.000    18092074.560    75352810.961       -2317.400          44.000  
G32  20761996.012   109105060.762        1482.965          42.000    20761998.624    85016846.589        1155.383          40.000  
G19  20389347.434   107147057.504       -4137.805          42.000                                                                  
S31  35330848.684   185664781.115        -760.954          46.000  
S33  36324279.215   190885365.809        -762.120          41.000  
G06  20006672.833   105135975.623        -391.240          44.000    20006673.368    81924266.882        -304.806          42.000  
R23  18460015.476    98748636.599       -2952.938          44.000                                                                  
R24  16864216.251    90180792.970        1111.140          48.000    16864212.874    70140720.943         864.204          48.000  
R05  19162312.628   102433543.811         273.201          44.000    19162310.037    79670517.137         212.488          43.000  
R15  19588753.377   104676358.427        1456.036          44.000    19588750.952    81414935.663        1132.500          43.000  
G25  19065005.561   100187529.135         672.615          43.000    19065006.645    78068332.262         524.123          41.000  
E21  22245088.012   116898943.295         335.824          43.000    22245094.552    89572076.976         257.542          47.000  
G29  20493211.915   107692566.426        2761.212          42.000    20493224.275    83916341.272        2151.520          38.000  
G13  21203540.909   111425144.361       -4550.415          39.000                                                                  
E19  22556185.775   118533586.181         569.312          38.000    22556188.941    90824456.987         436.259          40.000  
E07  22682385.260   119196666.637       -3650.910          43.000    22682396.998    91332490.646       -2797.350          44.000  
E15  22711767.487   119351287.862         998.113          42.000    22711772.469    91451250.870         764.717          41.000  
E13  23993235.936   126085346.873        2005.079          40.000    23993254.592    96610939.427        1536.643          42.000  
G24  17075466.214    89732434.617        -441.108          48.000    17075465.057    69921653.687        -343.665          46.000  
G15  19609732.185   103049707.618       -3809.658          45.000    19609739.521    80298491.506       -2968.521          38.000  
E30  23315803.133   122525535.570       -2421.151          42.000    23315806.965    93883309.843       -1855.247          47.000  
E27  20703186.242   108796225.196       -1248.379          50.000    20703186.346    83363494.971        -956.535          51.000  
