     3.00           OBSERVATION DATA    M: Mixed            RINEX VERSION / TYPE
CONVBIN demo5 b34j                      20240609 013620 UTC PGM / RUN BY / DATE 
log: SAUC00CHL_R_20241602045_15M_30S_MO.ubx                 COMMENT             
format: u-blox UBX                                          COMMENT             
format: u-blox UBX                                          COMMENT             
log: SAUC00CHL_R_20241602045_15M_30S_MO.ubx                 COMMENT             
SAUC00CHL                                                   MARKER NAME         
                                                            MARKER NUMBER       
GEODETIC                                                    MARKER TYPE         
El Sauce            Obstech                                 OBSERVER / AGENCY   
UNKNOWN             UBLOX-ZED-F9P                           REC # / TYPE / VERS 
UNKNWOWN            TWIVSP6037L                             ANT # / TYPE        
  1813185.0000 -5195981.0000 -3216438.0000                  APPROX POSITION XYZ 
        0.0000        0.0000        0.0000                  ANTENNA: DELTA H/E/N
G    8 C1C L1C D1C S1C C2X L2X D2X S2X                      SYS / # / OBS TYPES 
R    8 C1C L1C D1C S1C C2C L2C D2C S2C                      SYS / # / OBS TYPES 
E    8 C1X L1X D1X S1X C7X L7X D7X S7X                      SYS / # / OBS TYPES 
S    4 C1C L1C D1C S1C                                      SYS / # / OBS TYPES 
  2024    06    08    20    45   00.4890000     GPS         TIME OF FIRST OBS   
  2024    06    08    20    57   30.4890000     GPS         TIME OF LAST OBS    
                                                            END OF HEADER       
> 2024 06 08 20 45 00.4890000  0 29                     
G11  19955321.979   104866168.7301       1340.937          47.000    19955322.148    81714022.5411       1044.604          43.000  
G12  17967729.219    94421303.4681       -579.607          49.000    17967724.483    73575595.5111       -451.685          43.000  
E34  24046826.134   126366955.8231      -1171.229          42.000    24046830.048    96826653.6471       -897.609          47.000  
R13  18703652.697    99876462.3241      -2332.466          38.000    18703651.691    77681965.9761      -1814.330          38.000  
R17  19348917.948   103539970.0381       3608.920          44.000    19348925.782    80531178.9401       2807.017          45.000  
R14  17142624.903    91380128.0801        -35.359          51.000    17142623.999    71073634.5921        -27.485          46.000  
R03  19902594.381   106539991.3911      -4733.523          46.000    19902607.909    82864360.0691      -3681.613          46.000  
R04  18108832.982    96971911.1491      -3001.953          51.000    18108829.978    75422594.9531      -2334.912          45.000  
G32  20753581.949   109060844.3491       1464.903          43.000    20753584.315    84982392.2441       1141.312          41.000  
G19  20412992.421   107271313.8931      -4146.143          42.000                                                                  
S31  35335201.076   185687653.5881       -764.192          46.000  
S33  36328637.033   190908268.0561       -765.130          41.000  
G06  20008962.582   105148008.8351       -411.466          43.000    20008963.060    81933643.5281       -320.572          41.000  
R23  18476648.501    98837611.4041      -2979.013          48.000                                                                  
R24  16858056.758    90147861.1461       1084.164          51.000    16858054.180    70115107.5061        843.198          48.000  
R05  19160855.212   102425757.1271        245.640          48.000    19160855.250    79664460.7441        190.926          46.000  
R15  19580581.725   104632701.1921       1454.246          46.000    19580581.275    81380980.2571       1130.881          44.000  
G25  19061182.124   100167441.4871        666.147          42.000    19061184.417    78052679.7411        519.121          41.000  
E21  22243185.033   116888943.5791        330.403          43.000    22243191.758    89564414.9791        253.066          48.000  
G29  20477474.121   107609867.6461       2751.636          42.000    20477486.601    83851901.2581       2144.019          39.000  
G13  21229524.478   111561689.5181      -4552.940          39.000                                                                  
E19  22552976.441   118516726.3071        554.618          38.000    22552980.232    90811538.4151        424.426          40.000  
E07  22703244.885   119306280.7921      -3657.109          43.000    22703256.728    91416480.3761      -2802.199          45.000  
E15  22706104.456   119321525.4321        985.867          43.000    22706109.161    91428446.0261        755.259          42.000  
E13  23981789.003   126025194.9711       2004.600          40.000    23981808.002    96564849.5051       1535.936          43.000  
G24  17078032.853    89745925.9491       -458.608          48.000    17078032.656    69932166.4561       -357.382          47.000  
G15  19631501.284   103164102.9251      -3816.829          45.000    19631508.489    80387630.1981      -2974.229          39.000  
E30  23329630.933   122598199.2751      -2423.181          42.000    23329634.279    93938987.2081      -1856.794          46.000  
E27  20710325.052   108833740.5471      -1252.870          50.000    20710324.084    83392240.6011       -960.051          49.000  
> 2024 06 08 20 45 30.4890000  0 29                     
G11  19947700.127   104826119.828        1328.660          47.000    19947701.268    81682815.823        1035.351          41.000  
G12  17971057.077    94438795.267        -586.868          48.000    17971052.654    73589225.556        -457.683          42.000  
E34  24053558.543   126402336.431       -1187.873          43.000    24053562.697    96853763.484        -910.168          46.000  
R13  18716775.180    99946535.519       -2339.107          33.000    18716774.267    77736467.344       -1819.725          37.000  
R17  19328701.014   103431783.312        3603.210          42.000    19328707.606    80447034.301        2802.330          45.000  
R14  17142841.857    91381274.240         -41.473          50.000    17142839.121    71074526.183         -32.226          47.000  
R03  19929126.074   106682019.762       -4735.238          42.000    19929139.704    82974826.542       -3683.198          44.000  
R04  18125710.383    97062286.003       -3023.477          48.000    18125708.089    75492886.257       -2351.577          46.000  
G32  20745268.124   109017154.547        1447.292          42.000    20745269.699    84948348.205        1128.008          39.000  
G19  20436683.590   107395809.847       -4154.096          43.000                                                                  
S31  35339569.469   185710608.459        -766.692          45.000  
S33  36333010.686   190931252.432        -767.735          41.000  
G06  20011366.510   105160641.544        -431.084          43.000    20011366.196    81943487.286        -335.924          40.000  
R23  18493424.876    98927354.995       -3004.448          45.000                                                                  
R24  16852046.880    90115727.152        1057.614          47.000    16852044.418    70090114.586         822.530          48.000  
R05  19159551.896   102418782.864         218.796          45.000    19159552.693    79659036.292         170.079          46.000  
R15  19572417.833   104589086.311        1452.971          41.000    19572420.457    81347057.765        1130.150          45.000  
G25  19057392.549   100147531.250         660.618          41.000    19057395.248    78037165.491         514.513          40.000  
E21  22241312.936   116879100.373         325.514          44.000    22241318.567    89556872.890         249.287          47.000  
G29  20461789.980   107527443.019        2742.786          44.000    20461801.031    83787674.842        2137.378          38.000  
G13  21255518.465   111698292.874       -4554.913          38.000                                                                  
E19  22549854.577   118500320.688         539.414          37.000    22549858.508    90798967.859         413.008          40.000  
E07  22724138.134   119416073.474       -3662.894          44.000    22724149.916    91500606.884       -2806.587          44.000  
E15  22700509.429   119292119.382         974.103          45.000    22700513.389    91405914.245         746.422          42.000  
E13  23970345.393   125965057.253        2004.398          40.000    23970363.540    96518770.420        1535.659          42.000  
G24  17080697.453    89759931.637        -475.681          47.000    17080697.615    69943080.001        -370.608          46.000  
G15  19653308.779   103278699.098       -3823.327          45.000    19653316.510    80476925.383       -2979.212          38.000  
E30  23343467.975   122670910.368       -2424.786          44.000    23343470.480    93994700.880       -1857.844          46.000  
E27  20717487.524   108871384.667       -1257.153          49.000    20717487.481    83421084.890        -963.180          49.000  
> 2024 06 08 20 46 00.4890000  0 29                     
G11  19940148.326   104786438.123        1316.084          46.000    19940149.787    81651895.236        1025.559          43.000  
G12  17974427.537    94456511.110        -594.937          48.000    17974423.971    73603030.171        -463.410          44.000  
E34  24060383.415   126438206.188       -1204.275          42.000    24060388.370    96881248.133        -922.771          46.000  
R13  18729936.993   100016818.814       -2347.195          37.000    18729936.348    77791132.039       -1825.375          38.000  
R17  19308518.266   103323779.588        3596.552          45.000    19308524.214    80363031.950        2797.176          45.000  
R14  17143091.271    91382604.383         -47.976          52.000    17143090.971    71075560.824         -37.251          50.000  
R03  19955670.017   106824109.644       -4737.945          47.000    19955684.069    83085340.827       -3684.950          46.000  
R04  18142707.787    97153305.793       -3045.186          51.000    18142705.556    75563679.201       -2368.374          46.000  
G32  20737054.366   108973990.208        1429.628          43.000    20737055.560    84914713.658        1113.751          41.000  
G19  20460418.877   107520539.699       -4162.164          44.000                                                                  
S31  35343952.453   185733643.476        -769.658          46.000  
S33  36337399.778   190954316.292        -770.486          41.000  
G06  20013883.767   105173871.902        -451.688          43.000    20013884.537    81953796.743        -351.841          42.000  
R23  18510344.611    99017861.478       -3030.083          48.000                                                                  
R24  16846186.121    90084390.668        1030.695          50.000    16846183.756    70065741.927         801.599          48.000  
R05  19158399.593   102412618.285         191.386          49.000    19158398.816    79654241.511         148.977          46.000  
R15  19564264.315   104545510.792        1451.318          47.000    19564265.563    81313165.869        1128.698          45.000  
G25  19053635.832   100127794.823         654.251          41.000    19053639.850    78021786.646         509.788          41.000  
E21  22239469.147   116869409.994         320.003          44.000    22239474.530    89549447.921         245.204          47.000  
G29  20446157.746   107445291.650        2733.130          45.000    20446167.476    83723661.344        2130.042          39.000  
G13  21281523.809   111834948.699       -4557.145          39.000                                                                  
E19  22546819.030   118484367.506         523.761          38.000    22546822.763    90786743.994         401.454          41.000  
E07  22745064.625   119526039.677       -3668.986          44.000    22745076.606    91584866.374       -2811.254          45.000  
E15  22694981.176   119263068.555         961.815          45.000    22694985.322    91383654.689         736.970          44.000  
E13  23958903.618   125904932.623        2003.308          40.000    23958921.791    96472701.395        1534.850          43.000  
G24  17083459.998    89774450.090        -493.091          47.000    17083460.108    69954393.114        -384.116          47.000  
G15  19675153.173   103393490.268       -3830.171          46.000    19675160.913    80566372.539       -2984.361          39.000  
E30  23357312.621   122743665.713       -2426.359          44.000    23357315.501    94050448.506       -1859.181          46.000  
E27  20724672.051   108909153.987       -1261.560          46.000    20724676.339    83450025.071        -966.693          51.000  
> 2024 06 08 20 46 30.4890000  0 29                     
G11  19932670.491   104747141.668        1303.337          47.000    19932671.827    81621274.792        1015.687          42.000  
G12  17977844.674    94474465.379        -602.376          50.000    17977841.099    73617020.593        -469.382          43.000  
E34  24067305.426   126474580.061       -1221.027          43.000    24067310.098    96909119.017        -935.511          46.000  
R13  18743143.207   100087325.2941      -2354.171          38.000    18743140.607    77845972.733       -1830.716          37.000  
R17  19288371.751   103215978.828        3589.783          45.000    19288378.389    80279187.534        2792.217          46.000  
R14  17143377.032    91384133.957         -54.358          50.000    17143378.639    71076750.517         -42.175          50.000  
R03  19982227.174   106966271.647       -4740.085          47.000    19982241.371    83195911.281       -3686.542          46.000  
R04  18159826.282    97244981.877       -3066.818          49.000    18159826.032    75634982.607       -2385.186          46.000  
G32  20728943.850   108931368.412        1411.705          44.000    20728945.174    84881501.864        1099.973          39.000  
G19  20484200.898   107645515.836       -4170.062          45.000                                                                  
S31  35348353.728   185756772.006        -772.576          46.000  
S33  36341806.607   190977474.146        -774.084          41.000  
G06  20016518.056   105187716.202        -471.867          44.000    20016518.619    81964584.601        -367.702          41.000  
R23  18527408.535    99109143.520       -3055.765          48.000                                                                  
R24  16840479.400    90053870.096        1003.640          51.000    16840476.584    70042003.867         780.756          48.000  
R05  19157399.038   102407279.593         164.070          47.000    19157399.473    79650089.163         127.734          46.000  
R15  19556120.612   104501989.765        1449.804          46.000    19556120.829    81279316.394        1127.593          45.000  
G25  19049916.520   100108246.649         648.495          41.000    19049920.827    78006554.467         505.433          41.000  
E21  22237656.569   116859886.820         314.571          44.000    22237661.865    89542151.103         241.092          47.000  
G29  20430580.243   107363430.907        2723.798          46.000    20430589.801    83659874.321        2122.498          38.000  
G13  21307540.434   111971669.269       -4558.524          38.000                                                                  
E19  22543872.583   118468882.734         508.508          38.000    22543876.232    90774879.032         389.781          41.000  
E07  22766025.842   119636192.551       -3674.922          43.000    22766038.008    91669268.843       -2815.585          45.000  
E15  22689523.133   119234389.846         949.857          44.000    22689528.106    91361680.256         727.851          44.000  
E13  23947468.336   125844838.061        2002.370          40.000    23947485.574    96426655.423        1534.520          43.000  
G24  17086323.611    89789497.745        -510.463          48.000    17086323.634    69966118.590        -397.822          46.000  
G15  19697036.704   103508488.423       -3836.853          46.000    19697044.544    80655980.955       -2989.676          38.000  
E30  23371168.542   122816480.484       -2428.266          43.000    23371171.901    94106241.614       -1860.606          47.000  
E27  20731885.050   108947063.092       -1265.975          45.000    20731890.962    83479072.255        -969.980          52.000  
> 2024 06 08 20 47 00.4890000  0 29                     
G11  19925264.650   104708222.870        1291.015          47.000    19925265.656    81590948.629        1005.942          42.000  
G12  17981305.408    94492646.813        -609.970          49.000    17981301.349    73631187.996        -475.213          44.000  
E34  24074321.250   126511447.482       -1237.216          42.000    24074325.814    96937368.105        -947.893          46.000  
R13  18756383.555   100158044.2641      -2361.527          37.000    18756385.384    77900981.823       -1836.514          39.000  
R17  19268262.671   103108374.433        3583.450          45.000    19268269.265    80195495.876        2787.277          46.000  
R14  17143696.493    91385853.363         -60.444          48.000    17143700.727    71078087.804         -47.041          49.000  
R03  20008795.284   107108491.163       -4741.552          47.000    20008809.260    83306526.489       -3687.761          46.000  
R04  18177064.166    97337299.767       -3087.909          48.000    18177065.384    75706785.162       -2401.569          46.000  
G32  20720935.641   108889280.618        1394.130          44.000    20720936.214    84848706.152        1086.329          40.000  
G19  20508027.379   107770725.008       -4177.496          45.000                                                                  
S31  35352770.920   185779985.009        -775.248          46.000  
S33  36346229.142   191000715.839        -776.219          41.000  
G06  20019267.421   105202165.051        -491.688          43.000    20019268.451    81975843.531        -382.889          42.000  
R23  18544614.991    99201187.069       -3080.795          48.000                                                                  
R24  16834923.639    90024157.554         976.896          52.000    16834920.103    70018894.257         759.862          48.000  
R05  19156554.568   102402756.638         137.147          49.000    19156554.009    79646571.241         106.760          46.000  
R15  19547983.598   104458512.459        1448.473          48.000    19547985.312    81245500.925        1126.580          46.000  
G25  19046230.529   100088875.639         642.790          41.000    19046234.485    77991460.344         500.893          42.000  
E21  22235873.577   116850519.743         309.591          43.000    22235879.209    89534973.899         237.159          47.000  
G29  20415055.507   107281852.232        2714.630          45.000    20415065.299    83596307.087        2115.216          38.000  
G13  21333567.790   112108441.324       -4559.689          38.000                                                                  
E19  22541013.565   118453856.765         493.090          38.000    22541016.906    90763365.635         377.958          41.000  
E07  22787020.245   119746519.604       -3680.438          43.000    22787032.939    91753804.805       -2819.827          44.000  
E15  22684134.431   119206074.631         937.723          44.000    22684139.913    91339984.366         718.462          45.000  
E13  23936036.188   125784764.927        2001.820          40.000    23936053.449    96380625.871        1533.990          43.000  
G24  17089286.507    89805065.505        -527.607          48.000    17089286.023    69978249.323        -411.103          46.000  
G15  19718957.547   103623679.995       -3842.878          45.000    19718965.263    80745740.096       -2994.341          38.000  
E30  23385034.401   122889344.161       -2429.533          43.000    23385037.279    94162072.187       -1861.625          46.000  
E27  20739127.085   108985100.861       -1270.024          48.000    20739129.414    83508218.056        -973.147          53.000  
> 2024 06 08 20 47 30.4890000  0 29                     
G11  19917929.133   104669673.789        1278.559          47.000    19917929.567    81560910.581         996.317          42.000  
G12  17984805.519    94511043.446        -616.904          49.000    17984801.779    73645523.102        -480.710          44.000  
E34  24081428.934   126548797.331       -1253.097          43.000    24081433.081    96965986.897        -960.206          46.000  
R13  18769667.676   100228976.734       -2367.970          37.000    18769669.222    77956151.527       -1841.793          39.000  
R17  19248189.506   103000959.673        3577.200          45.000    19248195.954    80111951.698        2782.375          46.000  
R14  17144055.648    91387752.283         -66.469          52.000    17144055.007    71079564.797         -51.729          47.000  
R03  20035371.456   107250752.501       -4742.843          48.000    20035385.151    83417174.220       -3688.837          45.000  
R04  18194421.819    97430243.823       -3108.625          49.000    18194422.500    75779074.761       -2417.829          46.000  
G32  20713026.827   108847717.763        1376.262          44.000    20713027.067    84816319.503        1072.645          40.000  
G19  20531895.832   107896153.594       -4184.680          46.000                                                                  
S31  35357202.044   185803271.015        -777.518          46.000  
S33  36350665.507   191024030.054        -778.669          41.000  
G06  20022129.956   105217208.669        -511.496          43.000    20022131.322    81987565.919        -398.713          43.000  
R23  18561961.469    99293978.174       -3105.543          48.000                                                                  
R24  16829516.130    89995244.679         950.219          51.000    16829513.190    69996406.615         739.163          48.000  
R05  19155860.124   102399039.036         110.274          49.000    19155859.673    79643679.715          85.875          46.000  
R15  19539853.950   104415067.302        1447.463          48.000    19539854.627    81211710.428        1125.935          45.000  
G25  19042576.127   100069670.284         637.176          41.000    19042579.536    77976495.340         496.483          43.000  
E21  22234118.462   116841297.148         304.911          43.000    22234124.106    89527907.417         233.608          47.000  
G29  20399583.425   107200546.928        2705.414          45.000    20399592.750    83532952.853        2108.258          38.000  
G13  21359602.015   112245251.568       -4561.283          38.000                                                                  
E19  22538238.832   118439279.625         478.291          37.000    22538243.306    90752196.182         366.535          41.000  
E07  22808045.965   119857007.964       -3685.914          43.000    22808058.428    91838464.355       -2823.977          44.000  
E15  22678812.376   119178113.812         925.888          43.000    22678818.611    91318560.011         709.603          45.000  
E13  23924605.803   125724704.130        2001.707          39.000    23924623.841    96334605.800        1533.681          43.000  
G24  17092346.286    89821143.814        -544.582          48.000    17092345.348    69990777.885        -424.299          46.000  
G15  19740912.058   103739051.056       -3848.947          44.000    19740920.249    80835639.097       -2999.548          38.000  
E30  23398907.116   122962245.882       -2430.945          43.000    23398910.092    94217931.905       -1862.577          46.000  
E27  20746388.929   109023255.855       -1273.857          50.000    20746389.707    83537453.722        -976.131          52.000  
> 2024 06 08 20 48 00.4890000  0 29                     
G11  19910663.202   104631490.466        1266.925          46.000    19910663.104    81531157.527         987.375          42.000  
G12  17988345.308    94529648.052        -623.348          47.000    17988341.182    73660020.250        -485.598          43.000  
E34  24088626.978   126586622.624       -1268.569          42.000    24088630.847    96994969.967        -971.987          46.000  
R13  18782989.770   100300110.2461      -2373.829          35.000    18782989.622    78011476.817       -1846.556          38.000  
R17  19228150.324   102893731.309        3571.581          43.000    19228157.041    80028552.527        2777.742          46.000  
R14  17144445.782    91389824.250         -71.667          51.000    17144441.888    71081176.493         -55.805          46.000  
R03  20061952.385   107393044.886       -4743.381          45.000    20061966.403    83527846.187       -3689.384          44.000  
R04  18211895.364    97523803.231       -3128.698          49.000    18211894.041    75851842.936       -2433.275          46.000  
G32  20705215.699   108806674.834        1359.676          42.000    20705216.715    84784338.016        1059.520          40.000  
G19  20555803.925   108021792.054       -4191.040          45.000                                                                  
S31  35361645.547   185826621.951        -779.174          44.000  
S33  36355114.725   191047409.257        -779.956          39.000  
G06  20025104.969   105232841.193        -530.628          41.000    20025106.268    81999747.175        -413.621          43.000  
R23  18579445.455    99387506.935       -3129.560          46.000                                                                  
R24  16824257.738    89967127.554         924.229          49.000    16824254.978    69974537.883         718.853          48.000  
R05  19155311.634   102396120.126          84.305          45.000    19155312.676    79641409.394          65.513          45.000  
R15  19531728.510   104371647.098        1447.192          48.000    19531728.348    81177939.325        1125.735          44.000  
G25  19038952.171   100050623.134         632.653          42.000    19038954.379    77961653.622         492.894          43.000  
E21  22232389.202   116832211.527         300.813          42.000    22232395.150    89520945.912         230.525          47.000  
G29  20384161.984   107119510.160        2697.139          43.000    20384172.307    83469807.916        2101.574          39.000  
G13  21385641.034   112382090.461       -4560.771          36.000                                                                  
E19  22535548.178   118425145.385         463.950          35.000    22535553.537    90741366.115         355.470          41.000  
E07  22829101.044   119967648.759       -3690.367          42.000    22829113.294    91923240.712       -2827.530          45.000  
E15  22673557.623   119150502.227         914.973          41.000    22673564.240    91297403.266         701.040          45.000  
E13  23913177.919   125664650.841        2001.987          38.000    23913195.858    96288591.466        1533.910          43.000  
G24  17095502.015    89837727.095        -560.944          47.000    17095500.757    70003699.919        -436.956          46.000  
G15  19762898.545   103854591.742       -3854.052          42.000    19762907.204    80925670.231       -3002.994          38.000  
E30  23412785.978   123035178.726       -2431.261          43.000    23412788.720    94273815.498       -1863.079          46.000  
E27  20753670.021   109061520.683       -1277.007          49.000    20753670.567    83566773.552        -978.435          51.000  
> 2024 06 08 20 48 30.4890000  0 29                     
G11  19903465.346   104593666.836        1255.027          47.000    19903465.475    81501684.754         978.120          42.000  
G12  17991923.191    94548450.252        -629.690          49.000    17991918.715    73674671.407        -490.696          43.000  
E34  24095912.770   126624914.210       -1284.036          42.000    24095917.637    97024310.357        -983.651          46.000  
R13  18796346.086   100371434.793       -2380.281          37.000    18796345.614    78066951.433       -1851.097          38.000  
R17  19208146.313   102786684.955        3565.625          46.000    19208151.908    79945294.866        2773.206          45.000  
R14  17144864.903    91392061.290         -76.977          51.000    17144863.665    71082916.518         -59.888          49.000  
R03  20088537.660   107535355.028       -4743.504          46.000    20088551.095    83638531.965       -3689.435          45.000  
R04  18229480.164    97617964.412       -3148.252          50.000    18229478.470    75925079.173       -2448.544          46.000  
G32  20697503.130   108766144.786        1342.792          44.000    20697504.140    84752756.199        1046.345          40.000  
G19  20579750.339   108147628.840       -4197.406          46.000                                                                  
S31  35366100.029   185850030.562        -781.078          45.000  
S33  36359574.353   191070845.765        -781.343          41.000  
G06  20028190.446   105249054.664        -549.681          43.000    20028191.435    82012381.093        -428.324          43.000  
R23  18597065.440    99481760.943       -3153.562          47.000                                                                  
R24  16819146.685    89939799.752         898.094          50.000    16819144.039    69953283.052         698.498          47.000  
R05  19154914.280   102393991.441          58.132          47.000    19154912.358    79639753.710          45.254          43.000  
R15  19523605.490   104328242.643        1446.789          48.000    19523605.726    81144180.446        1125.211          45.000  
G25  19035356.914   100031724.618         627.858          44.000    19035357.211    77946927.712         489.381          42.000  
E21  22230683.931   116823253.235         296.886          43.000    22230690.273    89514081.995         227.438          47.000  
G29  20368790.760   107038735.048        2688.494          45.000    20368800.845    83406866.854        2094.792          40.000  
G13  21411684.345   112518946.298       -4562.267          39.000                                                                  
E19  22532941.852   118411446.264         450.121          37.000    22532946.407    90730869.456         344.520          41.000  
E07  22850182.515   120078431.049       -3694.602          43.000    22850195.076    92008125.483       -2830.959          45.000  
E15  22668368.451   119123232.858         903.608          42.000    22668374.653    91276508.731         692.387          45.000  
E13  23901750.062   125604598.022        2001.981          39.000    23901767.865    96242577.522        1534.016          44.000  
G24  17098752.473    89854807.790        -577.419          48.000    17098751.055    70017009.566        -449.700          46.000  
G15  19784915.421   103970290.154       -3858.919          43.000    19784924.258    81015824.289       -3006.781          37.000  
E30  23426668.984   123108133.918       -2431.916          44.000    23426671.494    94329716.223       -1863.408          46.000  
E27  20760969.606   109099885.942       -1280.240          48.000    20760970.044    83596170.364        -980.937          49.000  
> 2024 06 08 20 49 00.4890000  0 29                     
G11  19896336.188   104556202.885        1242.712          48.000    19896336.321    81472492.274         968.402          42.000  
G12  17995538.686    94567446.465        -636.555          50.000    17995534.751    73689473.706        -496.100          43.000  
E34  24103287.401   126663668.886       -1299.675          43.000    24103292.295    97054005.629        -995.829          46.000  
R13  18809738.440   100442953.9451      -2386.856          39.000    18809737.875    78122573.550       -1856.764          37.000  
R17  19188175.244   102679801.6931       3558.978          46.000    19188181.192    79862179.642        2768.181          45.000  
R14  17145312.935    91394461.087         -82.757          49.000    17145315.396    71084783.043         -64.398          50.000  
R03  20115124.494   107677675.801       -4744.331          48.000    20115138.080    83749226.074       -3689.825          47.000  
R04  18247174.662    97712720.159       -3168.483          52.000    18247172.927    75998777.836       -2464.112          44.000  
G32  20689887.625   108726126.563        1325.467          45.000    20689889.503    84721573.168        1032.996          41.000  
G19  20603732.837   108273658.225       -4204.187          47.000                                                                  
S31  35370564.730   185873492.358        -783.117          46.000  
S33  36364044.253   191094336.175        -784.265          42.000  
G06  20031385.819   105265847.290        -569.609          44.000    20031386.911    82025466.281        -443.906          42.000  
R23  18614819.706    99576734.116       -3177.928          49.000                                                                  
R24  16814184.141    89913260.877         871.453          52.000    16814180.845    69932641.820         677.795          47.000  
R05  19154663.431   102392650.671          31.438          49.000    19154661.913    79638710.775          24.635          45.000  
R15  19515485.129   104284850.995        1446.256          49.000    19515485.700    81110431.505        1124.961          46.000  
G25  19031787.600   100012971.164         622.693          44.000    19031788.161    77932314.879         485.099          42.000  
E21  22229003.143   116814418.671         292.174          44.000    22229009.416    89507312.865         223.934          47.000  
G29  20353469.253   106958220.889        2679.264          46.000    20353479.486    83344129.143        2087.798          40.000  
G13  21437729.013   112655813.415       -4562.483          40.000                                                                  
E19  22530418.103   118398180.044         434.998          39.000    22530421.501    90720704.438         333.382          41.000  
E07  22871289.307   120189349.950       -3699.627          43.000    22871302.480    92093114.904       -2834.760          44.000  
E15  22663244.516   119096304.409         891.885          43.000    22663249.904    91255875.422         683.447          44.000  
E13  23890322.716   125544544.564        2001.645          40.000    23890339.525    96196563.069        1533.653          44.000  
G24  17102097.010    89872384.277        -594.148          49.000    17102095.349    70030705.567        -462.952          46.000  
G15  19806960.939   104086140.215       -3864.265          43.000    19806970.418    81106096.494       -3010.960          37.000  
E30  23440555.355   123181108.473       -2432.880          45.000    23440558.037    94385631.795       -1863.994          46.000  
E27  20768285.220   109138348.181       -1283.643          46.000    20768288.744    83625641.472        -983.551          49.000  
> 2024 06 08 20 49 30.4890000  0 29                     
G11  19889276.990   104519108.609        1230.712          48.000    19889277.781    81443587.846         958.821          42.000  
G12  17999191.196    94586643.283        -642.864          49.000    17999188.578    73704432.344        -500.929          44.000  
E34  24110752.403   126702893.637       -1315.342          43.000    24110756.404    97084061.065       -1007.662          46.000  
R13  18823168.579   100514666.319       -2393.487          39.000    18823167.702    78178349.770       -1861.644          37.000  
R17  19168240.410   102573133.003        3552.572          45.000    19168247.092    79779215.772        2763.100          46.000  
R14  17145794.540    91397031.324         -88.243          50.000    17145797.866    71086782.094         -68.615          51.000  
R03  20141712.072   107820010.076       -4744.169          45.000    20141727.272    83859930.689       -3690.051          46.000  
R04  18264980.163    97808073.765       -3188.090          49.000    18264979.912    76072941.493       -2479.582          46.000  
G32  20682372.359   108686629.162        1308.026          45.000    20682374.103    84690795.959        1019.531          42.000  
G19  20627752.834   108399884.590       -4210.711          45.000                                                                  
S31  35375041.073   185897015.414        -784.763          46.000  
S33  36368525.396   191117886.552        -785.828          41.000  
G06  20034693.290   105283227.203        -589.133          44.000    20034693.855    82039009.073        -458.638          42.000  
R23  18632708.960    99672430.951       -3201.614          47.000                                                                  
R24  16809370.051    89887521.150         844.823          50.000    16809366.949    69912622.127         657.022          47.000  
R05  19154560.265   102392105.262           5.321          45.000    19154562.006    79638286.564           4.009          47.000  
R15  19507367.170   104241478.855        1445.698          44.000    19507369.047    81076697.761        1124.477          45.000  
G25  19028246.918    99994369.387         617.917          44.000    19028248.656    77917820.200         481.606          43.000  
E21  22227346.795   116805714.260         288.182          43.000    22227352.721    89500643.468         220.864          48.000  
G29  20338198.839   106877976.860        2670.533          45.000    20338208.975    83281601.922        2080.994          40.000  
G13  21463776.836   112792696.411       -4562.914          39.000                                                                  
E19  22527978.717   118385354.707         420.389          39.000    22527980.868    90710877.234         322.350          41.000  
E07  22892423.179   120300410.561       -3704.116          42.000    22892436.634    92178212.915       -2838.039          44.000  
E15  22658187.624   119069725.914         880.448          44.000    22658191.788    91235510.276         674.766          44.000  
E13  23878896.751   125484499.599        2001.520          40.000    23878913.077    96150555.146        1533.663          44.000  
G24  17105537.440    89890464.986        -610.864          48.000    17105536.068    70044794.444        -475.934          46.000  
G15  19829037.166   104202146.405       -3869.191          42.000    19829046.748    81196490.362       -3014.996          38.000  
E30  23454446.987   123254109.546       -2433.454          44.000    23454449.732    94441567.711       -1864.611          46.000  
E27  20775626.000   109176914.070       -1287.069          46.000    20775628.696    83655191.948        -986.158          50.000  
> 2024 06 08 20 50 00.4890000  0 29                     
G11  19882289.466   104482388.883        1217.695          48.000    19882289.803    81414975.244         948.850          42.000  
G12  18002882.029    94606041.620        -650.085          50.000    18002879.842    73719547.997        -506.317          44.000  
E34  24118306.055   126742590.101       -1331.170          42.000    24118310.341    97114477.944       -1020.015          46.000  
R13  18836635.678   100586583.3003      -2400.430          39.000    18836634.929    78234282.442       -1867.248          37.000  
R17  19148344.500   102466665.432        3545.557          47.000    19148350.529    79696408.351        2757.346          46.000  
R14  17146311.453    91399775.255         -94.458          53.000    17146312.221    71088916.308         -73.375          50.000  
R03  20168304.092   107962355.938       -4745.018          48.000    20168318.008    83970644.358       -3690.772          45.000  
R04  18282896.960    97904022.974       -3208.207          50.000    18282898.489    76147568.392       -2495.281          45.000  
G32  20674956.482   108647656.384        1290.247          45.000    20674958.359    84660427.530        1005.511          42.000  
G19  20651810.392   108526307.528       -4217.328          46.000                                                                  
S31  35379529.450   185920602.132        -787.347          46.000  
S33  36373019.120   191141499.997        -788.194          41.000  
G06  20038112.804   105301197.359        -608.962          44.000    20038113.787    82053011.820        -474.599          43.000  
R23  18650733.186    99768850.185       -3226.030          48.000                                                                  
R24  16804707.761    89862585.212         817.718          52.000    16804704.104    69893227.617         635.943          47.000  
R05  19154608.377   102392357.744         -21.875          49.000    19154609.992    79638482.910         -16.971          47.000  
R15  19499254.814   104198128.284        1444.640          47.000    19499256.520    81042980.803        1123.530          46.000  
G25  19024736.501    99975920.740         612.301          44.000    19024738.391    77903444.802         476.938          43.000  
E21  22225715.124   116797141.374         283.484          43.000    22225721.083    89494074.840         217.205          48.000  
G29  20322980.309   106798007.064        2660.987          47.000    20322990.829    83219288.392        2073.480          40.000  
G13  21489827.770   112929594.424       -4563.648          39.000                                                                  
E19  22525623.265   118372973.024         405.395          40.000    22525624.609    90701389.980         310.510          40.000  
E07  22913584.538   120411612.955       -3709.227          42.000    22913598.392    92263419.546       -2842.007          44.000  
E15  22653197.161   119043501.049         868.047          44.000    22653201.300    91215416.106         665.232          44.000  
E13  23867472.044   125424466.990        2001.164          41.000    23867489.100    96104556.711        1533.057          44.000  
G24  17109074.705    89909053.222        -628.192          48.000    17109073.627    70059278.818        -489.607          47.000  
G15  19851142.209   104318307.768       -3874.656          43.000    19851151.631    81287005.162       -3019.440          38.000  
E30  23468343.797   123327139.190       -2434.853          44.000    23468346.829    94497525.492       -1865.838          46.000  
E27  20782987.102   109215584.919       -1290.888          49.000    20782988.843    83684822.864        -989.034          52.000  
> 2024 06 08 20 50 30.4890000  0 29                     
G11  19875376.528   104446061.026        1204.129          47.000    19875376.616    81386667.969         938.322          42.000  
G12  18006614.438    94625655.287        -657.455          49.000    18006610.384    73734831.440        -512.393          43.000  
E34  24125952.651   126782772.564       -1347.576          42.000    24125956.590    97145267.193       -1032.545          46.000  
R13  18850143.565   100658712.3101      -2408.243          38.000    18850142.562    78290383.121       -1873.055          37.000  
R17  19128488.295   102360417.747        3537.690          45.000    19128494.647    79613771.938        2751.630          45.000  
R14  17146862.553    91402708.202        -101.235          52.000    17146861.145    71091197.582         -78.743          48.000  
R03  20194899.244   108104723.807       -4746.051          47.000    20194913.373    84081375.104       -3691.517          44.000  
R04  18300928.885    98000578.329       -3228.865          49.000    18300929.478    76222666.739       -2511.285          45.000  
G32  20667642.002   108609224.495        1271.771          43.000    20667644.562    84630480.601         991.125          42.000  
G19  20675907.304   108652938.484       -4224.780          44.000                                                                  
S31  35384032.100   185944264.650        -790.451          46.000  
S33  36377527.091   191165190.263        -791.224          41.000  
G06  20041647.422   105319773.241        -629.522          43.000    20041648.632    82067486.547        -490.673          43.000  
R23  18668895.013    99866003.364       -3250.849          48.000                                                                  
R24  16800197.779    89838470.369         789.853          51.000    16800194.702    69874471.713         614.347          47.000  
R05  19154809.287   102393422.998         -49.247          47.000    19154808.232    79639311.408         -38.288          45.000  
R15  19491149.695   104154813.778        1442.996          47.000    19491150.803    81009291.802        1122.229          45.000  
G25  19021257.232    99957639.059         606.364          43.000    19021258.671    77889199.477         472.642          42.000  
E21  22224110.360   116788713.783         278.374          42.000    22224117.250    89487617.549         213.276          48.000  
G29  20307816.877   106718328.221        2650.829          46.000    20307827.859    83157201.591        2065.427          40.000  
G13  21515883.397   113066519.795       -4564.919          39.000                                                                  
E19  22523354.513   118361050.498         389.506          40.000    22523355.716    90692254.528         298.836          40.000  
E07  22934775.651   120522969.571       -3714.765          42.000    22934788.919    92348744.362       -2846.440          44.000  
E15  22648277.204   119017646.121         855.473          45.000    22648281.235    91195605.374         655.611          45.000  
E13  23856053.580   125364463.194        1999.418          41.000    23856070.363    96058580.329        1532.158          45.000  
G24  17112711.737    89928164.738        -645.960          48.000    17112710.594    70074170.906        -503.371          47.000  
G15  19873279.117   104434635.936       -3880.444          42.000    19873288.859    81377649.875       -3023.632          37.000  
E30  23482249.555   123400211.943       -2436.765          44.000    23482252.157    94553516.299       -1867.078          46.000  
E27  20790368.824   109254374.810       -1295.148          50.000    20790370.623    83714545.016        -992.410          53.000  
> 2024 06 08 20 56 28.4890000  0 29                     
G11  19798524.766   104042211.535        1058.754          47.000    19798523.032    81071982.653         824.960          39.000  
G12  18053958.058    94874443.909        -722.688          50.000    18053953.380    73928693.098        -563.359          44.000  
E34  24224012.611   127298081.353       -1522.018          43.000    24224015.802    97540114.886       -1166.120          45.000  
R13  19014214.440   101534836.8251      -2478.139          35.000    19014215.743    78971826.903       -1927.339          38.000  
R17  18894704.608   101109416.150        3456.793          49.000    18894707.164    78640779.114        2688.654          45.000  
R14  17155917.901    91450989.924        -160.231          50.000    17155918.677    71128750.504        -124.598          48.000  
R03  20512011.740   109802261.763       -4725.305          48.000    20512021.767    85401686.093       -3675.049          42.000  
R04  18524245.540    99196411.113       -3439.355          50.000    18524246.267    77152755.696       -2675.092          46.000  
G32  20588129.330   108191376.337        1070.197          45.000    20588131.128    84304884.714         833.929          42.000  
G19  20966040.246   110177601.064       -4281.878          45.000                                                                  
S31  35438591.814   186230979.771        -802.555          46.000  
S33  36432145.097   191452211.548        -803.274          42.000  
G06  20092480.149   105586903.701        -854.259          43.000    20092480.509    82275640.740        -666.149          40.000  
R23  18895688.569   101079196.858       -3514.979          46.000                                                                  
R24  16758094.824    89613331.971         475.076          51.000    16758091.935    69699365.125         369.611          47.000  
R05  19168626.666   102467299.638        -354.405          46.000    19168629.601    79696770.654        -275.775          47.000  
R15  19394631.334   103639054.432        1447.575          47.000    19394630.607    80608147.149        1125.708          44.000  
G25  18981850.619    99750565.885         559.588          44.000    18981853.103    77727845.020         436.135          43.000  
E21  22206756.685   116697523.648         240.499          42.000    22206762.778    89417746.172         184.302          49.000  
G29  20130980.109   105789072.889        2547.782          48.000    20130987.761    82433114.606        1985.234          40.000  
G13  21826731.733   114700255.8691      -4549.847          35.000                                                                  
E19  22502773.637   118252900.875         222.640          40.000    22502776.301    90609386.780         170.914          42.000  
E07  23189477.705   121861419.933       -3752.080          41.000    23189492.572    93374305.125       -2875.188          45.000  
E15  22594809.942   118736680.270         721.639          44.000    22594814.128    90980321.172         553.143          46.000  
E13  23720040.314   124649735.744        2000.682          41.000    23720056.719    95510937.886        1533.108          45.000  
G24  17163574.237    90195450.922        -839.217          49.000    17163572.619    70282445.998        -653.982          46.000  
G15  20139385.176   105833007.111       -3920.259          42.000    20139396.322    82467283.064       -3055.109          36.000  
E30  23648518.888   124273963.091       -2435.766          44.000    23648521.242    95223014.008       -1866.493          43.000  
E27  20879865.755   109724688.570       -1323.026          49.000    20879865.477    84074915.722       -1013.755          50.000  
> 2024 06 08 20 56 30.4890000  0 29                     
G11  19798121.900   104040094.476        1058.141          46.000    19798120.031    81070332.999         824.533          39.000  
G12  18054233.029    94875889.304        -722.909          50.000    18054228.427    73929819.377        -563.419          44.000  
E34  24224591.851   127301125.598       -1522.750          43.000    24224595.101    97542447.483       -1166.593          45.000  
R13  19015144.835   101539792.882       -2478.101          34.000    19015143.817    78975681.646       -1927.646          37.000  
R17  18893412.461   101102502.438        3456.601          49.000    18893415.114    78635401.831        2688.482          45.000  
R14  17155977.891    91451310.255        -160.371          49.000    17155978.695    71128999.651        -124.732          48.000  
R03  20513776.973   109811711.187       -4724.756          47.000    20513787.061    85409035.648       -3674.756          42.000  
R04  18525530.478    99203290.308       -3440.079          50.000    18525530.794    77158106.138       -2675.653          46.000  
G32  20587722.195   108189236.735        1069.263          45.000    20587724.009    84303217.508         833.124          42.000  
G19  20967669.797   110186164.851       -4282.114          44.000                                                                  
S31  35438897.060   186232584.251        -802.365          46.000  
S33  36432450.717   191453817.659        -803.076          41.000  
G06  20092805.393   105588613.508        -855.618          42.000    20092805.811    82276973.037        -666.405          40.000  
R23  18897002.985   101086227.811       -3516.136          46.000                                                                  
R24  16757917.546    89612383.060         473.476          50.000    16757914.436    69698627.085         368.399          47.000  
R05  19168759.664   102468009.636        -355.920          46.000    19168762.414    79697322.849        -276.803          47.000  
R15  19394089.480   103636158.912        1447.739          47.000    19394088.878    80605895.083        1125.960          45.000  
G25  18981637.575    99749446.062         559.513          44.000    18981639.877    77726972.427         436.288          43.000  
E21  22206664.940   116697042.168         240.527          42.000    22206671.126    89417377.249         184.354          49.000  
G29  20130010.207   105783977.371        2547.484          48.000    20130018.079    82429144.115        1985.009          40.000  
G13  21828463.531   114709355.561       -4550.346          34.000                                                                  
E19  22502688.880   118252455.398         222.190          40.000    22502691.524    90609045.455         170.267          42.000  
E07  23190905.755   121868924.087       -3752.131          41.000    23190920.631    93380055.020       -2875.149          45.000  
E15  22594534.954   118735236.955         721.177          44.000    22594539.540    90979215.283         552.454          46.000  
E13  23719278.681   124645733.547        2000.902          41.000    23719295.262    95507871.298        1533.283          45.000  
G24  17163893.880    90197129.947        -840.139          48.000    17163892.058    70283754.328        -654.554          46.000  
G15  20140877.071   105840847.415       -3920.098          42.000    20140888.243    82473392.336       -3054.472          36.000  
E30  23649445.532   124278834.052       -2435.450          44.000    23649448.203    95226746.296       -1866.088          43.000  
E27  20880369.183   109727334.162       -1322.890          49.000    20880368.988    84076942.870       -1013.658          50.000  
> 2024 06 08 20 57 00.4890000  0 29                     
G11  19792106.423   104008486.584        1049.223          46.000    19792104.784    81045703.672         817.630          39.000  
G12  18058363.139    94897598.611        -724.218          49.000    18058360.141    73946735.780        -564.351          44.000  
E34  24233314.636   127346964.965       -1533.293          43.000    24233317.965    97577571.242       -1174.888          45.000  
R13  19029074.157   101614174.051       -2481.041          34.000    19029072.691    79033533.609       -1929.282          38.000  
R17  18874043.219   100998862.199        3452.920          47.000    18874047.509    78554793.452        2685.669          46.000  
R14  17156882.769    91456140.623        -161.432          49.000    17156884.397    71132756.606        -125.593          47.000  
R03  20540236.853   109953352.942       -4717.902          47.000    20540246.134    85519201.808       -3669.263          41.000  
R04  18544840.405    99306688.138       -3452.755          50.000    18544840.082    77238526.362       -2685.432          46.000  
G32  20581656.262   108157362.192        1055.908          43.000    20581658.509    84278380.228         822.833          42.000  
G19  20992116.375   110314632.934       -4282.361          44.000                                                                  
S31  35443469.415   186256611.563        -799.486          45.000  
S33  36437027.401   191477869.828        -800.119          41.000  
G06  20097732.665   105614508.344        -870.483          42.000    20097733.062    82297150.949        -678.390          40.000  
R23  18916771.594   101191977.926       -3533.419          44.000                                                                  
R24  16755325.458    89598521.935         450.656          50.000    16755322.153    69687846.354         350.434          48.000  
R05  19170819.679   102479010.491        -377.306          48.000    19170820.187    79705879.066        -293.402          46.000  
R15  19385948.071   103592663.293        1452.261          44.000    19385950.303    80572065.325        1129.447          46.000  
G25  18978443.152    99732652.734         560.039          45.000    18978443.179    77713886.817         436.307          42.000  
E21  22205288.599   116689811.765         241.773          41.000    22205295.003    89411837.190         185.065          49.000  
G29  20115481.848   105707633.338        2542.352          47.000    20115490.159    82369655.979        1981.161          40.000  
G13  21854422.191   114845765.836       -4544.458          34.000                                                                  
E19  22501449.320   118245942.656         212.121          40.000    22501452.255    90604055.188         162.505          43.000  
E07  23212323.292   121981473.442       -3751.096          41.000    23212338.777    93466293.678       -2873.995          45.000  
E15  22590439.373   118713715.928         713.685          43.000    22590444.103    90962725.263         546.878          46.000  
E13  23707844.931   124585648.758        2004.694          41.000    23707860.938    95461832.724        1536.157          45.000  
G24  17168725.655    90222521.856        -852.602          48.000    17168724.687    70303540.241        -664.326          47.000  
G15  20163254.137   105958438.924       -3919.068          42.000    20163265.351    82565021.563       -3054.478          36.000  
E30  23663337.971   124351841.121       -2431.402          44.000    23663341.000    95282686.802       -1863.142          43.000  
E27  20887915.699   109766997.319       -1321.244          48.000    20887917.213    84107334.195       -1012.306          50.000  
> 2024 06 08 20 57 30.4890000  0 29                     
G11  19786136.946   103977121.886        1042.112          45.000    19786135.438    81021263.802         812.066          38.000  
G12  18062497.317    94919324.344        -723.785          50.000    18062493.997    73963664.960        -564.004          43.000  
E34  24242093.717   127393097.320       -1542.013          43.000    24242096.586    97612919.500       -1181.587          44.000  
R13  19043010.837   101688592.800       -2480.889          34.000    19043009.639    79091414.854       -1929.467          39.000  
R17  18854691.387   100895311.125        3450.887          48.000    18854696.267    78474254.429        2683.894          46.000  
R14  17157791.783    91460982.274        -160.852          51.000    17157791.276    71136522.393        -125.134          46.000  
R03  20566654.495   110094768.716       -4709.351          48.000    20566663.518    85629192.200       -3662.696          40.000  
R04  18564215.339    99410439.343       -3463.517          50.000    18564215.109    77319221.432       -2693.867          46.000  
G32  20575660.952   108125864.185        1044.177          43.000    20575663.454    84253836.371         813.843          41.000  
G19  21016559.697   110443084.663       -4280.828          45.000                                                                  
S31  35448020.343   186280528.342        -794.745          46.000  
S33  36441583.382   191501809.902        -795.623          41.000  
G06  20102741.902   105640831.805        -883.935          43.000    20102741.861    82317662.846        -688.783          40.000  
R23  18936633.334   101298223.365       -3549.113          46.000                                                                  
R24  16752856.907    89585323.264         429.420          49.000    16752854.364    69677580.839         334.100          48.000  
R05  19172994.190   102490633.500        -397.108          48.000    19172993.249    79714919.100        -308.687          45.000  
R15  19377779.189   103549011.700        1458.474          45.000    19377782.310    80538114.236        1134.155          46.000  
G25  18975242.537    99715830.728         561.856          45.000    18975241.769    77700778.851         437.933          42.000  
E21  22203902.342   116682529.594         244.258          41.000    22203909.114    89406257.441         187.095          48.000  
G29  20100977.737   105631420.289        2538.979          46.000    20100986.789    82310269.896        1978.493          39.000  
G13  21880342.393   114981979.507       -4536.691          34.000                                                                  
E19  22500262.701   118239711.818         203.592          39.000    22500266.722    90599280.906         156.030          42.000  
E07  23233729.655   122093961.307       -3747.885          41.000    23233745.098    93552485.206       -2871.828          45.000  
E15  22586382.520   118692400.713         707.812          43.000    22586388.025    90946392.952         542.368          46.000  
E13  23696386.374   124525432.195        2009.969          41.000    23696402.098    95415693.212        1540.167          46.000  
G24  17173624.219    90248265.389        -863.348          48.000    17173623.902    70323600.138        -672.773          47.000  
G15  20185619.886   106075967.839       -3915.967          43.000    20185631.318    82656601.965       -3051.401          36.000  
E30  23677203.194   124424704.405       -2425.666          44.000    23677206.518    95338517.104       -1858.643          43.000  
E27  20895447.543   109806585.261       -1317.707          46.000    20895451.639    84137667.863       -1009.681          51.000  
