     3.00           OBSERVATION DATA    M: Mixed            RINEX VERSION / TYPE
CONVBIN demo5 b34j                      20240609 013620 UTC PGM / RUN BY / DATE 
log: SAUC00CHL_R_20241601645_15M_30S_MO.ubx                 COMMENT             
format: u-blox UBX                                          COMMENT             
format: u-blox UBX                                          COMMENT             
log: SAUC00CHL_R_20241601645_15M_30S_MO.ubx                 COMMENT             
SAUC00CHL                                                   MARKER NAME         
                                                            MARKER NUMBER       
GEODETIC                                                    MARKER TYPE         
El Sauce            Obstech                                 OBSERVER / AGENCY   
UNKNOWN             UBLOX-ZED-F9P                           REC # / TYPE / VERS 
UNKNWOWN            TWIVSP6037L                             ANT # / TYPE        
  1813185.0000 -5195981.0000 -3216438.0000                  APPROX POSITION XYZ 
        0.0000        0.0000        0.0000                  ANTENNA: DELTA H/E/N
G    8 C1C L1C D1C S1C C2X L2X D2X S2X                      SYS / # / OBS TYPES 
R    8 C1C L1C D1C S1C C2C L2C D2C S2C                      SYS / # / OBS TYPES 
E    8 C1X L1X D1X S1X C7X L7X D7X S7X                      SYS / # / OBS TYPES 
S    4 C1C L1C D1C S1C                                      SYS / # / OBS TYPES 
  2024    06    08    16    50   47.5030000     GPS         TIME OF FIRST OBS   
  2024    06    08    16    59   30.0030000     GPS         TIME OF LAST OBS    
                                                            END OF HEADER       
> 2024 06 08 16 50 47.5030000  0 25                     
E08  24800170.735   130325754.8821      -1485.442          47.000    24800170.867    99859972.5461      -1138.257          48.000  
E03  28375566.488   149114482.5731      -2992.181          38.000    28375579.869   114256547.4291      -2292.949          38.000  
G30  23310424.443   122497059.9821      -2790.788          47.000    23310425.287    95452224.9431      -2174.542          42.000  
R13  21475240.021   114676575.7651        892.004          40.000    21475240.037    89193127.4471        693.656          41.000  
R12  20486206.635   109433712.2271      -2083.268          51.000    20486205.417    85115388.4671      -1620.303          47.000  
R03  23822139.556   127521785.8411       3290.237          49.000    23822137.102    99183661.2331       2559.085          47.000  
R11  23961930.265   128045321.1571      -4363.491          47.000    23961927.399    99590815.3951      -3393.811          45.000  
G19  24535304.507   128934062.8931       2158.491          43.000                                                                  
S31  39582639.936   208008106.1921       -753.827          45.000  
S33  40571556.818   213204871.0881       -755.304          40.000  
G17  23988271.295   126059432.0371       1855.886          47.000    23988270.710    98228234.0211       1445.953          38.000  
E02  25991435.748   136585984.8461      -2829.203          46.000    25991438.507   104656828.6451      -2167.772          49.000  
R02  20324209.344   108453880.4551        743.552          51.000    20324209.213    84353048.4881        578.328          48.000  
R01  20905850.031   111753740.9271      -3199.907          48.000    20905851.096    86919689.0111      -2488.571          42.000  
E18  21274164.364   111796708.8911       -228.120          44.000    21274170.690    85662545.9561       -174.941          47.000  
G13  21679315.449   113925619.4751        952.081          49.000                                                                  
G20  23475311.989   123363440.5511      -3543.400          43.000                                                                  
E07  25039084.418   131581321.4611        799.993          47.000    25039088.225   100822063.9421        612.991          51.000  
G14  21551616.380   113254658.7231      -2478.335          45.000    21551614.773    88250410.1631      -1931.006          46.000  
G05  22513093.265   118307070.3701      -1934.865          47.000    22513093.198    92187311.1961      -1507.637          42.000  
G22  21063185.455   110687976.7751       -327.389          46.000                                                                  
G24  25962931.931   136436239.1731       1245.321          38.000    25962940.248   106314193.5171        970.130          42.000  
G15  23880294.194   125491821.4291       2121.382          44.000    23880292.810    97785891.2401       1652.711          41.000  
E30  24282655.167   127606381.4531       -303.993          45.000    24282658.383    97776426.4731       -233.127          49.000  
E27  26972600.514   141742070.5701       1810.984          44.000    26972611.822   108607672.7791       1387.745          46.000  
> 2024 06 08 16 51 00.0030000  0 25                     
E08  24803710.155   130344355.620       -1490.745          47.000    24803710.616    99874225.020       -1142.373          48.000  
E03  28382688.830   149151909.484       -2996.085          38.000    28382701.925   114285225.043       -2295.803          37.000  
G30  23317065.539   122531958.265       -2793.220          47.000    23317066.108    95479418.384       -2176.710          42.000  
R13  21473160.867   114665476.810         883.809          40.000    21473162.065    89184494.961         687.144          41.000  
R12  20491090.286   109459799.047       -2090.833          51.000    20491087.722    85135678.232       -1626.063          46.000  
R03  23814459.592   127480675.769        3287.189          48.000    23814457.091    99151686.761        2556.584          46.000  
R11  23972138.271   128099868.566       -4364.292          47.000    23972135.370    99633241.140       -3394.601          45.000  
G19  24530171.930   128907093.579        2156.549          43.000                                                                  
S31  39584435.040   208017539.828        -755.590          45.000  
S33  40573354.302   213214317.453        -756.555          41.000  
G17  23983861.374   126036258.255        1851.518          47.000    23983860.929    98210176.565        1443.095          38.000  
E02  25998170.139   136621374.750       -2833.539          46.000    25998173.029   104683945.569       -2171.232          49.000  
R02  20322479.593   108444649.551         733.099          51.000    20322479.397    84345868.896         570.040          48.000  
R01  20913343.742   111793801.672       -3209.909          47.000    20913344.830    86950847.345       -2496.764          42.000  
E18  21274722.878   111799647.089        -242.150          43.000    21274729.573    85664797.349        -185.618          46.000  
G13  21677055.938   113913746.042         947.400          49.000                                                                  
G20  23483745.643   123407758.942       -3547.759          43.000                                                                  
E07  25037185.626   131571342.312         796.461          47.000    25037189.150   100814417.583         610.237          51.000  
G14  21557520.050   113285684.546       -2486.108          45.000    21557519.023    88274586.115       -1937.238          46.000  
G05  22517706.133   118331309.989       -1943.373          47.000    22517705.788    92206199.164       -1514.564          42.000  
G22  21063975.387   110692127.041        -336.785          46.000                                                                  
G24  25959971.676   136420683.180        1243.840          38.000    25959979.977   106302072.025         969.157          42.000  
G15  23875251.799   125465322.046        2118.372          44.000    23875249.843    97765242.374        1650.866          41.000  
E30  24283386.697   127610223.781        -310.702          45.000    24283389.547    97779370.595        -238.133          49.000  
E27  26968297.030   141719456.799        1806.788          44.000    26968308.333   108590345.469        1384.445          46.000  
> 2024 06 08 16 51 30.0030000  0 25                     
E08  24812257.478   130389273.947       -1503.785          46.000    24812258.324    99908642.877       -1152.335          48.000  
E03  28399819.898   149241932.355       -3005.360          39.000    28399832.725   114354203.279       -2302.587          36.000  
G30  23333028.186   122615845.189       -2799.404          46.000    23333029.326    95544784.731       -2181.136          42.000  
R13  21468252.680   114639273.885         863.098          39.000    21468255.177    89164114.940         671.442          41.000  
R12  20502886.343   109522804.664       -2109.571          52.000    20502882.123    85184682.686       -1640.841          46.000  
R03  23796061.187   127382186.306        3278.927          48.000    23796056.920    99075083.832        2550.316          45.000  
R11  23996646.525   128230834.741       -4366.851          46.000    23996644.225    99735103.643       -3396.487          46.000  
G19  24517874.931   128842471.885        2151.544          43.000                                                                  
S31  39588760.363   208040268.935        -759.462          45.000  
S33  40577685.777   213237078.196        -761.166          41.000  
G17  23973322.201   125980875.144        1840.521          46.000    23973322.638    98167021.077        1433.836          39.000  
E02  26014378.124   136706548.008       -2844.749          46.000    26014381.096   104749208.122       -2179.725          49.000  
R02  20318431.095   108423044.889         707.180          51.000    20318430.168    84329065.262         549.941          48.000  
R01  20931429.188   111890476.493       -3234.974          48.000    20931429.578    87026038.768       -2515.812          42.000  
E18  21276202.270   111807423.208        -276.343          41.000    21276208.938    85670755.780        -211.676          46.000  
G13  21671681.444   113885502.002         935.510          49.000                                                                  
G20  23504031.207   123514358.731       -3558.818          42.000                                                                  
E07  25032664.743   131547585.064         787.382          48.000    25032668.100   100796213.978         603.322          50.000  
G14  21571768.273   113360558.079       -2505.444          46.000    21571767.082    88332929.077       -1952.264          46.000  
G05  22528862.986   118389939.422       -1965.116          47.000    22528863.019    92251884.235       -1530.931          43.000  
G22  21065964.456   110702581.586        -360.112          46.000                                                                  
G24  25952885.844   136383447.217        1239.109          39.000    25952894.665   106273057.165         965.310          42.000  
G15  23863180.587   125401887.650        2110.523          45.000    23863178.538    97715812.993        1644.594          41.000  
E30  24285209.316   127619797.745        -327.489          46.000    24285211.638    97786706.509        -250.990          50.000  
E27  26958011.261   141665411.893        1796.045          43.000    26958023.646   108548934.728        1376.142          45.000  
> 2024 06 08 16 52 00.0030000  0 25                     
E08  24820882.781   130434601.450       -1518.156          45.000    24820884.390    99943374.250       -1163.108          48.000  
E03  28417007.822   149332253.058       -3015.866          39.000    28417020.026   114423409.768       -2311.104          35.000  
G30  23349030.234   122699935.037       -2806.758          46.000    23349031.041    95610309.196       -2187.073          42.000  
R13  21463463.646   114613697.5551        841.546          38.000    21463466.238    89144226.190         654.565          41.000  
R12  20514788.901   109586387.158       -2129.371          52.000    20514787.296    85234135.771       -1656.073          49.000  
R03  23777711.877   127283963.737        3269.185          48.000    23777708.103    98998688.501        2542.753          46.000  
R11  24021171.602   128361891.574       -4370.391          46.000    24021169.654    99837036.657       -3399.201          46.000  
G19  24505610.220   128778018.774        2145.319          43.000                                                                  
S31  39593112.832   208063140.666        -764.986          45.000  
S33  40582044.322   213259981.664        -766.078          41.000  
G17  23962849.341   125925843.365        1828.115          46.000    23962850.649    98124139.282        1424.683          40.000  
E02  26030653.175   136792073.443       -2857.092          46.000    26030656.313   104814740.510       -2189.126          49.000  
R02  20314530.563   108402236.591         679.912          50.000    20314530.259    84312881.008         528.974          47.000  
R01  20949658.034   111987915.415       -3261.077          49.000    20949657.481    87101824.484       -2536.477          42.000  
E18  21277880.475   111816241.865        -311.621          41.000    21277887.243    85677513.042        -238.772          46.000  
G13  21666378.373   113857633.964         922.253          49.000                                                                  
G20  23524382.753   123621307.039       -3571.129          42.000                                                                  
E07  25028199.470   131524119.272         777.128          47.000    25028202.569   100778233.693         595.330          50.000  
G14  21586130.666   113436029.013       -2525.983          46.000    21586128.621    88391737.578       -1968.262          46.000  
G05  22540145.626   118449226.680       -1987.469          47.000    22540145.618    92298081.902       -1548.833          43.000  
G22  21068089.895   110713751.538        -384.667          46.000                                                                  
G24  25945829.264   136346367.957        1232.855          36.000    25945838.538   106244164.439         960.941          41.000  
G15  23851157.802   125338704.870        2101.422          45.000    23851155.285    97666579.647        1637.653          41.000  
E30  24287129.567   127629887.184        -345.161          46.000    24287131.818    97794437.412        -264.456          50.000  
E27  26947792.283   141611708.222        1784.189          43.000    26947804.126   108507785.464        1366.994          45.000  
> 2024 06 08 16 52 30.0030000  0 25                     
E08  24829590.098   130480358.642       -1532.634          45.000    24829592.104    99978434.898       -1174.451          49.000  
E03  28434256.478   149422891.135       -3027.019          40.000    28434267.771   114492859.401       -2319.274          34.000  
G30  23365074.523   122784247.272       -2814.425          46.000    23365075.411    95676006.934       -2193.024          41.000  
R13  21458797.027   114588777.893         819.253          39.000    21458798.872    89124844.247         637.142          40.000  
R12  20526801.875   109650564.039       -2149.476          51.000    20526802.110    85284051.110       -1671.832          49.000  
R03  23759418.356   127186032.556        3259.176          49.000    23759414.289    98922519.862        2534.926          46.000  
R11  24045717.444   128493057.222       -4374.226          47.000    24045715.536    99939054.320       -3402.267          46.000  
G19  24493381.400   128713757.093        2138.388          44.000                                                                  
S31  39597496.239   208086175.935        -770.868          45.000  
S33  40586433.742   213283048.426        -772.362          41.000  
G17  23952448.754   125871186.196        1815.229          46.000    23952449.699    98081549.406        1414.624          40.000  
E02  26046999.035   136877969.368       -2869.629          47.000    26047001.748   104880556.786       -2198.830          50.000  
R02  20310784.399   108382247.787         652.205          50.000    20310784.045    84297334.145         507.215          48.000  
R01  20968033.537   112086137.155       -3287.322          49.000    20968032.021    87178219.050       -2556.857          42.000  
E18  21279761.810   111826125.028        -347.425          43.000    21279767.946    85685085.962        -266.220          47.000  
G13  21661151.120   113830163.876         908.618          49.000                                                                  
G20  23544804.264   123728620.294       -3583.524          43.000                                                                  
E07  25023793.429   131500966.284         766.141          47.000    25023796.737   100760493.067         587.107          50.000  
G14  21600609.368   113512115.056       -2546.838          47.000    21600607.490    88451025.382       -1984.406          46.000  
G05  22551556.273   118509189.176       -2010.364          47.000    22551556.260    92344805.742       -1566.482          43.000  
G22  21070355.635   110725656.740        -409.471          46.000                                                                  
G24  25938806.324   136309464.898        1226.515          39.000    25938814.973   106215408.959         956.141          40.000  
G15  23839186.635   125275795.681        2092.117          46.000    23839183.808    97617559.518        1629.765          40.000  
E30  24289151.189   127640511.751        -363.246          46.000    24289153.733    97802578.357        -278.353          50.000  
E27  26937641.374   141558366.912        1771.779          43.000    26937653.293   108466913.845        1357.466          45.000  
> 2024 06 08 16 53 00.0030000  0 25                     
E08  24838380.943   130526555.784       -1546.998          45.000    24838383.169   100013832.640       -1185.430          49.000  
E03  28451567.261   149513855.906       -3037.541          40.000    28451578.326   114562559.413       -2327.716          35.000  
G30  23381162.670   122868791.237       -2821.886          46.000    23381163.382    95741885.239       -2198.891          42.000  
R13  21454254.439   114564521.5881        797.771          38.000    21454255.543    89105976.708         620.717          40.000  
R12  20538929.086   109715342.347       -2169.077          52.000    20538928.102    85334434.251       -1687.126          48.000  
R03  23741180.431   127088406.113        3249.220          49.000    23741176.370    98846588.213        2527.169          45.000  
R11  24070285.413   128624339.490       -4377.695          47.000    24070283.524   100041162.672       -3404.913          47.000  
G19  24481192.096   128649699.864        2131.975          43.000                                                                  
S31  39601912.694   208109383.829        -776.127          45.000  
S33  40590856.381   213306287.870        -777.386          40.000  
G17  23942121.595   125816916.244        1802.772          47.000    23942122.891    98039261.226        1404.625          41.000  
E02  26063416.352   136964243.786       -2881.928          46.000    26063419.352   104946663.065       -2208.208          50.000  
R02  20307195.078   108363091.339         624.772          50.000    20307194.247    84282434.680         486.080          48.000  
R01  20986555.479   112185149.070       -3313.220          49.000    20986554.653    87255228.164       -2576.896          42.000  
E18  21281846.650   111837084.295        -383.134          43.000    21281853.531    85693483.405        -293.516          47.000  
G13  21656001.665   113803103.390         895.258          48.000                                                                  
G20  23565295.130   123836305.079       -3595.284          41.000                                                                  
E07  25019449.054   131478137.150         755.770          47.000    25019452.284   100743000.600         579.132          50.000  
G14  21615206.739   113588823.557       -2567.175          46.000    21615204.736    88510798.231       -2000.397          47.000  
G05  22563096.957   118569835.723       -2032.698          46.000    22563096.845    92392062.605       -1583.724          43.000  
G22  21072763.029   110738306.779        -433.988          46.000                                                                  
G24  25931819.457   136272747.198        1221.227          36.000    25931827.500   106186797.997         951.428          40.000  
G15  23827269.829   125213171.886        2082.917          46.000    23827266.014    97568761.733        1622.903          40.000  
E30  24291275.843   127651680.821        -381.196          45.000    24291279.040    97811136.528        -292.085          51.000  
E27  26927561.553   141505398.709        1759.525          43.000    26927573.296   108426328.133        1348.210          45.000  
> 2024 06 08 16 53 30.0030000  0 25                     
E08  24847252.163   130573173.360       -1559.979          45.000    24847254.451   100049552.516       -1195.283          49.000  
E03  28468935.933   149605126.846       -3046.424          40.000    28468947.069   114632493.971       -2334.269          37.000  
G30  23397291.169   122953546.502       -2827.842          46.000    23397291.396    95807928.209       -2203.389          41.000  
R13  21449831.225   114540903.857         777.674          39.000    21449832.916    89087607.438         604.833          40.000  
R12  20551164.808   109780698.434       -2187.049          52.000    20551160.010    85385266.811       -1701.019          46.000  
R03  23722995.433   126991067.029        3240.717          49.000    23722993.169    98770880.079        2520.583          47.000  
R11  24094870.623   128755715.687       -4379.632          47.000    24094868.909   100143344.087       -3406.614          46.000  
G19  24469037.712   128585830.169        2126.911          44.000                                                                  
S31  39606358.037   208132743.990        -780.138          45.000  
S33  40595307.710   213329680.820        -781.169          40.000  
G17  23931865.157   125763017.150        1791.365          48.000    23931866.283    97997261.997        1395.984          41.000  
E02  26079901.847   137050874.964       -2892.671          46.000    26079904.696   105013042.710       -2216.317          50.000  
R02  20303758.024   108344750.071         598.772          50.000    20303757.368    84268169.255         465.719          48.000  
R01  21005220.745   112284928.778       -3337.728          47.000    21005220.757    87332834.449       -2595.868          43.000  
E18  21284133.625   111849101.424        -417.155          44.000    21284140.189    85702691.398        -319.750          47.000  
G13  21650926.433   113776434.579         883.337          48.000                                                                  
G20  23585853.311   123944338.614       -3605.792          42.000                                                                  
E07  25015162.991   131455613.251         746.763          48.000    25015166.363   100725742.018         572.232          50.000  
G14  21629917.999   113666132.127       -2586.023          47.000    21629915.998    88571038.672       -2015.076          47.000  
G05  22574763.285   118631143.497       -2053.536          46.000    22574763.924    92439834.732       -1600.134          44.000  
G22  21075307.648   110751681.437        -456.935          46.000                                                                  
G24  25924862.423   136236194.408        1216.657          37.000    25924870.481   106158315.471         948.196          38.000  
G15  23815403.919   125150815.454        2075.039          46.000    23815399.650    97520172.324        1616.683          39.000  
E30  24293499.938   127663373.911        -397.490          45.000    24293504.165    97820096.226        -304.560          51.000  
E27  26917549.147   141452784.652        1748.920          43.000    26917560.612   108386013.761        1340.055          45.000  
> 2024 06 08 16 54 00.0030000  0 25                     
E08  24856192.586   130620154.621       -1571.136          45.000    24856194.700   100085551.066       -1203.891          49.000  
E03  28486352.058   149696646.207       -3053.453          40.000    28486363.205   114702618.856       -2339.908          38.000  
G30  23413448.669   123038455.302       -2831.824          46.000    23413448.805    95874090.842       -2206.740          40.000  
R13  21445517.182   114517862.8731        759.105          38.000    21445519.214    89069690.647         590.453          41.000  
R12  20563496.671   109846571.145       -2203.285          51.000    20563491.638    85436501.210       -1713.641          47.000  
R03  23704855.548   126893961.409        3233.885          49.000    23704853.436    98695353.537        2515.238          47.000  
R11  24119462.342   128887125.418       -4380.035          48.000    24119460.337   100245551.567       -3406.524          46.000  
G19  24456908.728   128522093.545        2123.346          44.000                                                                  
S31  39610821.783   208156200.456        -782.475          45.000  
S33  40599777.714   213353169.420        -783.490          40.000  
G17  23921668.373   125709434.925        1781.712          48.000    23921669.485    97955509.669        1388.354          39.000  
E02  26096443.872   137137803.890       -2901.521          46.000    26096446.857   105079650.517       -2223.347          50.000  
R02  20300463.210   108327168.439         574.460          51.000    20300462.600    84254494.682         446.718          48.000  
R01  21024017.959   112385416.031       -3360.254          47.000    21024019.321    87410991.077       -2613.614          43.000  
E18  21286609.654   111862120.846        -449.700          44.000    21286617.486    85712667.379        -344.513          47.000  
G13  21645915.631   113750102.074         873.077          48.000                                                                  
G20  23606465.994   124052660.568       -3614.666          42.000                                                                  
E07  25010924.411   131433338.636         739.267          48.000    25010927.720   100708674.457         566.518          50.000  
G14  21644732.170   113743981.133       -2603.015          47.000    21644730.145    88631700.204       -2028.290          46.000  
G05  22586543.790   118693054.051       -2072.666          46.000    22586545.549    92488076.552       -1615.018          43.000  
G22  21077979.340   110765722.872        -478.213          46.000                                                                  
G24  25917926.642   136199748.718        1214.257          37.000    25917934.641   106129916.334         946.284          38.000  
G15  23803578.585   125088671.383        2068.971          47.000    23803574.208    97471748.374        1611.876          39.000  
E30  24295812.913   127675533.390        -412.141          44.000    24295817.807    97829413.278        -315.733          50.000  
E27  26907592.343   141400468.467        1740.264          42.000    26907604.448   108345927.634        1333.280          44.000  
> 2024 06 08 16 54 30.0030000  0 25                     
E08  24865188.658   130667427.030       -1579.973          45.000    24865190.247   100121772.715       -1210.682          49.000  
E03  28503801.523   149788340.457       -3058.686          40.000    28503812.479   114772877.724       -2343.855          40.000  
G30  23429621.932   123123444.233       -2833.670          47.000    23429621.712    95940315.899       -2208.160          40.000  
R13  21441298.318   114495334.444         743.079          38.000    21441300.306    89052168.643         577.756          41.000  
R12  20575907.756   109912883.623       -2217.180          48.000    20575907.513    85488077.549       -1724.427          49.000  
R03  23686744.910   126797017.869        3229.355          48.000    23686742.635    98619953.099        2511.759          47.000  
R11  24144046.235   129018492.181       -4377.524          48.000    24144043.382   100347725.647       -3404.691          46.000  
G19  24444792.135   128458420.219        2121.813          44.000                                                                  
S31  39615289.746   208179678.630        -782.414          45.000  
S33  40604251.992   213376679.865        -783.331          40.000  
G17  23911519.158   125656099.511        1774.248          48.000    23911519.715    97913949.639        1382.318          39.000  
E02  26113028.542   137224955.838       -2908.202          47.000    26113031.228   105146429.205       -2228.364          50.000  
R02  20297297.034   108310275.515         552.052          50.000    20297297.360    84241355.742         429.410          49.000  
R01  21042934.556   112486534.178       -3380.606          47.000    21042935.250    87489638.407       -2629.298          43.000  
E18  21289265.088   111876071.177        -479.874          44.000    21289271.760    85723356.663        -367.747          46.000  
G13  21640955.149   113724034.990         865.045          48.000                                                                  
G20  23627120.255   124161194.770       -3621.014          42.000                                                                  
E07  25006719.727   131411241.641         734.246          48.000    25006722.659   100691743.000         562.573          50.000  
G14  21659634.629   113822295.178       -2617.474          46.000    21659632.888    88692724.102       -2039.734          46.000  
G05  22598425.411   118755491.920       -2089.444          46.000    22598427.075    92536729.243       -1628.078          43.000  
G22  21080763.807   110780358.117        -497.243          45.000                                                                  
G24  25910997.500   136163336.499        1213.868          36.000    25911006.725   106101543.371         945.623          40.000  
G15  23791779.974   125026668.470        2065.036          47.000    23791775.716    97423434.415        1609.151          39.000  
E30  24298202.253   127688085.776        -424.425          45.000    24298206.070    97839031.368        -325.052          50.000  
E27  26897679.561   141348378.172        1733.015          41.000    26897691.493   108306014.595        1327.941          44.000  
> 2024 06 08 16 55 00.0030000  0 25                     
E08  24874230.124   130714939.161       -1587.126          45.000    24874231.338   100158178.057       -1216.074          49.000  
E03  28521273.477   149880157.210       -3061.765          39.000    28521285.086   114843230.469       -2345.695          41.000  
G30  23445799.869   123208460.954       -2833.728          47.000    23445800.047    96006562.620       -2208.018          40.000  
R13  21437164.046   114473261.1741        728.831          38.000    21437166.712    89034999.846         566.720          41.000  
R12  20588393.140   109979579.793       -2228.986          51.000    20588394.515    85539952.252       -1733.601          50.000  
R03  23668657.135   126700188.012        3226.291          49.000    23668654.264    98544641.039        2509.375          47.000  
R11  24168611.500   129149761.098       -4373.450          49.000    24168609.354   100449823.609       -3401.455          46.000  
G19  24432677.310   128394761.293        2122.232          43.000                                                                  
S31  39619752.058   208203127.172        -780.565          45.000  
S33  40608720.612   213400162.091        -781.593          41.000  
G17  23901407.260   125602961.881        1768.543          47.000    23901407.496    97872543.721        1378.200          37.000  
E02  26129645.631   137312277.141       -2912.880          47.000    26129648.041   105213337.653       -2231.957          50.000  
R02  20294251.049   108294021.124         531.696          50.000    20294251.280    84228713.455         413.530          48.000  
R01  21061959.520   112588228.523       -3398.711          48.000    21061959.397    87568733.863       -2643.473          43.000  
E18  21292088.503   111890902.152        -508.389          45.000    21292093.799    85734720.716        -389.406          46.000  
G13  21636035.863   113698183.558         858.740          48.000                                                                  
G20  23647805.419   124269886.093       -3625.059          44.000                                                                  
E07  25002539.097   131389271.711         730.832          48.000    25002541.993   100674908.905         560.033          51.000  
G14  21674614.624   113901020.039       -2630.353          45.000    21674613.871    88754068.083       -2049.597          46.000  
G05  22610397.964   118818402.966       -2104.285          47.000    22610398.540    92585750.622       -1639.602          43.000  
G22  21083651.814   110795534.909        -514.349          46.000                                                                  
G24  25904064.230   136126905.507        1215.664          35.000    25904073.797   106073155.731         946.759          40.000  
G15  23779998.513   124964756.970        2062.857          47.000    23779994.429    97375191.690        1607.385          40.000  
E30  24300656.419   127700978.726        -434.778          45.000    24300659.388    97848910.419        -333.171          50.000  
E27  26887799.784   141296462.855        1728.283          42.000    26887812.591   108266235.643        1324.348          45.000  
> 2024 06 08 16 55 30.0030000  0 25                     
E08  24883308.895   130762648.482       -1593.464          45.000    24883309.797   100194734.490       -1221.027          48.000  
E03  28538760.508   149972052.989       -3064.734          37.000    28538772.747   114913643.771       -2348.228          41.000  
G30  23461975.173   123293462.019       -2833.152          47.000    23461975.185    96072797.130       -2207.618          39.000  
R13  21433107.895   114451596.993         715.408          38.000    21433109.875    89018150.001         556.424          41.000  
R12  20600944.908   110046612.914       -2239.871          53.000    20600943.474    85592089.091       -1742.146          49.000  
R03  23650582.858   126603430.600        3224.081          49.000    23650578.917    98469385.317        2507.697          46.000  
R11  24193150.172   129280886.405       -4368.321          49.000    24193147.883   100551809.894       -3397.686          45.000  
G19  24420556.867   128331076.498        2123.369          41.000                                                                  
S31  39624200.233   208226503.151        -777.699          45.000  
S33  40613175.801   213423571.205        -778.766          42.000  
G17  23891325.707   125549982.468        1763.415          47.000    23891324.615    97831261.103        1373.967          36.000  
E02  26146285.995   137399723.066       -2916.835          47.000    26146288.738   105280341.587       -2234.967          50.000  
R02  20291317.369   108278364.625         511.940          51.000    20291316.973    84216536.184         398.150          48.000  
R01  21081083.813   112690452.850       -3416.180          48.000    21081082.237    87648241.489       -2656.899          43.000  
E18  21295070.100   111906572.225        -536.282          44.000    21295075.607    85746727.748        -410.833          45.000  
G13  21631149.678   113672506.650         853.101          48.000                                                                  
G20  23668510.504   124378688.565       -3628.529          45.000                                                                  
E07  24998374.579   131367387.138         728.202          48.000    24998377.665   100658140.206         557.968          51.000  
G14  21689665.266   113980110.308       -2642.389          45.000    21689664.332    88815696.814       -2058.911          46.000  
G05  22622451.444   118881742.484       -2118.355          47.000    22622451.284    92635105.888       -1650.817          42.000  
G22  21086635.091   110811210.039        -530.794          46.000                                                                  
G24  25897120.068   136090412.054        1217.505          36.000    25897128.868   106044719.432         948.592          40.000  
G15  23768226.433   124902896.112        2061.297          47.000    23768222.712    97326988.439        1605.845          40.000  
E30  24303166.880   127714168.837        -444.520          46.000    24303169.079    97859017.172        -340.596          49.000  
E27  26877947.479   141244680.611        1723.970          44.000    26877958.957   108226558.638        1321.089          45.000  
> 2024 06 08 16 56 00.0030000  0 25                     
E08  24892422.989   130810543.285       -1599.324          45.000    24892423.655   100231433.035       -1225.375          48.000  
E03  28556259.215   150064015.049       -3066.270          35.000    28556272.956   114984107.872       -2349.340          42.000  
G30  23478144.874   123378434.839       -2831.654          46.000    23478144.974    96139009.619       -2206.719          39.000  
R13  21429125.246   114430335.9211        702.484          38.000    21429127.335    89001609.038         546.356          41.000  
R12  20613554.162   110113967.765       -2250.225          51.000    20613550.541    85644476.196       -1750.078          46.000  
R03  23632519.502   126506737.492        3222.250          49.000    23632515.772    98394179.626        2506.203          46.000  
R11  24217659.148   129411853.489       -4362.595          49.000    24217656.579   100653673.098       -3393.127          45.000  
G19  24408431.695   128267357.328        2124.669          42.000                                                                  
S31  39628632.605   208249794.314        -774.593          45.000  
S33  40617614.264   213446895.546        -775.832          41.000  
G17  23881271.996   125497152.437        1758.671          46.000    23881270.725    97790094.909        1370.369          36.000  
E02  26162947.526   137487279.786       -2920.198          47.000    26162949.936   105347430.435       -2237.522          49.000  
R02  20288494.211   108263296.103         492.713          51.000    20288492.816    84204816.217         383.266          48.000  
R01  21100302.835   112793192.655       -3432.958          47.000    21100302.310    87728150.037       -2669.938          43.000  
E18  21298209.207   111923070.736        -563.327          44.000    21298215.022    85759369.577        -431.799          45.000  
G13  21626294.677   113646993.945         847.876          48.000                                                                  
G20  23689233.054   124487586.786       -3631.317          44.000                                                                  
E07  24994224.109   131345577.163         725.981          48.000    24994227.520   100641428.660         556.304          51.000  
G14  21704782.691   114059551.426       -2653.619          46.000    21704781.159    88877598.951       -2067.731          46.000  
G05  22634583.496   118945496.190       -2131.727          47.000    22634582.868    92684783.905       -1661.274          42.000  
G22  21089710.593   110827370.981        -546.526          47.000                                                                  
G24  25890162.201   136053843.535        1220.174          38.000    25890170.053   106016224.624         951.176          41.000  
G15  23756462.116   124841075.373        2060.261          47.000    23756458.644    97278816.424        1605.427          39.000  
E30  24305731.091   127727643.479        -453.621          46.000    24305733.143    97869341.959        -347.552          49.000  
E27  26868116.665   141193020.208        1720.267          43.000    26868127.881   108186974.982        1318.113          45.000  
> 2024 06 08 16 56 30.0030000  0 25                     
E08  24901571.870   130858619.020       -1605.457          45.000    24901572.338   100268270.219       -1230.109          48.000  
E03  28573771.205   150156037.911       -3068.385          35.000    28573784.852   115054618.548       -2350.959          42.000  
G30  23494308.488   123463374.003       -2830.561          47.000    23494308.327    96205195.881       -2205.553          39.000  
R13  21425216.064   114409460.583         689.286          39.000    21425217.711    88985372.731         536.495          41.000  
R12  20626218.358   110181636.091       -2260.731          50.000    20626215.730    85697107.120       -1758.358          46.000  
R03  23614467.682   126410107.262        3220.048          49.000    23614465.111    98319022.820        2504.534          47.000  
R11  24242137.223   129542655.410       -4357.154          49.000    24242134.149   100755407.877       -3388.811          44.000  
G19  24396299.040   128203601.781        2125.965          41.000                                                                  
S31  39633047.664   208272995.339        -771.840          45.000  
S33  40622035.798   213470130.271        -773.054          40.000  
G17  23871246.938   125444469.920        1753.733          46.000    23871245.489    97749043.668        1366.340          36.000  
E02  26179628.747   137574940.510       -2923.668          47.000    26179631.626   105414599.002       -2240.188          50.000  
R02  20285779.667   108248813.183         473.096          51.000    20285778.771    84193551.704         368.014          48.000  
R01  21119616.698   112896440.607       -3449.888          47.000    21119617.510    87808453.803       -2683.154          43.000  
E18  21301505.424   111940394.152        -591.079          44.000    21301511.203    85772643.430        -452.796          44.000  
G13  21621470.227   113621642.738         842.535          47.000                                                                  
G20  23709972.820   124596572.576       -3634.176          44.000                                                                  
E07  24990087.382   131323838.075         723.605          48.000    24990090.839   100624771.426         554.362          51.000  
G14  21719965.676   114139335.854       -2665.021          47.000    21719963.410    88939768.608       -2076.526          45.000  
G05  22646792.720   119009657.453       -2145.410          46.000    22646792.833    92734779.486       -1671.698          42.000  
G22  21092877.708   110844012.207        -562.564          47.000                                                                  
G24  25883187.383   136017194.342        1222.951          37.000    25883195.340   105987667.003         952.739          41.000  
G15  23744705.304   124779292.174        2058.928          47.000    23744701.844    97230673.681        1604.408          40.000  
E30  24308347.987   127741397.095        -462.820          46.000    24308350.382    97879880.509        -354.767          49.000  
E27  26858307.513   141141477.603        1716.368          42.000    26858319.467   108147481.581        1314.956          45.000  
> 2024 06 08 16 57 00.0030000  0 25                     
E08  24910754.139   130906871.557       -1611.538          45.000    24910754.690   100305242.873       -1234.874          48.000  
E03  28591294.393   150248116.491       -3070.221          35.000    28591306.975   115125171.923       -2352.575          42.000  
G30  23510464.866   123548274.661       -2829.431          46.000    23510464.507    96271352.147       -2204.642          38.000  
R13  21421378.808   114388971.7331        676.445          38.000    21421380.339    88969437.090         526.234          40.000  
R12  20638944.848   110249610.469       -2271.031          52.000    20638943.778    85749976.039       -1766.434          49.000  
R03  23596427.357   126313538.810        3217.735          49.000    23596425.622    98243914.087        2502.670          47.000  
R11  24266582.502   129673285.422       -4351.571          49.000    24266580.035   100857008.945       -3384.428          44.000  
G19  24384158.769   128139808.228        2127.008          41.000                                                                  
S31  39637444.790   208296101.892        -768.878          45.000  
S33  40626439.283   213493270.718        -770.006          40.000  
G17  23861249.775   125391933.312        1748.635          47.000    23861249.228    97708106.103        1362.687          38.000  
E02  26196329.083   137662698.980       -2927.119          48.000    26196331.523   105481842.465       -2242.866          49.000  
R02  20283174.782   108234914.401         453.406          51.000    20283174.241    84182741.526         352.720          48.000  
R01  21139024.972   113000189.823       -3466.694          46.000    21139026.211    87889147.473       -2696.451          44.000  
E18  21304957.655   111958539.273        -618.685          44.000    21304963.685    85786546.903        -474.037          44.000  
G13  21616676.191   113596450.241         836.920          47.000                                                                  
G20  23730728.427   124705638.688       -3636.889          44.000                                                                  
E07  24985962.963   131302166.694         721.110          47.000    24985966.958   100608166.057         552.574          51.000  
G14  21735212.321   114219456.662       -2676.434          47.000    21735209.764    89002200.373       -2085.443          45.000  
G05  22659078.032   119074219.005       -2158.901          46.000    22659079.096    92785086.986       -1682.066          42.000  
G22  21096135.176   110861128.683        -578.635          46.000                                                                  
G24  25876195.173   135980459.506        1225.354          35.000    25876204.479   105959042.603         955.350          41.000  
G15  23732954.415   124717543.883        2057.498          47.000    23732951.370    97182558.110        1603.361          40.000  
E30  24311016.876   127755424.676        -472.413          45.000    24311019.922    97890628.954        -361.911          50.000  
E27  26848521.158   141090049.273        1712.313          43.000    26848532.712   108108075.721        1312.040          45.000  
> 2024 06 08 16 57 30.0030000  0 25                     
E08  24919970.665   130955308.074       -1617.339          45.000    24919971.953   100342356.499       -1239.318          48.000  
E03  28608828.287   150340257.003       -3071.977          35.000    28608840.818   115195772.727       -2353.983          41.000  
G30  23526614.748   123633143.085       -2828.294          46.000    23526614.533    96337483.335       -2203.916          38.000  
R13  21417615.752   114368875.548         663.754          38.000    21417616.301    88953806.866         515.991          40.000  
R12  20651729.596   110317894.524       -2280.968          52.000    20651727.955    85803085.811       -1774.071          50.000  
R03  23578401.227   126217042.563        3215.539          49.000    23578399.567    98168861.511        2501.063          47.000  
R11  24290996.885   129803748.190       -4345.783          49.000    24290994.643   100958479.908       -3379.962          44.000  
G19  24372013.391   128075986.305        2128.188          41.000                                                                  
S31  39641825.216   208319120.796        -765.496          45.000  
S33  40630826.320   213516323.983        -766.722          42.000  
G17  23851281.986   125339552.852        1743.476          46.000    23851282.221    97667290.209        1358.674          39.000  
E02  26213048.436   137750560.192       -2930.136          47.000    26213051.038   105549164.668       -2245.238          49.000  
R02  20280681.133   108221608.964         433.833          50.000    20280681.284    84172392.847         337.417          48.000  
R01  21158528.825   113104444.744       -3483.319          46.000    21158529.427    87970234.466       -2709.198          44.000  
E18  21308569.473   111977514.140        -646.125          44.000    21308574.457    85801086.187        -495.053          44.000  
G13  21611914.371   113571425.540         831.433          47.000                                                                  
G20  23751498.081   124814788.262       -3639.465          43.000                                                                  
E07  24981853.443   131280571.154         718.800          47.000    24981857.636   100591618.807         550.729          51.000  
G14  21750523.930   114299918.174       -2687.463          48.000    21750520.861    89064897.607       -2093.994          45.000  
G05  22671441.270   119139185.232       -2171.987          47.000    22671442.544    92835709.821       -1692.277          43.000  
G22  21099483.878   110878726.798        -594.379          46.000                                                                  
G24  25869190.200   135943645.230        1228.869          37.000    25869198.975   105930356.367         957.276          40.000  
G15  23721212.116   124655839.425        2056.262          47.000    23721209.286    97134476.712        1602.292          40.000  
E30  24313738.779   127769732.450        -481.332          45.000    24313742.749    97901592.077        -368.833          50.000  
E27  26838757.852   141038742.923        1708.347          43.000    26838769.531   108068763.334        1309.037          45.000  
> 2024 06 08 16 58 00.0030000  0 25                     
E08  24929220.629   131003917.205       -1623.367          45.000    24929222.429   100379602.383       -1243.854          48.000  
E03  28626373.086   150432446.987       -3073.696          36.000    28626384.159   115266411.439       -2355.380          41.000  
G30  23542756.264   123717967.004       -2826.937          46.000    23542756.135    96403579.805       -2202.772          38.000  
R13  21413921.221   114349150.7681        650.373          38.000    21413923.856    88938472.494         506.212          39.000  
R12  20664567.708   110386473.369       -2291.063          51.000    20664566.152    85856424.865       -1781.859          50.000  
R03  23560387.440   126120610.641        3213.074          48.000    23560385.254    98093858.958        2499.184          47.000  
R11  24315377.807   129934029.495       -4339.747          49.000    24315375.263   101059809.733       -3375.441          44.000  
G19  24359861.271   128012127.371        2128.959          42.000                                                                  
S31  39646186.780   208342038.963        -762.598          45.000  
S33  40635194.582   213539277.747        -763.534          40.000  
G17  23841341.486   125287319.600        1738.605          46.000    23841342.855    97626589.019        1354.478          40.000  
E02  26229785.267   137838510.517       -2933.374          47.000    26229787.512   105616555.122       -2247.649          49.000  
R02  20278297.156   108208887.548         414.055          50.000    20278297.438    84162498.396         322.100          49.000  
R01  21178124.042   113209191.009       -3500.045          47.000    21178124.632    88051703.628       -2722.079          44.000  
E18  21312336.828   111997308.105        -673.692          46.000    21312341.201    85816253.130        -516.204          45.000  
G13  21607182.366   113546558.695         826.190          47.000                                                                  
G20  23772282.166   124924006.681       -3641.917          44.000                                                                  
E07  24977756.319   131259040.932         716.491          47.000    24977760.734   100575121.612         549.052          52.000  
G14  21765897.372   114380706.052       -2698.517          47.000    21765894.387    89127849.174       -2102.960          46.000  
G05  22683879.100   119204542.570       -2185.292          47.000    22683880.393    92886637.421       -1702.458          44.000  
G22  21102922.012   110896794.344        -610.303          46.000                                                                  
G24  25862167.890   135906739.140        1231.429          35.000    25862175.614   105901598.544         959.639          41.000  
G15  23709476.409   124594168.910        2054.983          46.000    23709473.840    97086421.774        1601.519          40.000  
E30  24316512.300   127784308.054        -490.431          45.000    24316516.555    97912760.407        -375.792          50.000  
E27  26829016.111   140987547.654        1704.449          44.000    26829027.165   108029536.057        1305.969          45.000  
> 2024 06 08 16 58 30.0030000  0 25                     
E08  24938505.262   131052707.255       -1629.160          45.000    24938506.913   100416986.900       -1248.337          48.000  
E03  28643927.119   150524693.842       -3075.695          37.000    28643938.350   115337093.693       -2356.685          40.000  
G30  23558890.833   123802753.899       -2825.581          46.000    23558890.226    96469647.471       -2202.014          38.000  
R13  21410302.076   114329822.588         637.419          38.000    21410303.916    88923439.632         496.087          40.000  
R12  20677458.728   110455351.927       -2300.910          49.000    20677457.812    85909996.996       -1789.583          46.000  
R03  23542386.782   126024254.400        3210.549          48.000    23542384.173    98018915.264        2497.161          46.000  
R11  24339725.162   130064135.185       -4333.831          49.000    24339722.988   101161002.964       -3370.757          45.000  
G19  24347704.256   127948242.972        2129.950          42.000                                                                  
S31  39650530.679   208364865.708        -759.482          45.000  
S33  40639544.677   213562138.782        -760.438          41.000  
G17  23831432.227   125235244.630        1733.300          46.000    23831433.243    97586011.182        1350.316          40.000  
E02  26246539.492   137926556.052       -2936.318          47.000    26246541.714   105684018.531       -2250.018          49.000  
R02  20276024.951   108196760.815         394.399          50.000    20276025.332    84153066.471         306.752          49.000  
R01  21197812.361   113314434.292       -3516.399          47.000    21197812.934    88133559.346       -2734.944          44.000  
E18  21316261.110   112017930.196        -701.017          46.000    21316265.348    85832054.641        -537.349          45.000  
G13  21602482.501   113521859.614         820.465          48.000                                                                  
G20  23793079.624   125033298.786       -3644.164          44.000                                                                  
E07  24973673.454   131237585.253         714.118          47.000    24973677.913   100558681.543         547.152          52.000  
G14  21781333.593   114461825.764       -2709.271          47.000    21781331.273    89191059.302       -2111.346          46.000  
G05  22696391.545   119270297.103       -2198.367          47.000    22696393.416    92937874.510       -1712.937          43.000  
G22  21106450.768   110915338.694        -626.064          46.000                                                                  
G24  25855129.438   135869748.563        1234.267          36.000    25855135.808   105872774.884         962.024          39.000  
G15  23697749.157   124532542.529        2053.583          46.000    23697747.383    97038401.253        1599.899          41.000  
E30  24319338.495   127799158.859        -499.438          45.000    24319342.710    97924139.590        -382.731          50.000  
E27  26819296.948   140936472.378        1700.644          44.000    26819307.422   107990400.684        1302.921          45.000  
> 2024 06 08 16 59 00.0030000  0 25                     
E08  24947823.572   131101674.601       -1635.294          45.000    24947825.177   100454507.273       -1253.082          48.000  
E03  28661491.264   150616992.911       -3077.484          38.000    28661502.563   115407815.950       -2358.312          40.000  
G30  23575017.173   123887499.460       -2824.231          46.000    23575017.362    96535682.881       -2200.367          38.000  
R13  21406752.645   114310805.3421        625.380          37.000    21406756.850    88908704.603         486.415          41.000  
R12  20690409.642   110524523.066       -2310.593          51.000    20690405.225    85963796.799       -1797.052          46.000  
R03  23524399.875   125927973.257        3208.005          48.000    23524397.033    97944029.981        2495.062          46.000  
R11  24364038.799   130194059.598       -4327.826          49.000    24364037.201   101262055.174       -3366.164          45.000  
G19  24335541.959   127884331.300        2130.891          42.000                                                                  
S31  39654856.317   208387596.811        -756.146          45.000  
S33  40643877.279   213584904.893        -757.283          41.000  
G17  23821552.816   125183327.583        1727.883          46.000    23821553.589    97545556.381        1346.663          40.000  
E02  26263311.287   138014691.204       -2939.333          47.000    26263313.567   105751550.627       -2252.339          49.000  
R02  20273863.660   108185227.024         374.421          50.000    20273863.874    84144095.705         291.247          48.000  
R01  21217592.347   113420168.099       -3532.793          47.000    21217593.137    88215796.558       -2747.595          44.000  
E18  21320342.141   112039377.504        -728.717          46.000    21320346.278    85848488.452        -558.317          44.000  
G13  21597814.098   113497326.157         814.948          48.000                                                                  
G20  23813891.007   125142657.250       -3646.520          45.000                                                                  
E07  24969604.087   131216201.466         711.565          47.000    24969608.814   100542296.558         545.200          52.000  
G14  21796831.589   114543270.864       -2720.142          46.000    21796829.925    89254522.956       -2119.775          46.000  
G05  22708978.175   119336442.180       -2211.271          46.000    22708979.985    92989415.910       -1723.378          43.000  
G22  21110069.493   110934355.577        -641.899          47.000                                                                  
G24  25848073.235   135832669.022        1237.049          38.000    25848079.650   105843881.927         964.110          39.000  
G15  23686030.218   124470957.960        2052.093          47.000    23686028.675    96990413.294        1598.763          41.000  
E30  24322216.674   127814280.346        -508.678          45.000    24322220.190    97935726.168        -389.746          50.000  
E27  26809599.015   140885514.022        1696.453          44.000    26809610.255   107951354.890        1300.013          45.000  
> 2024 06 08 16 59 30.0030000  0 25                     
E08  24957174.687   131150816.179       -1641.036          45.000    24957176.497   100492161.144       -1257.455          48.000  
E03  28679065.335   150709340.239       -3079.081          39.000    28679076.290   115478575.194       -2359.250          40.000  
G30  23591134.762   123972199.839       -2822.736          45.000    23591135.750    96601683.128       -2199.573          39.000  
R13  21403277.682   114292238.766         612.500          38.000    21403280.961    88894264.088         476.138          42.000  
R12  20703413.558   110593980.086       -2320.072          52.000    20703411.010    86017818.948       -1804.501          50.000  
R03  23506427.015   125831767.985        3205.370          45.000    23506425.184    97869203.748        2493.228          46.000  
R11  24388317.600   130323797.050       -4321.521          48.000    24388315.758   101362961.967       -3361.115          46.000  
G19  24323374.683   127820392.419        2131.690          43.000                                                                  
S31  39659163.001   208410227.831        -752.643          45.000  
S33  40648190.923   213607571.252        -754.172          40.000  
G17  23811703.938   125131567.859        1722.625          46.000    23811703.889    97505224.235        1341.822          39.000  
E02  26280098.736   138102910.741       -2942.281          46.000    26280100.840   105819147.379       -2254.323          49.000  
R02  20271813.087   108174285.676         354.610          50.000    20271813.263    84135585.711         275.969          48.000  
R01  21237463.291   113526386.437       -3548.839          47.000    21237463.344    88298410.669       -2760.239          44.000  
E18  21324578.567   112061647.673        -756.251          45.000    21324584.155    85865552.769        -579.500          44.000  
G13  21593176.970   113472957.211         809.467          48.000                                                                  
G20  23834713.330   125252075.550       -3648.521          45.000                                                                  
E07  24965548.190   131194887.473         709.153          47.000    24965552.917   100525965.053         543.408          52.000  
G14  21812390.622   114625035.432       -2730.731          45.000    21812389.600    89318235.542       -2127.917          46.000  
G05  22721639.636   119402972.060       -2224.136          47.000    22721640.187    93041257.123       -1732.981          43.000  
G22  21113777.567   110953840.967        -657.312          47.000                                                                  
G24  25840999.694   135795496.501        1240.549          38.000    25841005.720   105814916.533         966.710          39.000  
G15  23674319.635   124409414.131        2050.649          47.000    23674317.287    96942457.066        1598.029          41.000  
E30  24325145.390   127829668.461        -517.483          46.000    24325148.265    97947517.048        -396.515          50.000  
E27  26799923.847   140834670.069        1692.905          44.000    26799934.554   107912396.765        1297.063          45.000  
