     3.00           OBSERVATION DATA    M: Mixed            RINEX VERSION / TYPE
CONVBIN demo5 b34j                      20240609 013620 UTC PGM / RUN BY / DATE 
log: SAUC00CHL_R_20241601545_15M_30S_MO.ubx                 COMMENT             
format: u-blox UBX                                          COMMENT             
format: u-blox UBX                                          COMMENT             
log: SAUC00CHL_R_20241601545_15M_30S_MO.ubx                 COMMENT             
SAUC00CHL                                                   MARKER NAME         
                                                            MARKER NUMBER       
GEODETIC                                                    MARKER TYPE         
El Sauce            Obstech                                 OBSERVER / AGENCY   
UNKNOWN             UBLOX-ZED-F9P                           REC # / TYPE / VERS 
UNKNWOWN            TWIVSP6037L                             ANT # / TYPE        
  1813185.0000 -5195981.0000 -3216438.0000                  APPROX POSITION XYZ 
        0.0000        0.0000        0.0000                  ANTENNA: DELTA H/E/N
G    8 C1C L1C D1C S1C C2X L2X D2X S2X                      SYS / # / OBS TYPES 
R    8 C1C L1C D1C S1C C2C L2C D2C S2C                      SYS / # / OBS TYPES 
E    8 C1X L1X D1X S1X C7X L7X D7X S7X                      SYS / # / OBS TYPES 
S    4 C1C L1C D1C S1C                                      SYS / # / OBS TYPES 
  2024    06    08    15    45   00.0010000     GPS         TIME OF FIRST OBS   
  2024    06    08    15    45   30.0010000     GPS         TIME OF LAST OBS    
                                                            END OF HEADER       
> 2024 06 08 15 45 00.0010000  0 29                     
E08  24056837.138   126419530.9701       -553.750          45.000    24056837.192    96866897.0551       -424.396          50.000  
G09  24122331.858   126763644.6331      -3158.380          42.000    24122334.438    98776837.7651      -2460.785          39.000  
E03  26388363.895   138671736.9521      -2273.791          43.000    26388369.468   106254985.4031      -1742.164          43.000  
E26  28064317.964   147478894.0401      -1890.239          39.000    28064325.887   113003329.5971      -1448.272          43.000  
G30  21353693.301   112214402.6471      -2302.198          47.000    21353692.927    87439771.8131      -1793.969          46.000  
R13  22879250.592   122173918.9351       2819.504          32.000    22879262.848    95024318.5931       2192.377          40.000  
R12  19818400.711   105866402.3801        473.929          51.000    19818399.759    82340812.1431        368.518          49.000  
R11  20840640.255   111366132.0911      -3750.191          50.000    20840635.952    86618122.0721      -2916.903          47.000  
E25  27985950.054   147067158.4811      -3358.722          41.000    27985956.091   112687841.7661      -2573.728          47.000  
S31  39007265.964   204984532.5041       -752.483          45.000  
S33  39995546.012   210177959.2011       -753.141          40.000  
G17  25480892.065   133903062.0101       1858.418          41.000    25480902.448   104340116.6161       1447.937          35.000  
E02  24319776.751   127801371.5731      -1460.172          46.000    24319778.950    97925764.9901      -1118.857          50.000  
R02  21664212.871   115604389.7461       2549.740          50.000    21664212.616    89914553.7441       1983.219          46.000  
R08  22402160.871   119962541.4921      -3824.193          46.000    22402160.408    93304422.3441      -2974.392          45.000  
R01  19601718.448   104782448.1391       -327.298          46.000    19601716.959    81497581.4131       -254.769          43.000  
G07  23248792.765   122173155.4361      -3654.820          45.000    23248790.381    95199776.4751      -2847.974          40.000  
E18  22314702.958   117264590.6191       2584.449          37.000    22314722.598    89852170.2731       1980.282          40.000  
E13  28027674.312   147286334.4211      -3069.010          37.000    28027693.215   112855555.2791      -2351.659          44.000  
G13  22630298.077   118923057.7741       1452.209          47.000                                                                  
G20  21356336.879   112228255.8621      -1827.907          46.000                                                                  
E07  25780627.760   135478148.1961       1093.120          45.000    25780631.303   103807941.8631        837.676          48.000  
G11  25453359.859   133757995.1031      -3172.831          34.000    25453382.058   104226989.4081      -2472.401          38.000  
G14  20559712.137   108042163.6861        -35.093          48.000    20559709.228    84188726.2401        -27.459          48.000  
G05  21975414.468   115481589.0981        545.435          46.000    21975411.721    89985648.1361        424.912          44.000  
G22  21701238.976   114040958.0551       1917.812          48.000                                                                  
G15  25509476.377   134053195.4081       2098.443          42.000    25509478.886   104457083.2331       1634.897          40.000  
E30  24651723.749   129545831.9191       1263.765          47.000    24651726.953    99262495.3751        968.281          51.000  
E27  28554880.548   150056872.7601       2291.406          38.000    28554901.682   114978717.1721       1755.488          38.000  
> 2024 06 08 15 45 30.0010000  0 29                     
E08  24060021.851   126436268.970        -562.320          45.000    24060022.469    96879722.255        -430.862          50.000  
G09  24140389.560   126858540.466       -3168.475          42.000    24140392.060    98850782.426       -2468.671          39.000  
E03  26401368.222   138740074.170       -2282.216          43.000    26401373.731   106307347.572       -1748.713          43.000  
E26  28075147.773   147535799.252       -1903.319          40.000    28075154.725   113046932.101       -1458.670          42.000  
G30  21366862.914   112283607.622       -2311.896          47.000    21366862.357    87493697.758       -1801.386          46.000  
R13  22863455.924   122089566.469        2804.755          32.000    22863466.575    94958711.359        2181.014          40.000  
R12  19815810.914   105852565.979         448.206          51.000    19815809.998    82330050.582         348.560          50.000  
R11  20861738.210   111478872.305       -3766.018          50.000    20861734.047    86705808.872       -2929.282          47.000  
E25  28005148.998   147168048.518       -3367.093          41.000    28005154.916   112765147.070       -2580.226          46.000  
S31  39011571.377   205007156.126        -755.873          45.000  
S33  39999854.588   210200601.607        -756.711          40.000  
G17  25470274.481   133847269.771        1860.832          41.000    25470285.055   104296642.915        1449.981          35.000  
E02  24328159.355   127845421.254       -1476.720          46.000    24328161.243    97959517.293       -1131.494          50.000  
R02  21649903.341   115528032.277        2540.498          50.000    21649903.039    89855164.663        1976.005          46.000  
R08  22423630.665   120077510.941       -3840.785          47.000    22423630.078    93393842.813       -2987.299          44.000  
R01  19603621.695   104792619.218        -350.789          47.000    19603619.835    81505492.191        -272.817          44.000  
G07  23269668.935   122282859.202       -3659.075          45.000    23269666.829    95285259.845       -2851.504          40.000  
E18  22299987.343   117187267.614        2570.244          37.000    22300007.626    89792923.552        1969.568          40.000  
E13  28045206.148   147378457.486       -3072.569          37.000    28045224.653   112926142.325       -2354.345          44.000  
G13  22622019.710   118879557.347        1447.716          46.000                                                                  
G20  21366832.915   112283412.502       -1849.275          46.000                                                                  
E07  25774396.610   135445405.154        1089.638          45.000    25774400.702   103782853.092         834.947          47.000  
G11  25471475.371   133853178.491       -3172.885          33.000    25471496.411   104301157.884       -2472.389          40.000  
G14  20559979.152   108043563.123         -58.392          49.000    20559975.890    84189816.761         -45.623          48.000  
G05  21972361.533   115465546.588         523.806          46.000    21972359.120    89973147.430         408.204          45.000  
G22  21690338.297   113983672.335        1901.044          48.000                                                                  
G15  25497497.315   133990247.113        2097.848          42.000    25497499.370   104408032.746        1634.875          39.000  
E30  24644547.773   129508122.216        1250.033          47.000    24644550.973    99233600.946         957.764          50.000  
E27  28541810.658   149988188.289        2287.399          39.000    28541830.557   114926088.627        1752.918          35.000  
