     3.00           OBSERVATION DATA    M: Mixed            RINEX VERSION / TYPE
CONVBIN demo5 b34j                      20240609 013620 UTC PGM / RUN BY / DATE 
log: SAUC00CHL_R_20241602130_15M_30S_MO.ubx                 COMMENT             
format: u-blox UBX                                          COMMENT             
format: u-blox UBX                                          COMMENT             
log: SAUC00CHL_R_20241602130_15M_30S_MO.ubx                 COMMENT             
SAUC00CHL                                                   MARKER NAME         
                                                            MARKER NUMBER       
GEODETIC                                                    MARKER TYPE         
El Sauce            Obstech                                 OBSERVER / AGENCY   
UNKNOWN             UBLOX-ZED-F9P                           REC # / TYPE / VERS 
UNKNWOWN            TWIVSP6037L                             ANT # / TYPE        
  1813185.0000 -5195981.0000 -3216438.0000                  APPROX POSITION XYZ 
        0.0000        0.0000        0.0000                  ANTENNA: DELTA H/E/N
G    8 C1C L1C D1C S1C C2X L2X D2X S2X                      SYS / # / OBS TYPES 
R    8 C1C L1C D1C S1C C2C L2C D2C S2C                      SYS / # / OBS TYPES 
E    8 C1X L1X D1X S1X C7X L7X D7X S7X                      SYS / # / OBS TYPES 
S    4 C1C L1C D1C S1C                                      SYS / # / OBS TYPES 
  2024    06    08    21    33   44.4900000     GPS         TIME OF FIRST OBS   
  2024    06    08    21    34   00.4900000     GPS         TIME OF LAST OBS    
                                                            END OF HEADER       
> 2024 06 08 21 33 44.4900000  0 28                     
G28  22636996.083   118958233.1301       2717.301          39.000    22636992.357    92694692.8801       2117.635          35.000  
G11  19549727.074   102734813.4581         24.624          47.000    19549724.943    80053240.2031         19.226          45.000  
G12  18404356.812    96715817.5761       -926.783          49.000    18404349.274    75363533.4171       -722.227          40.000  
R13  20123274.166   107457158.2861      -2859.180          36.000    20123275.127    83577796.1341      -2223.638          35.000  
R17  17592084.109    94138961.3651       2626.843          50.000    17592081.474    73219343.8661       2043.041          47.000  
R14  17285266.474    92140503.3881       -515.190          51.000    17285266.126    71665041.6921       -400.689          48.000  
R18  21379761.306   114126616.6471       3765.205          41.000    21379773.905    88765183.6021       2928.416          40.000  
R04  20128524.600   107787095.2071      -4117.632          48.000    20128534.929    83834358.7681      -3202.601          42.000  
G32  20388493.127   107142292.8891       -173.861          46.000    20388493.263    83487418.3011       -135.357          38.000  
S31  35761572.575   187928271.5281       -730.388          46.000  
S33  36755345.262   193150660.4131       -730.639          41.000  
G06  20726148.545   108916875.1421      -2132.043          43.000    20726148.413    84870429.1081      -1661.353          41.000  
R23  20616732.252   110285626.3961      -4612.935          47.000                                                                  
R24  16960623.132    90696362.9421      -1474.308          52.000    16960618.801    70541728.0221      -1146.694          47.000  
R05  19669388.953   105144128.6761      -2005.299          49.000    19669390.193    81778742.8261      -1559.474          43.000  
R15  18752655.160   100208559.6221       1588.365          50.000    18752652.915    77939993.9131       1235.377          47.000  
G25  18764704.838    98609485.5291        454.114          47.000    18764703.555    76838699.6851        353.666          43.000  
E21  22111207.629   116195440.4181        207.896          45.000    22111210.939    89033041.5251        159.290          49.000  
G29  19180968.668   100796861.7821       1849.233          48.000    19180967.977    78543113.2771       1440.721          41.000  
E19  22604292.661   118786406.0441       -723.614          38.000    22604297.486    91018177.9721       -554.531          43.000  
E07  24770693.609   130170659.9011      -3638.438          39.000    24770716.596    99741095.9921      -2787.747          43.000  
E15  22456369.271   118009201.8341       -126.707          45.000    22456372.109    90422910.5791        -97.022          47.000  
E13  22866150.453   120162631.1201       1931.862          45.000    22866157.136    92072800.2631       1480.295          49.000  
G24  17757598.085    93317064.5371      -1982.886          49.000    17757596.713    72714871.7361      -1544.904          44.000  
G15  21780549.349   114457372.5061      -3727.468          41.000    21780559.109    89187567.5961      -2904.570          37.000  
E30  24652937.197   129552234.6441      -2310.522          40.000    24652939.524    99267407.3611      -1770.312          42.000  
E27  21440860.137   112672757.0271      -1324.992          44.000    21440862.581    86333827.7491      -1015.309          49.000  
E34                                                                  25059361.628   100903731.3411      -1833.496          28.000  
> 2024 06 08 21 34 00.4900000  0 28                     
G28  22628722.902   118914760.334        2716.603          39.000    22628720.191    92660817.922        2116.924          36.000  
G11  19549668.094   102734502.371          14.228          47.000    19549665.591    80052997.850          10.894          45.000  
G12  18407183.866    96730670.480        -929.907          51.000    18407175.035    75375107.200        -724.689          41.000  
E34  25066657.227                       -2397.269          25.000    25066659.189   100933047.9951      -1839.510          27.000  
R13  20131851.710   107502959.0351      -2864.725          35.000    20131850.530    83613412.721       -2228.190          35.000  
R17  17584245.774    94097017.969        2616.014          50.000    17584242.995    73186721.314        2034.555          47.000  
R14  17286821.297    92148791.112        -520.761          51.000    17286820.860    71671487.711        -404.907          48.000  
R18  21368477.151   114066380.043        3764.701          41.000    21368489.464    88718332.833        2927.724          39.000  
R04  20140833.666   107853008.374       -4121.438          48.000    20140843.502    83885624.362       -3205.606          42.000  
G32  20389039.366   107145162.240        -184.975          45.000    20389038.860    83489654.139        -144.111          39.000  
S31  35763798.195   187939967.804        -731.913          46.000  
S33  36757571.438   193162360.212        -731.936          41.000  
G06  20732656.320   108951072.709       -2142.737          43.000    20732655.730    84897076.594       -1669.745          41.000  
R23  20630539.827   110359488.603       -4620.096          47.000                                                                  
R24  16965057.970    90720077.656       -1490.142          51.000    16965053.545    70560172.828       -1159.020          47.000  
R05  19675409.392   105176313.129       -2017.790          47.000    19675410.234    81803775.087       -1569.526          43.000  
R15  18747900.953   100183156.789        1586.887          50.000    18747899.091    77920236.186        1234.204          47.000  
G25  18763326.343    98602240.216         451.533          47.000    18763324.275    76833054.019         351.848          43.000  
E21  22110577.352   116192127.778         206.150          45.000    22110580.452    89030503.343         157.862          49.000  
G29  19175350.397   100767338.798        1841.172          48.000    19175350.097    78520108.482        1434.625          41.000  
E19  22606509.099   118798054.811        -732.233          38.000    22606514.130    91027103.657        -561.160          43.000  
E07  24781769.763   130228868.091       -3637.809          38.000    24781793.064    99785697.145       -2787.511          43.000  
E15  22456768.114   118011297.505        -135.370          45.000    22456770.806    90424516.405        -103.720          47.000  
E13  22860274.038   120131751.418        1928.051          46.000    22860280.685    92049139.320        1477.389          49.000  
G24  17763651.392    93348873.036       -1993.176          49.000    17763649.904    72739657.573       -1553.149          44.000  
G15  21791896.868   114517005.295       -3726.460          41.000    21791906.675    89234034.839       -2903.724          37.000  
E30  24659973.648   129589210.412       -2311.408          40.000    24659975.936    99295739.494       -1771.470          42.000  
E27  21444897.440   112693972.411       -1326.919          44.000    21444899.789    86350083.704       -1016.758          49.000  
